id,name,categories,city,Zip,lat,lng
4b747278f964a5203add2de3,Sheng Kee Bakery,Bakery,Milpitas,95035,37.45693294500664,-121.91068774469434
5da3dcdf7595dd00073abd08,Mian Bao House,Bakery,Milpitas,95035,37.455523,-121.909897
4dfc3dea185009bba4de6f60,Kee Wah Bakery,Bakery,Milpitas,95035,37.455324812263605,-121.91007397805213
55d8f443498edc33c2cfcfc9,The Original Luisa & Son Bakeshop,Bakery,Milpitas,95035,37.4571540343016,-121.91085060171386
55da90d0498e11b2e967d51b,California Bakehouse,Bakery,Milpitas,95035,37.455292627292536,-121.9100726475685
4e7ac120ae60a0e3b07026f4,Paris Baguette,Bakery,Palo Alto,94301,37.44715095437265,-122.16055066729383
5737efcdcd10997f59506ddc,Pink Posy Bakeshop,Bakery,Palo Alto,94304,37.442730100000006,-122.170176
4625d98ff964a520b8451fe3,The Prolific Oven,Bakery,Palo Alto,94301,37.44658585111153,-122.15981494300692
4ce57e953c87224b35adb86b,Orange Bakery,Bakery,Palo Alto,94301,37.446954594212336,-122.16049346967262
4f5a97a4e4b02628c0505d4b,Confiserie Teuscher,Bakery,Palo Alto,94304,37.44293295135966,-122.17215202755779
4e49cccb1fc7a73d0db3d752,My Bakery,Bakery,Palo Alto,94304,37.44218033605047,-122.17072069644928
4f32a4d619836c91c7ebca59,Boudin Sourdough Bakery and Cafe,Bakery,Palo Alto,94304,37.442468,-122.17051299999999
4b0edff1f964a5203a5c23e3,Golden Bakery,Bakery,Milpitas,95035,37.43491265438026,-121.88326800003784
5992cb936a5950154d2dd5de,Walmart Bakery,Bakery,Milpitas,95035,37.431466,-121.92108799999998
534d7a18498ee5503646f7c5,3 G's cafe,Bakery,Palo Alto,94306,37.434290002433094,-122.12273170313613
5d8fbbaffa32620007ed47d1,Misfits Bakehouse,Bakery,Palo Alto,94306,37.433223999999996,-122.12946000000001
4a276803f964a5207d911fe3,Palo Alto Baking Company,Bakery,Palo Alto,94306,37.42669773518513,-122.14440796678234
4cc62655b2beb1f7f7ef264c,Kara's,Bakery,Palo Alto,94301,37.4377185,-122.15649769999999
54a32723498e9722fa0e9812,Tout Sweet Patisserie,Bakery,Palo Alto,94301,37.439113,-122.15825600000001
4f32a82f19836c91c7ed0e4c,Pw Supermarkets,Bakery,San Jose,95132,37.414096,-121.874248
4c48868c1ddec9283fdca032,Valerio's Tropical Bakeshop,Bakery,Milpitas,95035,37.41665506750193,-121.87622986231364
4c388931dfb0e21e08b0aea8,Goldilocks Bakeshop & Restaurant,Bakery,Milpitas,95035,37.41665095680378,-121.87683405407948
5b21869fd0a149002c3ef12e,Kee Wah Bakery,Bakery,Milpitas,95035,37.414576000000004,-121.89595200000001
4f32afec19836c91c7efeafa,Red Ribbon Bake Shop,Bakery,Milpitas,95035,37.415756,-121.894329
4c4e0f54db2c20a1d07ecc73,Elite Bakery,Bakery,Milpitas,95035,37.41518352044065,-121.87649870284471
4f329c6519836c91c7e89f15,California Golden Cookies,Bakery,Milpitas,95035,37.419442,-121.899902
4cdafdcc8ec69eb0fc05a6e9,Pretzelmaker,Snack Place,Milpitas,95035,37.41557957035418,-121.89809288988144
4b442c59f964a52059f225e3,Red Ribbon Bakeshop - Great Mall,Bakery,Milpitas,95035,37.415926081014746,-121.89910613884445
4b6f5332f964a52065eb2ce3,@Cinnabon,Bakery,Milpitas,95035,37.41613874132831,-121.89675527475306
4b5b6d77f964a5203efd28e3,Sheng Kee Bakery,Bakery,Milpitas,95035,37.42353802579553,-121.91758584179514
54f0c23a498ec36f930b0b21,85C Bakery Cafe,Bakery,Milpitas,95035,37.419523,-121.915474
56a3fb02498e6a104f2e4e4f,Meka Bakery,Bakery,Milpitas,95035,37.41879919696369,-121.90459902934386
4f443b26e4b0f766d4094824,Sogo Bakery,Bakery,Milpitas,95035,37.422326316733106,-121.9169073426663
5ca775e04ac28a002b8ae4ca,The Midwife and the Baker,Bakery,Mountain View,94043,37.416472,-122.097532
4f32afd319836c91c7efe1cd,Russian Club,Bakery,Mountain View,94043,37.420109000000004,-122.09688999999999
4eb4754029c212fb6bfcb3e7,Acme Bread Company,Bakery,Mountain View,94043,37.411875,-122.08199099999999
4f3251c719836c91c7cc0e76,Acme Bread,Bakery,Mountain View,94043,37.41643,-122.097667
4e2c98036284b96d7b8c5cd5,Anko Bakery Cafe,Bakery,Palo Alto,94306,37.413050448359975,-122.1253538131714
5c475fe17b385f002c19259e,Specialty's,Bakery,Palo Alto,94306,37.420875,-122.14132099999999
4d8ad5f276e1236a320b2343,Grandmas House,Bakery,San Jose,95132,37.410818,-121.863895
4fdb7a90e4b08a6fe3bfc83f,Dauzon,Bakery,San Jose,95132,37.4043828,-121.8781989
4f32403719836c91c7c518a9,Le Petit Croissant,Bakery,San Jose,95134,37.409901,-121.945
5365797d498e00c99a2f35ce,Auntie Anne's,Food Stand,Santa Clara,95054,37.397946399999995,-121.9742936
4aca4d61f964a5204ec120e3,Sunny V Cafe,Japanese Restaurant,Sunnyvale,94089,37.397432,-121.99709
4f323a1d19836c91c7c2afa2,Allegria Italian Bakers,Bakery,Sunnyvale,94089,37.398124,-122.02004
4fa09194e4b0908b48c2330a,Ruby's Pan Dulce,Bakery,Sunnyvale,94085,37.39717951970264,-122.02321635575944
52195b42049385bc02aea7e0,The Eloquent Oven,Bakery,Mountain View,94043,37.401307,-122.056767
505e7ca8e4b043ddbc9cd233,The Kitchen,Bakery,Mountain View,94040,37.39804375727864,-122.09669556397272
4b7ae253f964a5209c432fe3,Esther's German Bakery,German Restaurant,Los Altos,94022,37.39996123338434,-122.11405924668695
50b28913e4b0c9aea403d903,Anh Sa'nBakery,Bakery,San Jose,95127,37.381558,-121.82776299999999
4bc741eeaf07a59323cc7e2d,Valerio's City Bakery,Bakery,San Jose,95132,37.387321132993854,-121.85843545028858
571bebb6498edc8b1b2d30cc,Paris Baguette,Bakery,San Jose,95131,37.387300313161454,-121.88335229801987
56fdc2c3498e4cb16b54dc5f,Love Snacks House,Bakery,San Jose,95133,37.380371351388504,-121.89521822783888
4f32756719836c91c7d9d1bf,L' Amor Des Baguettes,Bakery,San Jose,95131,37.387549,-121.8854
4f32560319836c91c7cdb13a,PW Supermarkets 9-Bakery,Bakery,San Jose,95131,37.381901,-121.895578
4f32196619836c91c7b5bf42,Lagenda Networks,Bakery,San Jose,95131,37.38176,-121.893255
57771668498ecedd92c6cffd,Antoine Patisserie,Bakery,San Jose,95131,37.384777,-121.90736299999999
4f32236f19836c91c7b9e34d,Sara Lee Bakery Group,Bakery,San Jose,95131,37.392032,-121.91424199999999
4f3237c819836c91c7c1c14b,Earthgrains Baking Company,Bakery,San Jose,95131,37.389689,-121.917989
4f32357b19836c91c7c0e3f9,Nahrain Bakery and Restaurant,Bakery,Santa Clara,95054,37.383571999999994,-121.949302
4c608d88de6920a193479664,In Production Kitchen,Bakery,Santa Clara,95054,37.394702,-121.972127
54879f56498e8454fab705e4,Panera Bread,Bakery,Sunnyvale,94085,37.381366299999996,-121.99642630000001
5a9ef8b5c97f284aaf58fe32,Walmart Bakery,Bakery,Santa Clara,95054,37.3900085,-121.98550220000001
59da99de1ffed7697ae3a5bb,Feride’s Bakery,Bakery,Santa Clara,95054,37.393128000000004,-121.97762
5955c66cdb2aeb08863737b6,Lillian Bakery & Cafe,Bakery,Sunnyvale,95070,37.38158,-122.00818999999998
4f32885f19836c91c7e10e82,Daddy Dough Bake Shop,Bakery,Sunnyvale,94085,37.388387,-122.004939
4f32722519836c91c7d89527,The Smart Cookie Bakery,Bakery,Sunnyvale,94085,37.388379,-122.00485400000001
4f3241f919836c91c7c5c83b,April's Bakeshop and BBQ,Bakery,Sunnyvale,94085,37.382109,-122.018749
50183fb1e4b080271182bf24,Jomin's Cafe & Bakeshop,Bakery,Sunnyvale,94085,37.38903812224487,-122.0045537967448
4f32517219836c91c7cbebc9,Entenmanns -Oroweat Foods,Bakery,Sunnyvale,94085,37.389924,-122.03124
4a087f29f964a520d6731fe3,Le Boulanger,Bakery,Sunnyvale,94085,37.38522459826104,-122.03215487677356
4f326d9d19836c91c7d6de52,Bakers Square Restaurant and Pie,Bakery,Sunnyvale,94085,37.395442,-122.027699
4f32881c19836c91c7e0f55a,Bimbo Bakeries USA,Bakery,Sunnyvale,94085,37.390205,-122.03115
4f32b3c419836c91c7f157d9,Old Country Bakery,Bakery,Sunnyvale,94085,37.390099,-122.032123
4c2f9ed616adc92845e6bd9c,Oroweat Bakery Outlet,Bakery,Sunnyvale,94085,37.389756,-122.032305
5c69c54d1acf11002c5677bc,Adorable French Bakery,Bakery,Mountain View,94041,37.393166,-122.07345600000001
5b9da35701bc5a002c03ae7b,Paris Baguette,Bakery,Mountain View,94041,37.39230604792762,-122.07987144979806
4b11b8c5f964a5201f8323e3,Le Boulanger,Bakery,Mountain View,94041,37.38814849370911,-122.08262729329216
4f3293dc19836c91c7e56a34,Annie's Coffee Place,Bakery,Mountain View,94040,37.386146999999994,-122.08456799999999
4a0a3e7cf964a52096741fe3,Hong Kong Bakery,Bakery,Mountain View,94041,37.39366306130386,-122.07912214838748
54f7d9be498e859ac22c7ddb,Dial-a-Dessert,Bakery,Mountain View,94041,37.386125688284594,-122.07835078239441
4b2f98e0f964a520d1ec24e3,Peters' Bakery,Bakery,San Jose,95127,37.36594435314043,-121.82751428607084
4b770e59f964a520bd782ee3,V Tropical Bake Shop,Bakery,San Jose,95127,37.37472855405521,-121.83773280402708
4c55b5c730f92d7fe41099bc,Triple One Bakery,Bakery,San Jose,95116,37.367385999999996,-121.84897899627686
4f3289a219836c91c7e18809,Soung Hu,Bakery,San Jose,95127,37.366299,-121.827003
4bba6b0ccf2fc9b6fc89a102,El Buen Gusto,Taco Place,San Jose,95133,37.37292740634655,-121.87320684692163
55c213e7498e3e3e795529fe,Go Raw,Bakery,San Jose,95133,37.365404,-121.863038
4ba91716f964a5207e0a3ae3,Aroma Coffee And Snacks,Bakery,San Jose,95133,37.36574263638281,-121.8515934888355
4f324a5b19836c91c7c9248e,Campbell Bread Baking Co,Bakery,San Jose,95112,37.367199,-121.884003
5d17a490a18cd5002f1d62a9,Ricarmi,Bakery,San Jose,95133,37.368879,-121.87788300000001
4f32a70519836c91c7ec9ec7,Bimbo Bakeries USA,Bakery,San Jose,95112,37.369287,-121.88935
4f453d2d19836ed001997381,Doris Bakery,Bakery,San Jose,95112,37.374001,-121.907997
4ecc19b429c26a6284d809e9,Mini Yums Truck,Food Truck,San Jose,95110,37.36864,-121.91726100000001
4f32333419836c91c7bffeac,Bimbo Bakeries USA,Bakery,San Jose,95112,37.371634,-121.903456
4f32348d19836c91c7c0869a,Svenhards Swedish Bakery,Bakery,San Jose,95112,37.370471,-121.90745700000001
4d0804c5611ff04dd3d618fb,Brioche Doree,Bakery,San Jose,95110,37.36595395445903,-121.92579320153077
4af71882f964a520ca0522e3,Le Boulanger,Sandwich Place,San Jose,95110,37.366791407341104,-121.92682405151037
4f32b10619836c91c7f0548b,Prolific Oven,Bakery,Santa Clara,95050,37.365789,-121.954286
4f32512f19836c91c7cbd166,Swan Deli Bakery,Bakery,Sunnyvale,94086,37.372614,-121.989488
5be71400f8cbd4002c9ef589,Judy’s Handmadr Cake,Bakery,Sunnyvale,94086,37.376053999999996,-122.01489699999999
50d72b8fe4b028bbd507fe77,la petite choux,Bakery,Sunnyvale,94087,37.36750030517578,-122.03255462646484
5ce99820bb8d36002c775b2b,43 & Co.,Bakery,Sunnyvale,94086,37.375941999999995,-122.02967
4b00989ef964a520d13f22e3,Cafe Grain D'or,Bakery,Mountain View,94040,37.37899138908279,-122.07218389968936
49eddb9ff964a520fe671fe3,Sugar Butter Flour,Bakery,Sunnyvale,94087,37.3720289581999,-122.05764937903015
4f32aeca19836c91c7ef7fb7,BP Bakery,Bakery,Sunnyvale,94087,37.372508,-122.058033
4b29521cf964a520d99c24e3,Safeway,Grocery Store,Mountain View,94040,37.3722912,-122.08823729999999
4b415cd7f964a520d9c525e3,Satura Cakes,Bakery,Los Altos,94022,37.378835253654366,-122.11586035125431
574f2b42498ed111ad66c711,Manresa Bread,Bakery,Los Altos,94022,37.37923427643677,-122.11707996478634
4a11b54cf964a52031771fe3,Le Boulanger,Bakery,Los Altos,94022,37.37825780137013,-122.1168025456654
5df69fc33a034100086c4575,Sweet Diplomacy,Bakery,Los Altos,94022,37.378502000000005,-122.11812900000001
4bb8c4f3b35776b0e632c901,Rica Panaderia,Bakery,San Jose,95127,37.35760416358673,-121.81769615657444
4f32999119836c91c7e79243,Canelita Bakery,Bakery,San Jose,95116,37.355763,-121.848647
4f32644619836c91c7d34346,Pw Supermarkets,Bakery,San Jose,95116,37.3582,-121.844002
4f325f5719836c91c7d1546f,Rica Panaderia 2,Bakery,San Jose,95127,37.362391,-121.82573700000002
521048a611d271f097957a23,Mexico Bakery,Bakery,San Jose,95116,37.350597,-121.859538
506f7c92e4b04be4319ca620,Padaria Popular Bakery,Bakery,San Jose,95116,37.351229,-121.858094
4fafb9f0e4b097c37ebb786e,Panaeria,Breakfast Spot,San Jose,95116,37.35203095066881,-121.86981715497282
4bb26325eb3e952184f4c90a,Sweet Passions Bakery,Bakery,San Jose,95116,37.350365000000004,-121.86031401157379
54fb3d7a498e39df2f280ca8,Rollo's Donut and Coffee Shop,Bakery,San Jose,95112,37.353015,-121.886091
4f32759b19836c91c7d9e52a,K and H Wholsesales Bakery,Bakery,San Jose,95112,37.356645,-121.892831
5997176f4ce0661480c40cc2,HTH Bakery,Bakery,San Jose,95112,37.360791600000006,-121.8991962
4adb513cf964a520da2521e3,Ortiz Panaderia,Bakery,San Jose,95112,37.356825,-121.888791
4f40cb95e4b0e408252c26ff,Location #3,Bakery,San Jose,95112,37.35168879820589,-121.87872764861952
4f7b6b45e4b0f17ed0b8f107,Let Them Eat Cake,Bakery,San Jose,95112,37.360874,-121.899289
4fc94cb8e4b0f70aa70dff73,Van Loi Bakery - Pure Water,Bakery,San Jose,95112,37.3568656080745,-121.90101463473353
54e3a27b498ec2e50af79207,Panera Bread,Bakery,Santa Clara,95050,37.3520130507622,-121.95999851915985
4c2bef368ef52d7f6c4032ba,Portuguese Bakery,Portuguese Restaurant,Santa Clara,95050,37.350006,-121.961593
4e614f9c8877954de7b62a56,Coppenhagen Bakery & Deli,Bakery,Santa Clara,95050,37.352950310582216,-121.96140934619436
56f5a02f498e2135c3099896,Chloe's Taiyaki,Bakery,Santa Clara,95051,37.351616,-121.990007
4f322d5f19836c91c7bdc253,Bakers Square Restaurant and Pie,Bakery,Santa Clara,95051,37.352063,-121.979331
4c1d072c63750f479b82b767,Yewon Rice Cake,Bakery,Santa Clara,95051,37.351695,-121.986402
4f3297d519836c91c7e6e913,Avila Eva,Bakery,Santa Clara,95051,37.35675300000001,-121.988536
4b79ede3f964a520db1a2fe3,Baker's Village,Bakery,Santa Clara,95051,37.35138009160847,-121.99983799638932
4fe0b8e8e4b043a043f9c342,miramar terrace,Bakery,Santa Clara,95051,37.35786829333471,-121.99857407125201
4f53e9a5e4b03be364926f5d,Galleria Cafe Coffee and Snack,Bakery,Santa Clara,95051,37.353687,-121.993425
5c1bf4b883e380002cf219e5,Paris Baguette,Bakery,Sunnyvale,94087,37.36146170076272,-122.02572645445372
4b798cddf964a520bb002fe3,Bay Area Hot Breads,Bakery,Sunnyvale,94087,37.36351003925806,-122.02827779715929
5a135315b6b04b64ee90ce39,Cafe Stop Fresh Bakery,Bakery,Sunnyvale,94087,37.351490999999996,-122.032684
575048b9498e2af4ba8cc749,cakeydoodle,Bakery,Los Altos,94024,37.361622,-122.097976
4f3267b219836c91c7d4922f,El Rico Pan Bakery,Bakery,San Jose,95148,37.341606,-121.80578999999999
4f4ea9eae4b0e524805c9d0c,El Buen Gusto Bakery,Bakery,San Jose,95116,37.345556,-121.84789
4f326e4919836c91c7d71c3b,Romeros Cakes,Bakery,San Jose,95122,37.341069,-121.83394299999999
4bb7f6bb53649c748f9046fb,Pink Elephant Bakery,Bakery,San Jose,95116,37.34508695956505,-121.84850992981148
4cba47329552b60cc141d98b,La Mexicana Bakery,Bakery,San Jose,95116,37.341096,-121.862118
4bcb865bfb84c9b6aa121f3e,Saigon Bakery,Bakery,San Jose,95122,37.33438976370649,-121.85597086997294
4ef63fa78b81ef98cfc7a721,Linda's Bakery,Bakery,San Jose,95121,37.3442069089798,-121.87306348152548
5dd9a11dbc9461000847bed7,Pastelaria Adega,Bakery,San Jose,95113,37.336325,-121.889817
4f326c8019836c91c7d67022,Bears Papas Downtown San Jose,Bakery,San Jose,95112,37.334272,-121.886008
4a16fbaaf964a5202c791fe3,Sandella's Flatbread Cafe,Bakery,San Jose,95113,37.33421001406457,-121.88889907523516
5a9c6d47da708024c338d6a2,Bread Brothers,Creperie,San Jose,95110,37.336532,-121.89417900000001
5c211a8e464d65002cb69fa9,Claudia's Pastes,Empanada Restaurant,San Jose,95113,37.336372,-121.88978999999999
4a6224bff964a52030c31fe3,Bakery Mexico No 2,Bakery,San Jose,95113,37.337046988304586,-121.88895759661258
54b08387498e96227192fd42,Sultan Bakery,Bakery,San Jose,95126,37.34035397646002,-121.91281243124031
4f3238e719836c91c7c23375,Empanadas for Us,Bakery,Santa Clara,95050,37.347996,-121.948935
592e2c4f8c35dc56bc8c7eb2,Lavita Bakery And Gelato,Bakery,Santa Clara,95050,37.344390000000004,-121.93224
52c8775c498eefa3704025c1,Tous Les Jours Santa Clara,Bakery,Santa Clara,95051,37.338955231270646,-121.99473536433477
4f325d6b19836c91c7d0961e,Ewha Dang,Bakery,Santa Clara,95051,37.345923,-121.97901100000001
4bc93bab511f9521fc80adc7,@Cinnabon,Bakery,San Jose,95122,37.32602352121764,-121.81314212063108
4cb89b997148f04dde4fd1ab,Hong Van Bakery,Bakery,San Jose,95122,37.319172232634024,-121.82421957058176
4b786a27f964a52082cc2ee3,Van's Bakery,Bakery,San Jose,95122,37.322800108954134,-121.82412599353964
4bd36fee9854d13a32d2fd4d,Red Ribbon Bake Shop,Bakery,San Jose,95122,37.326261021791844,-121.8189949907245
4c22372099282d7fcabc66b0,Fernandez Bakery/Panderia,Bakery,San Jose,95122,37.32564793722385,-121.80028739209186
4b6de769f964a520889a2ce3,Euro Delights Bakery,Bakery,San Jose,95122,37.32198430571003,-121.82392832864123
5a3d8c7703132048f1ac5827,Dzui's Cakes & Desserts,Bakery,San Jose,95121,37.318634,-121.82803
4cbb5b1e0180721ead1b9f61,Rica Panaderia No. 3,Bakery,San Jose,95122,37.3220686,-121.82724745
4f321db719836c91c7b78661,Los Tres Hermanos Panderia,Bakery,San Jose,95122,37.325214,-121.846915
4f7b63bbe4b07cdfad723a52,Yummerz Baked Goods,Bakery,San Jose,95122,37.327495153632825,-121.84316477572823
4f3222e019836c91c7b9ac07,New Van Loi,Bakery,San Jose,95121,37.319707,-121.82805
56e0897bcd107ea295d2d088,CA Bakehouse,Bakery,San Jose,95122,37.331185,-121.856928
4b991ee2f964a520b76235e3,Century Bakery,Bakery,San Jose,95122,37.33299695055482,-121.85637734978977
4e38ad5dfa763bfcc3672281,B P Bakery,Bakery,San Jose,95112,37.323399030734784,-121.87030936562913
59936c0cc9a5171a4b2b6dd2,Walmart Bakery,Bakery,San Jose,95122,37.32904296,-121.8592369
5a91e657838e5950a5f3bdb4,Paris Baguette,Bakery,San Jose,95122,37.332983,-121.85632199999999
4f325db319836c91c7d0b2e3,Buiphong Bakery,Bakery,San Jose,95112,37.323201,-121.870364
4eae17a07ee59f16093a7c0b,La Sonorense Panaderia,Bakery,San Jose,95110,37.31892268344605,-121.88226830055856
4f448e4d19836ed00194da58,Vinh Hing Bakery,Bakery,San Jose,95110,37.321947,-121.879092
4f3277dc19836c91c7dabd8f,Roma Bakery,Bakery,San Jose,95110,37.324298999999996,-121.88616
4f6bc2d6e4b032eb6176c55c,Panaderia y Reposteria Colombiana Juancho pan,Bakery,San Jose,95110,37.3223424,-121.8861451
4e4e393fbd4101d0d7a53daf,Le Boulanger,Bakery,San Jose,95113,37.333808000000005,-121.89091599999999
4f3272a419836c91c7d8c54a,Lou's Do-Nut Shop,Bakery,San Jose,95126,37.3269,-121.895077
4cd0967501eaf04d77b8b95d,El Rico Pan,Bakery,San Jose,95110,37.318762,-121.882917
4a8701aff964a520140220e3,Greenlee's Bakery,Bakery,San Jose,95126,37.331668388837045,-121.91136513038909
4f32470219836c91c7c7d347,Perkins and Associates,Bakery,San Jose,95126,37.328605,-121.906136
58644326a37d724152b96ae9,Rawsinka,Bakery,San Jose,95126,37.332807,-121.910332
4b0c8008f964a520603e23e3,Wetzel's Pretzels,Snack Place,Santa Clara,95050,37.3260392893825,-121.94373159711412
4d7403f7949854815567247e,Palo Alto Baking Company,Bakery,San Jose,95128,37.32355128736178,-121.94220869274193
4c882f0f0f3c236ae309f15c,Andersen's Bakery- Valley Fair,Bakery,San Jose,95050,37.32521151005506,-121.94705828686601
4cffeb912685a35d85f8c590,Holland Pastry Shop,Bakery,San Jose,95128,37.31897861666667,-121.93168600000001
4f32469c19836c91c7c7a92f,Plutos Fresh Food for A Hungry Universe,Bakery,San Jose,95128,37.320815751008965,-121.94889696590765
4f328a7a19836c91c7e1d913,Grain Dor Bakery,Bakery,Santa Clara,95050,37.325371000000004,-121.94743600000001
5b4a50048a4cf5002c05ba3c,Cinnabon,Bakery,San Jose,95128,37.32546,-121.94343
58fd33df6dcf04109106ad58,Kee Wah Bakery 奇華餅家,Bakery,San Jose,95050,37.326018,-121.945
5a9ef94f829b0c46c1828515,Walmart Bakery,Bakery,San Jose,95129,37.321668,-121.97318200000001
57a13b29498e82e4b79d9948,85C Bakery Cafe,Bakery,Cupertino,95014,37.323904,-122.011104
4b775e83f964a520bd952ee3,La Patisserie,Bakery,Cupertino,95014,37.321970239539006,-122.01895022693847
4bd9c633905bef3be63b6e93,L'epi D'or Bakery (金麥),Bakery,Cupertino,95014,37.323789610186175,-122.01785970836893
4f805b8fe4b01e69d6d9ccf7,The Indulgent Rose,Bakery,Cupertino,95014,37.33018,-122.018249
518dbd5c498e20e11590d155,Paris Baguette,Bakery,Cupertino,95014,37.32372061031672,-122.03552120849335
4af1b8fcf964a5207be221e3,Le Boulanger,French Restaurant,Cupertino,95014,37.322673148173386,-122.03189650799291
4cddc3ffdb125481af572cce,Sheng Kee Bakery,Bakery,Cupertino,95014,37.324661,-122.033723
4bb0c33cf964a520c05a3ce3,IL1 Coffee Shop,Bakery,Cupertino,95014,37.32213415237774,-122.03096727268536
4f327a1919836c91c7db9836,Renes Mexican Bread,Bakery,San Jose,95148,37.317904,-121.797311
5b82f2aaa0215b002c9548cd,Quyen Bakery,Bakery,San Jose,95121,37.308838,-121.813183
59123149ad910e524f1e3841,Bonne Baguette Bakery,Bakery,San Jose,95121,37.31082315061076,-121.80989384651184
4f3247c419836c91c7c821e2,Goldilocks Bakeshop and Rest,Bakery,San Jose,95121,37.311298,-121.807999
506e725fe4b09e96f009b5a3,Nora's Dreamcloud,Bakery,San Jose,95148,37.315028999999996,-121.805799
4f32a4f519836c91c7ebd64c,Adult Exotic Cakes,Bakery,San Jose,95125,37.304957,-121.872136
54c07e32498ee52a435ef4d6,Churros El Guero,Bakery,San Jose,95122,37.30510330200195,-121.85308837890624
5a9f08b65d891b5ce7affdf8,Walmart Bakery,Bakery,San Jose,95112,37.316089,-121.87096499999998
4c6355b6eb82d13adccf07d6,Cake Expressions,Bakery,San Jose,95112,37.305260555078405,-121.87223523259917
4b9435d1f964a520cc6e34e3,Flower Flour,Bakery,San Jose,95125,37.310140000000004,-121.89698
4ad8c2b9f964a5206e1421e3,Le Boulanger,Sandwich Place,San Jose,95125,37.30428861907347,-121.89809118079219
4f3218a819836c91c7b57133,Gold Tree Bakery,Bakery,San Jose,95128,37.318032,-121.931831
58905274fc5a5f18a38e0c6f,A Vie Bakery,Bakery,San Jose,95128,37.309521,-121.932139
4ba93148f964a52003133ae3,Entenmann's-Oroweat Bakery Outlet,Bakery,San Jose,95128,37.306529,-121.932369
4fe21ca9e4b0b689ab625de2,Lollipop Stop 2,Bakery,San Jose,95117,37.317054748535156,-121.97503662109376
53922b50498e574c69aecbf0,Paris Baguette,Bakery,San Jose,95129,37.314784509662985,-121.97701668586176
4d0047686edfa093036f0b15,Jenny's Kitchen,Bakery,San Jose,95129,37.30964622268168,-121.99521040127216
4f3279df19836c91c7db8240,La Petite Bakery,Bakery,San Jose,95129,37.308451,-121.977709
4e0690938130709eafbc8580,Kee Wah Bakery,Bakery,Cupertino,95014,37.31785655558167,-122.03210525127905
4f43468e19834bc91f55a8c8,Canela Expresso and Pastries,Bakery,Cupertino,95014,37.314058,-122.06844299999999
4bca1d480687ef3bdf4fdbcc,Tai Pan Dim Sum Bakery,Dim Sum Restaurant,San Jose,95121,37.30027604835658,-121.82409201172985
4f3250fa19836c91c7cbbd1e,Wonder Bread,Bakery,San Jose,95111,37.287773,-121.846375
4f322fba19836c91c7bea41e,Continental Baking Co,Bakery,San Jose,95111,37.288289,-121.845848
4e8bb54477c8a9d7aca1f205,Bac Cali Fast Food & Bakery,Bakery,San Jose,95111,37.3024371835044,-121.84289788597502
4f322be619836c91c7bd32ff,Queens Bakery,Bakery,San Jose,95111,37.2994,-121.83899699999999
4c82b964d34ca143b22f2f80,Wonder Hostess Bakery Thriftshop,Bakery,San Jose,95111,37.287912,-121.84606399999998
4a19fdcaf964a520777a1fe3,Black Belt Bakery,Bakery,San Jose,95125,37.293873776390974,-121.89814147779155
51327828e4b02c44624f062f,A Piece Of Cake Bakery,Bakery,San Jose,95125,37.29287092717068,-121.91379010746441
4f32807d19836c91c7de0782,Sunrise Bakery,Bakery,Campbell,95008,37.295041,-121.94989199999999
4cd26b81d5d7a1cd6e317866,Coco's Bakery Restaurant,Bakery,Campbell,95008,37.294174748561176,-121.94726255074488
533da6e2498ed547c266f432,Boudin SF,Bakery,San Jose,95129,37.292349,-121.993701
51216403e4b02e58d18288ff,Girl Scout Cookie Stand,Bakery,San Jose,95130,37.289351,-121.992967
4f32878419836c91c7e0b949,"Albertsons Food and Drug - Food Centers, San Jose",Bakery,San Jose,95129,37.29982,-121.980879
4f44c58619836ed0019660a7,Le Boulanger,Bakery,San Jose,95130,37.290001000000004,-121.98200200000001
5c5397f36bdee6002ce44fcf,Walmart Bakery,Bakery,San Jose,95129,37.29224,-121.988497
4ffa06f3e4b04619c893f72b,Cafe Mordisco Pastry,Bakery,San Jose,95111,37.279299491956884,-121.83232742389988
4e5bf3bfd4c0c4d569701685,Hoa Sen Tofu & Bakery,Bakery,San Jose,95111,37.278927,-121.832791
4f327fcc19836c91c7ddc573,El Gallo Panaderia,Bakery,San Jose,95111,37.27835,-121.835568
4f32154519836c91c7b40f8d,Hawaiian Taste Bakery,Bakery,San Jose,95136,37.27845900000001,-121.849484
5849f50423188e1e7a9e742a,85C Bakery Cafe,Bakery,San Jose,95136,37.27585257119409,-121.85275729727451
4eac688e6da1a0e3a4118e9c,Grandpa's Gourmet Bakery,Bakery,San Jose,95136,37.277952,-121.850508
54035d64498e349093c4cbe3,International Bread,Bakery,San Jose,95125,37.27918364137195,-121.87960982322693
4f3221b919836c91c7b93496,Satura Cakes,Bakery,Campbell,95008,37.287483,-121.946672
557dd41c498eee5425646887,Anwar Bazaar & Bakery,Bakery,San Jose,95124,37.27413818441072,-121.93272829055786
4f329e2619836c91c7e948a1,Empanadas for Us,Bakery,Campbell,95008,37.275023,-121.945616
50ad9f0be4b045752a031233,Haleh's Pastry,Bakery,Campbell,95008,37.282205842138076,-121.95013014125576
4f324c0819836c91c7c9cd76,Sweet Touch Bakery,Bakery,Campbell,95008,37.272663,-121.945178
4b802c2bf964a520195930e3,Not Just Cheesecakes,Bakery,Campbell,95008,37.287438,-121.93833
4f32927119836c91c7e4dd34,Campbell Bread Baking and Milling Co,Bakery,Campbell,95008,37.286598,-121.977816
5e3f555d6c8abc0008b02755,Marvel Cakes,Bakery,Campbell,95008,37.285012,-121.97946
5c4b90e02db4a9002c1c9bec,Delizias Bakery,Bakery,San Jose,95111,37.259997,-121.80804499999999
4f4ce73ee4b0b2a2fd2acdd2,Patties Kitchen,Bakery,San Jose,95136,37.26381996360496,-121.85818929826787
59441e0cd8fe7a0f3add40ae,Paris Baguette,Bakery,San Jose,95118,37.26235564143079,-121.87709300214794
59937acafd16bb7d57bcd9b2,Walmart Bakery,Bakery,San Jose,95118,37.25683586,-121.8760781
4f32a95c19836c91c7ed7cc3,Hostess Cakes,Bakery,Campbell,95008,37.272132,-121.945418
50070b14e4b0664ebecaa833,cakeworks,Bakery,Campbell,95008,37.26964569091797,-121.93826293945312
5454c752498ea5abf9d7a4d4,The Sweet Stuff Cake Shop and Bakery,Bakery,Saratoga,95070,37.26449026097524,-122.02278614044188
5bcfc512cad1b6003910def0,Kandoo Patisserie & Cafe,Bakery,Saratoga,95070,37.25707,-122.03416000000001
53fe465e498e7737c5de6dd4,Panera Bread,Bakery,San Jose,95123,37.248239838509825,-121.80305793617629
543185ca498eec43384fab2d,Petite Baguette,Bakery,San Jose,95123,37.24975658546313,-121.80453693896094
52a4cc8e498e581a41aecbd3,Strawberry Fields Bakery and Cafe,Bakery,San Jose,95123,37.25002846847836,-121.80441457207615
4b762bdaf964a5206a412ee3,Marie Callender's,American Restaurant,San Jose,95123,37.25034167562149,-121.84300133947373
4f44cb9519836ed001968ed9,Sunrise Bakery,Bakery,San Jose,95123,37.250599,-121.844002
4be1915285670f47b66e2bd7,Sunrise Bakery,Bakery,San Jose,95123,37.24795205339737,-121.83987865095608
4c48807f31e41b8db4495035,Suzisweets,Bakery,San Jose,95136,37.25647199,-121.863887
4af2e2d1f964a520f8e821e3,Le Boulanger,Bakery,San Jose,95123,37.249204295383755,-121.85832782511179
4bb1029bf964a52092723ce3,Mrs. Fields Cookies,Bakery,San Jose,95123,37.252131,-121.862988
4f3f2d5ee4b0a5f25191049a,Kevinanne's Kitchen,Bakery,San Jose,95123,37.24791397905014,-121.85712555078243
54ab17f8498e5d05399aa5d2,Boudin SF,Bakery,San Jose,95118,37.251265999999994,-121.87746399999999
5c53982541b6c90025dfa161,Walmart Bakery,Bakery,San Jose,95118,37.255456,-121.880176
509c19e5e4b0b72b97bf2741,Nita Bee's Specialty Bakery,Bakery,San Jose,95118,37.25564072295313,-121.89720226713864
59e4f1586dcf0411d7303a34,Panaderia Gudiño,Bakery,San Jose,95118,37.246004,-121.889293
4c0aa2a5bbc676b03a324ad5,C'est Si Bon Bakery,Bakery,San Jose,95118,37.244814106049496,-121.89044370405158
4f32918119836c91c7e48315,Best Donuts and Coffee,Bakery,San Jose,95124,37.256215999999995,-121.89878700000001
4f439bcf19834bc91f57d9f6,Freedom Bakery,Bakery,San Jose,95118,37.24386,-121.88916
4f32712119836c91c7d83149,Stan Baker Assoc,Bakery,Los Gatos,95032,37.244017,-121.95927900000001
4fa2f73ae4b0489ba3f3da7e,Aram Bakery,Bakery,San Jose,95124,37.231690888457244,-121.90103130660583
4f32941919836c91c7e5805a,Aram Bakery,Bakery,San Jose,95124,37.231613,-121.904178
4f3211e419833175d60d84f5,Pilipinas Cafe and Restaurant,Coffee Shop,Milpitas,95035,37.457552,-121.910166
4b195716f964a52083db23e3,Starbucks,Coffee Shop,Milpitas,95035,37.451614,-121.92148999999999
4f32367a19836c91c7c14327,Boba,Coffee Shop,Milpitas,95035,37.454823,-121.91068899999999
52356c5a498eb8203f09b244,Z Bar & Restaurant,Coffee Shop,San Jose,95127,37.44283676147461,-121.90222930908205
5509ce59498ef5f682b1c2d9,Blue Bottle Coffee,Coffee Shop,Palo Alto,94301,37.44748492121728,-122.15940873059341
4dd1580eb3adb047f5024231,Philz Coffee,Coffee Shop,Palo Alto,94301,37.442105957663614,-122.16156997700656
4a46602ef964a520c7a81fe3,Starbucks,Coffee Shop,Palo Alto,94301,37.446737,-122.1604894
5d6afc68bde37a000825c915,Blue Bottle Coffee,Coffee Shop,Palo Alto,94304,37.444642,-122.171229
49e3d406f964a520e2621fe3,Starbucks,Coffee Shop,Palo Alto,94304,37.44371342096261,-122.17185356460531
5bbe3fc7f870fd002c558299,Nespresso,Coffee Shop,Palo Alto,94304,37.443123,-122.17161000000002
4a46c5ecf964a52072a91fe3,Cafe 220,Mediterranean Restaurant,Palo Alto,94301,37.44493130484589,-122.1624655476388
4f327f8c19836c91c7ddac9c,Da Coffee Spot,Coffee Shop,Palo Alto,94301,37.445199,-122.16232099999999
5ad66a1a0123584b48253526,HanaHaus Palo Alto,Coffee Shop,Palo Alto,94301,37.447621000000005,-122.159576
4a514f0bf964a520e7b01fe3,Starbucks,Coffee Shop,Milpitas,95035,37.435578934265024,-121.88574418348641
4a4e4a1cf964a52042ae1fe3,Starbucks,Coffee Shop,Milpitas,95035,37.434955,-121.89806200000001
4f329f5e19836c91c7e9ba19,Calvin Cafe,Coffee Shop,Milpitas,95035,37.433436,-121.89319099999999
4e4e3795bd4101d0d7a50f6a,It's A Grind Coffee House,Coffee Shop,Milpitas,95035,37.433429,-121.89359499999999
5142919ae4b07c040c931166,Starbucks,Coffee Shop,Milpitas,95035,37.429256,-121.90933000000001
4ab6d798f964a520457920e3,Starbucks,Coffee Shop,Milpitas,95035,37.42831011777142,-121.92098694339614
4a95bd69f964a520682420e3,Caffino,Coffee Shop,Milpitas,95035,37.4271489374417,-121.91197358427141
501ed422e4b0bb80f8cd92fe,SVBC Coffee Shop,Coffee Shop,Milpitas,95035,37.427959,-121.905557
4f1f2897e4b01d40982dd33d,Starbucks,Coffee Shop,Mountain View,94043,37.43109534737211,-122.09780502876741
4a64b53bf964a52087c61fe3,Philz Coffee,Coffee Shop,Palo Alto,94306,37.42952100530066,-122.12267428636551
49e4f397f964a52077631fe3,Starbucks,Coffee Shop,Palo Alto,94306,37.426797,-122.144019
5830d16b01f4330b38bd673c,Starbucks,Coffee Shop,Palo Alto,94306,37.42734576944133,-122.14922020282913
4b5a2fa9f964a520d0b228e3,Palo Alto Coffee Roasting Company,Coffee Shop,Palo Alto,94306,37.43393898724312,-122.12961263635624
55020efb498e139cb46918e1,Espresso Bar,Coffee Shop,Palo Alto,94304,37.439103020783456,-122.17323660850523
5148f3c5e4b08be1ffe3dc51,Li Ka Shing Med Café,Coffee Shop,Stanford,94305,37.43205464973062,-122.175339477883
4c8e86dead70a14302598a0f,Starbucks Coffee Kiosk,Coffee Shop,Palo Alto,94304,37.435914000000004,-122.175821
5009fc13e4b001d6c4f4698d,Cam's Coffee Cabal,Coffee Shop,Stanford,94305,37.42941026006389,-122.17037810122272
54233f32498eee1e4ee69757,Coupa Café,Coffee Shop,Stanford,94305,37.42782785083765,-122.1741088560902
50e721aee4b00a3cd33a3016,Mrs. Fields @ Stanford Hospital,Coffee Shop,Palo Alto,94304,37.434067448090246,-122.17481840551063
4dffcf22183886b8574678db,Starbucks,Coffee Shop,San Jose,95133,37.41356957959654,-121.8748144571739
4ada10e7f964a520f31d21e3,Starbucks,Coffee Shop,Milpitas,95035,37.415834000000004,-121.89906029999999
53f41cda498e27d8b59c4482,Starbucks,Coffee Shop,Milpitas,95035,37.41408791801465,-121.8957324033445
54020e27498e884a9a73be7a,Starbucks,Coffee Shop,Milpitas,95035,37.41756784475306,-121.8758081159054
4f2f58dce4b062035899104a,Kopitiam,Coffee Shop,Milpitas,95035,37.416501083671726,-121.87700143940664
4f41de6ee4b024a96ae9b66a,Starbucks,Coffee Shop,Milpitas,95035,37.41629877793359,-121.8904070298343
4f32995e19836c91c7e77f44,Volcano Tea House,Coffee Shop,Milpitas,95035,37.417297,-121.896902
4f3256fd19836c91c7ce1193,Ku Day Ta Tea Lounge,Coffee Shop,Milpitas,95035,37.416247,-121.894604
57754a5fcd10631695cd3837,Starbucks,Coffee Shop,San Jose,95132,37.413826,-121.87648999999999
4f3216c619836c91c7b4a9ba,Jujubi Cafe,Coffee Shop,Milpitas,95035,37.420826,-121.917603
4f44146e19836ed001922e91,Youngs Tea,Coffee Shop,Milpitas,95035,37.422461,-121.91843100000001
5754f05b498e0e0a920462bc,Early's Café,Coffee Shop,Milpitas,95035,37.414388,-121.90391899999999
5000b3b8e4b07ecf50b1ee6f,Pete's Coffee,Coffee Shop,Milpitas,95035,37.414101442795385,-121.920741254343
5971364312c8f0189a847929,Caffe Bene - San Jose,Coffee Shop,San Jose,95134,37.41274842508313,-121.93754682153616
4b3bbccbf964a520067a25e3,Cisco - Building 12,Office,San Jose,95134,37.41182292903465,-121.92913094331121
4cbb185b9552b60c09e7dd8b,Starbucks,Coffee Shop,San Jose,95134,37.41741364292069,-121.9454837507409
5ad8e2dfe96d0c205a00987a,Barefoot Coffee,Coffee Shop,San Jose,95134,37.414358,-121.934875
4fc94581d4f24895b4467e21,Starbucks,Coffee Shop,San Jose,95134,37.418181,-121.95555900000001
4fccb348e4b06d4ba45cd049,Polycom HQ JOLT Coffee Bar (by Peet's),Coffee Shop,Sunnyvale,94089,37.417595176250025,-121.97907800668293
4a739fbaf964a520f9dc1fe3,Yahoo! - Building C,Office,Sunnyvale,94089,37.417769445289274,-122.02536730989999
4f443a3719836ed00192fb11,Beantrees Operating Co,Coffee Shop,Sunnyvale,94089,37.416270000000004,-122.02510500000001
4f297846e4b022d417aaca93,Lockheed Martin Starbucks (B157),Coffee Shop,Sunnyvale,94089,37.41593771396839,-122.03561311786189
5b3142ef35d3fc002cc1fdee,Googleplex - Pour Favor,Corporate Coffee Shop,Mountain View,94043,37.42411354803921,-122.07070893329737
530f838a498e07bc66bdfcee,Googleplex - Coffee Lab,Corporate Coffee Shop,Mountain View,94043,37.41816694736564,-122.0715057906431
4f8c48bde4b0e6f34b2c49bf,MegaSips,Coffee Shop,Mountain View,94043,37.414552337234895,-122.06027662640244
4f8dac10e4b0e5ed7855a8a0,Cafe CL3,Coffee Shop,Mountain View,94043,37.425880882737786,-122.07130022904819
531f4262498e7dfd38788daf,Root Coffee Bar,Coffee Shop,Mountain View,94043,37.42124929747336,-122.07129481702442
44b28a68f964a5203d351fe3,Starbucks,Coffee Shop,Mountain View,94043,37.41145353347029,-122.09427251055227
4aa68140f964a520024a20e3,Starbucks,Coffee Shop,Mountain View,94043,37.415778,-122.07759399999999
5d3618507bafec000868f1c3,The Fern,Corporate Coffee Shop,Mountain View,94043,37.416134,-122.08298
4ad3bcfbf964a5200fe620e3,Starbucks,Coffee Shop,Mountain View,94043,37.42181415384233,-122.09640306829384
4fbfeaa9e4b01f4bd1877dbb,Googleplex - 1950-1 Barista,Coffee Shop,Mountain View,94043,37.422175,-122.087921
53237fea498e231be8f1d760,Steam Cafe Coffee Bar,Corporate Coffee Shop,Mountain View,94043,37.420026120745284,-122.08622720418148
4f325bc519836c91c7cff13e,Cafe X,Coffee Shop,Mountain View,94043,37.416610999999996,-122.08140900000001
4f328d4119836c91c7e2e7ce,Moksha Coffee Roasting,Coffee Shop,Mountain View,94043,37.413817,-122.088705
4f32684119836c91c7d4cb99,Michael's Cafe,Coffee Shop,Mountain View,94043,37.419755,-122.088905
5762cc42cd10d555699d848c,Googleplex - Big Table Coffee Bar,Coffee Shop,Mountain View,94043,37.42263572264608,-122.08757812909012
4a8dffcaf964a520b41120e3,Starbucks,Coffee Shop,Palo Alto,94306,37.41310960112733,-122.12524984373295
4fc3ec73e4b0264dfd3b37cd,Starbucks,Coffee Shop,Palo Alto,94306,37.41733325,-122.1306043
4a2718b4f964a52058911fe3,ZombieRunner,Sporting Goods Shop,Palo Alto,94306,37.42608216126964,-122.14492983807493
4ffb3179e4b0734a7c5d1504,ZombieRunner Espresso Bar,Coffee Shop,Palo Alto,94306,37.426080601991075,-122.14491890844843
4a789e21f964a5200de61fe3,Driftwood Deli & Market,Sandwich Place,Palo Alto,94306,37.419048910115116,-122.13515406669649
4f441ccb19836ed0019256f1,Cafe Soulstice,Coffee Shop,Palo Alto,94306,37.421989,-122.137724
53433fae498e1d5d89b48a1e,Starbucks Drive Thru,Coffee Shop,Palo Alto,94306,37.417393,-122.130569
4eb42d76e30006eb11923695,Avalon at DIMG,Coffee Shop,Palo Alto,94306,37.425834752760714,-122.13952512300051
4dda80db1838b8561d317a88,Starbucks,Coffee Shop,Palo Alto,94304,37.414634281680215,-122.14610563389715
50351d84e4b05cd3b14e516a,Starbucks,Coffee Shop,Stanford,94305,37.42438187,-122.1709577
4fc54477e4b02a2bec372f1d,Black Pearl Cafe,Coffee Shop,San Jose,95132,37.39938778657293,-121.84841835957994
4a7e40dbf964a5209bf11fe3,Starbucks,Coffee Shop,San Jose,95134,37.398163000000004,-121.92370600000001
4f3289f319836c91c7e1a564,Farmer Brothers Coffee Company,Coffee Shop,San Jose,95131,37.398101,-121.904484
4ac8e844f964a52033bd20e3,Starbucks,Coffee Shop,San Jose,95134,37.406467,-121.94176000000002
52443f4511d21bfecc13d749,Starbucks,Coffee Shop,San Jose,95134,37.4029425,-121.9333595
597fdd9386f4cc6470351e37,Starbucks,Coffee Shop,San Jose,95134,37.40197092074824,-121.939919405916
4f43cbd419836ed00190b270,Abundant Air Cafe,Coffee Shop,San Jose,95134,37.410309000000005,-121.94580800000001
5cb1286b5ba046002c6047e5,The Market At Hyatt Regency,Coffee Shop,Santa Clara,95054,37.405105999999996,-121.976499
5c037526b77c77002c396485,Starbucks,Coffee Shop,Santa Clara,95054,37.396802,-121.973836
4fcb8d20e4b07471e0b807a8,Starbucks in Hilton Hotel,Coffee Shop,Santa Clara,95054,37.402844507812205,-121.97647900950676
571a5271498ecff1fbdb85a6,1 oz coffee,Coffee Shop,Santa Clara,95054,37.40457697673472,-121.98260661014808
50ca02c1245f2d4aa8c2b643,Starbucks,Coffee Shop,Santa Clara,95054,37.4026,-121.976769
509df7a8e4b0eac4e53d02a7,Brown Trucks,Coffee Shop,Sunnyvale,94089,37.40457749230736,-121.98980099442484
4f328e1b19836c91c7e33dcc,Tek Cafeteria,Coffee Shop,Santa Clara,95054,37.40668400000001,-121.98126
4ede97ca8231abf7c151890b,Seattle's Best Coffee,Coffee Shop,Santa Clara,95054,37.409385825526044,-121.97818946757697
4fb09670e4b0d6f2dd365c32,Coffee & More,Coffee Shop,Sunnyvale,94089,37.40543443417568,-122.01188905663544
52daedf0498ee1c649421abc,organo gold coffee,Coffee Shop,San Jose,95136,37.40548324584961,-122.01200103759766
461ce817f964a5206f451fe3,Clocktower Coffee Roasting Co.,Coffee Shop,Mountain View,94043,37.3971463709385,-122.0616561377843
5e273565c7a4f30007bcac72,Google - La Place Barista Bar,Coffee Shop,Mountain View,94043,37.3978,-122.05909
5d07c3b8f05ca8002dd32bfb,Deja Brew,Coffee Shop,Mountain View,94043,37.399802,-122.054068
5c390a25f96b2c002cab7538,Mountain Brew,Coffee Shop,Mountain View,94043,37.409182,-122.077339
56421c85498e51f3a84a413e,Google - Hangout Barista Bar,Coffee Shop,Mountain View,94043,37.399923936848175,-122.05548201951544
4b31638ff964a520ff0525e3,Clocktower Coffee Roasting Co.,Coffee Shop,Mountain View,94043,37.40080140790036,-122.0576772319213
4f32827519836c91c7dec56d,Fusia Cafe,Coffee Shop,Mountain View,94043,37.398714,-122.075177
4bfb58758f32ef3bc71405aa,Starbucks,Coffee Shop,Mountain View,94043,37.40305073254841,-122.07915399458828
5286906a498e3289da676eae,Starbucks,Coffee Shop,Mountain View,94040,37.401779,-122.111795
5c38d1763abcaf002c2137a5,Coupa Cafe,Breakfast Spot,Los Altos,94022,37.399756,-122.11128500000001
4e60e3f0e4cdf1e2be9b73b1,Starbucks,Coffee Shop,Palo Alto,94306,37.39895142074493,-122.10710744366321
54175d13498ef4057b2f6789,Starbucks,Coffee Shop,Palo Alto,94304,37.40575274732065,-122.14058285599812
5b4f614fdb3aef0024e21ca3,Equator Coffees & Teas,Coffee Shop,Palo Alto,94304,37.397647,-122.142303
4bb235ad42959c74d084202c,The Coffee Cup,Coffee Shop,San Jose,95127,37.38147145231025,-121.82798574175513
5387fe95498e2936ab8d28ce,Bee Bee House,Coffee Shop,San Jose,95132,37.391934757112544,-121.84233074311884
55956a17498e83b58f8412bb,Starbucks,Coffee Shop,San Jose,95132,37.38718087270168,-121.86186759530071
4a832217f964a5202afa1fe3,Starbucks,Coffee Shop,San Jose,95131,37.38324096,-121.89441599999999
4b8ff099f964a520d96a33e3,Cafe 96,Coffee Shop,San Jose,95112,37.38035249283424,-121.90683852222044
4f32b0d119836c91c7f03fa8,Starbucks,Coffee Shop,San Jose,95131,37.395157,-121.90524
4fc94575d4f24895b446724e,Starbucks,Coffee Shop,Santa Clara,95054,37.395004,-121.94731100000001
4b3ccc41f964a520698725e3,Starbucks,Coffee Shop,San Jose,95131,37.385382,-121.92791899999999
4f4352b919834bc91f55f7ce,A Taste of Java,Coffee Shop,Santa Clara,95054,37.380684,-121.94051699999999
5c1bf28866611600378822e7,Starbucks,Coffee Shop,Santa Clara,95054,37.381134011011895,-121.97449168175295
5d83e048dd32490008535228,Starbucks,Coffee Shop,Santa Clara,95054,37.387516999999995,-121.96021599999999
4a428600f964a520eda51fe3,Starbucks,Coffee Shop,Santa Clara,95054,37.38633884896807,-121.96091560170578
5143e527e4b019afebb70096,SkyJAVA Coffee @ Raidundant,Coffee Shop,Santa Clara,95054,37.38902126744126,-121.95734560593365
5814c78138fa6cd45de3fe43,Starbucks,Coffee Shop,Santa Clara,95054,37.390643,-121.97449099999999
4ef251a5d3e3e380582e51df,Dulcy Loves Donnie,Coffee Shop,Santa Clara,95054,37.386228,-121.96041899999999
49f0fbebf964a52077691fe3,Starbucks,Coffee Shop,Santa Clara,95054,37.38910297501722,-121.98351837630516
5cc74f57d69ed0003912333e,Ground Up,Coffee Shop,Santa Clara,95054,37.383427000000005,-121.98263500000002
4f321c6219836c91c7b6f950,Mission City Coffee Roasting,Coffee Shop,Santa Clara,95054,37.392588,-121.97686000000002
4f325e7219836c91c7d0fe07,Leida's Cafe,Coffee Shop,Sunnyvale,94085,37.384028,-122.00784099999998
49ed472df964a520db671fe3,Starbucks,Coffee Shop,Sunnyvale,94085,37.388355,-122.03036499999999
502985cde4b043f806d2fc56,Apple -  Benecia 1 Coffee Bar,Coffee Shop,Sunnyvale,94085,37.39527427400061,-122.03984249636473
59e65acfb6b04b629c487595,Independence Ave Coffee,Coffee Shop,Mountain View,94043,37.38707192644979,-122.05029487609863
4f3206fe19833175d60b1370,Old Mountainview Coffee Company,Coffee Shop,Mountain View,94041,37.385521,-122.069958
5009f9e3e4b01eff30bf6033,Hot Spot,Coffee Shop,Mountain View,94043,37.39446614678377,-122.07581689730931
450af4f4f964a5204c391fe3,Red Rock Coffee,Coffee Shop,Mountain View,94041,37.393748578025935,-122.07887824881945
5a036cfaefa82a5f1dd82b5a,1 Oz Coffee,Coffee Shop,Mountain View,94041,37.387917228095276,-122.0828916224752
4740b317f964a520724c1fe3,Starbucks,Coffee Shop,Mountain View,94041,37.387505,-122.08306
4564c18bf964a520c43d1fe3,Starbucks,Coffee Shop,Mountain View,94040,37.39088345723268,-122.09471869224136
5090a65fe4b019e9fb4572dd,AIM Lab Table at Verde,Coffee Shop,Mountain View,94041,37.39405629205892,-122.0794206105171
4f327d4619836c91c7dcca2c,Global Blends Coffee Co,Coffee Shop,Mountain View,94041,37.388009999999994,-122.08251000000001
4b3ff5a4f964a520fcb225e3,Bean Scene Cafe,Coffee Shop,Mountain View,94041,37.389958280680645,-122.08166124764976
4f320cb219833175d60b7a41,Eve Espresso,Coffee Shop,Palo Alto,94304,37.39456,-122.14317
4b22a2adf964a520b64a24e3,Starbucks,Coffee Shop,San Jose,95127,37.374207,-121.84491000000001
4b6dff60f964a52043a22ce3,Starbucks,Coffee Shop,San Jose,95127,37.36610003,-121.82804479999999
52869069498e3289da675d51,Starbucks,Coffee Shop,San Jose,95133,37.36554709460635,-121.84456037627778
4f4e8a50e4b05b49b61bdffb,Paris Cafe,Coffee Shop,San Jose,95133,37.372719626499055,-121.84456593640422
4abfd22df964a520749220e3,Starbucks,Coffee Shop,San Jose,95133,37.373225101477495,-121.87302793746937
4f323b0019836c91c7c30586,My My Coffee and Sandwiches,Coffee Shop,San Jose,95133,37.365522,-121.850493
4f3276d719836c91c7da5b6d,Hot Spot Espresso and Cafe,Coffee Shop,San Jose,95133,37.371860999999996,-121.875879
4a5618f0f964a5206bb41fe3,Starbucks,Coffee Shop,San Jose,95110,37.369186,-121.92045
4a6b4b07f964a5205cce1fe3,Starbucks,Coffee Shop,San Jose,95112,37.37092547570862,-121.9172711635447
568aff8e498eb729fe12e2ed,Chromatic @ PayPal,Coffee Shop,San Jose,95131,37.376825758540335,-121.92274603485792
4f9aa721e4b0edc5600daf94,Starbucks,Coffee Shop,San Jose,95110,37.37143220087474,-121.9221358760749
4c25451ba852c928189fe46c,eBay Starbucks Coffee Shop North,Coffee Shop,San Jose,95131,37.37347060921761,-121.91889654827608
507c7d09e4b0d8cafbeebd01,Coffee Chai,Coffee Shop,San Jose,95110,37.36517074958082,-121.91588478665815
4bbdeb678a4fb713d2873d9d,Starbucks,Coffee Shop,San Jose,95110,37.36482957582107,-121.92356576168726
4c3bd26a5418897c54160803,Starbucks,Coffee Shop,San Jose,95131,37.369209999999995,-121.929235
4bbdcb56f57ba593766daeb9,Starbucks,Coffee Shop,San Jose,95131,37.370810112804115,-121.93127271172408
5404c6c1498e13815e5d25b1,Barefoot Coffee Roastery and Rollup Bar,Coffee Shop,Santa Clara,95050,37.365863,-121.940569
5c152b369deb7d002c9f277a,Starbucks,Coffee Shop,San Jose,95110,37.370424,-121.931598
4f32841e19836c91c7df68f5,Golden State Coffee Service,Coffee Shop,Santa Clara,95054,37.379586,-121.959276
59ee1c9d491be73886d9894c,Starbucks,Coffee Shop,Santa Clara,95051,37.367490719426996,-121.99409850458004
4f3236b519836c91c7c15a51,SQ Cafe,Coffee Shop,Sunnyvale,94086,37.365859,-122.013823
547e13a7498e8d4312025ce9,Philz Coffee,Coffee Shop,Sunnyvale,94086,37.377382,-122.0314
5d0f877e94dd8b0023ba599e,Starbucks,Coffee Shop,Sunnyvale,94087,37.368565999999994,-122.03567
560ac747498ef2bd1a7d4385,Starbucks,Coffee Shop,Sunnyvale,94086,37.376432669988816,-122.03153723926796
458678edf964a520b43f1fe3,Coffee & More,Coffee Shop,Sunnyvale,94086,37.37747217646493,-122.02982402896616
450736a3f964a5201f391fe3,Starbucks,Coffee Shop,Sunnyvale,94087,37.36769123,-122.0364584
4fc94580d4f24895b4467db9,Starbucks,Coffee Shop,Sunnyvale,94086,37.37403825680853,-122.03261375427246
5baba434628c83002cdcba69,Las Palmas Cafe and Lounge,Coffee Shop,Sunnyvale,94087,37.3662,-122.03866200000002
49f00667f964a52028691fe3,Nokia,Office,Sunnyvale,94086,37.37611240493339,-122.03417401849859
4f32a65a19836c91c7ec5f94,Centre Court Cafe,Coffee Shop,Sunnyvale,94087,37.366172999999996,-122.036096
4bce7cb968f976b0b53d6683,Starbucks,Coffee Shop,Sunnyvale,94086,37.372111429783494,-122.04872254647059
542a0480498ebea268d1294c,Starbucks,Coffee Shop,Mountain View,94040,37.378855914227906,-122.07077618700909
4f32636e19836c91c7d2f033,Coffee and Mug Factories,Coffee Shop,Sunnyvale,94087,37.372944,-122.056526
53e93e53498e2fc08bb4d304,Peet's Coffee & Tea (Nob Hill Foods),Coffee Shop,Mountain View,94040,37.378117923796296,-122.07623782837244
4b671bb3f964a5201a3b2be3,Starbucks,Coffee Shop,Sunnyvale,94087,37.372784,-122.058107
4a5f5853f964a5206bbf1fe3,Starbucks,Coffee Shop,Mountain View,94040,37.373154,-122.08783000000001
4e4dd453bd41b76bef93d159,Starbucks,Coffee Shop,Mountain View,94040,37.372286,-122.08819
49f885fcf964a520fe6c1fe3,Starbucks,Coffee Shop,Los Altos,94022,37.378519,-122.116722
52cc632e498ed1fc390751c1,Red Berry Coffee Bar,Coffee Shop,Los Altos,94022,37.37959023145438,-122.11473370495844
5d4a1b8e176e1a00087443f1,Starbucks,Coffee Shop,Los Altos,94022,37.378758000000005,-122.118894
4a031ad1f964a5208b711fe3,Rick's Cafe,Breakfast Spot,Los Altos,94022,37.379455966294906,-122.11642200662916
4a47dde7f964a52035aa1fe3,Starbucks,Coffee Shop,San Jose,95127,37.357490000000006,-121.81803000000001
4d9e19eac593a1cd3d097019,Cafe 288,Coffee Shop,San Jose,95127,37.363579,-121.83179799999999
4c180f08fe5a76b0d7860115,Mega Cafe,Coffee Shop,San Jose,95116,37.36107721835211,-121.8361753887236
566c80e438fa37fd485e50d5,Starbucks at Regional Medical Center,Coffee Shop,San Jose,95116,37.36334646483997,-121.85075063870649
4f1c83dbe4b064e65d1fae4b,Chip•a•Cookie,Coffee Shop,San Jose,95116,37.358447,-121.85038899999999
4e0a20fd14959022c8a93e80,@YC,Sandwich Place,San Jose,95112,37.35225060809049,-121.89377789785793
4f32572c19836c91c7ce23d4,Cafe Aragon,Coffee Shop,San Jose,95112,37.358501000000004,-121.889999
4ada89d5f964a520582321e3,Starbucks,Coffee Shop,San Jose,95110,37.35060173,-121.92212759999998
49cd8fbef964a520015a1fe3,4th Street Bowl,Bowling Alley,San Jose,95112,37.36375483367343,-121.90785867348696
5e2a556bcc49c20008521528,Specialty’s Café & Bakery,Coffee Shop,San Jose,95110,37.352476,-121.92576100000001
55f04fac498e26040253a69e,Orchard Valley Coffee,Coffee Shop,San Jose,95110,37.349893,-121.90743799999998
4f324b0319836c91c7c968db,Garden Court Catering Fresh and Natural 43,Coffee Shop,San Jose,95110,37.3526,-121.90513
59024db101235872601787e5,Peet's Coffee & Tea,Coffee Shop,San Jose,95110,37.361893,-121.928875
43e5d8c6f964a520fb2e1fe3,Coffee Patio,Coffee Shop,San Jose,95128,37.350099006754796,-121.93449778645204
4f32446c19836c91c7c6c3e5,Eunices Cafe,Coffee Shop,Santa Clara,95050,37.35685,-121.93399099999999
50946cafe4b0ad3a94ea0477,Starbucks,Coffee Shop,San Jose,95110,37.361073757373106,-121.92873647557043
4a96aad8f964a520822620e3,Starbucks,Coffee Shop,Santa Clara,95050,37.35175671,-121.96777069999999
59937665345cbe30b8685377,Starbucks,Coffee Shop,Santa Clara,95050,37.3503,-121.96087
4aa5d9cdf964a5208b4920e3,Starbucks,Coffee Shop,Santa Clara,95051,37.352973999999996,-121.99732
5323c4f3498e7c57fe1eb1db,Big Mug Coffee Roaster,Coffee Shop,Santa Clara,95051,37.35177371520207,-121.98099396547458
55b2eafe498e57943a87e752,TOM N TOMS COFFEE,Coffee Shop,Santa Clara,95051,37.351960436107824,-121.98191388593487
43d3d5fcf964a520282e1fe3,Java Town,Coffee Shop,Santa Clara,95051,37.35186550388842,-121.97680311617216
4b96d346f964a52011e734e3,Starbucks,Coffee Shop,Sunnyvale,94087,37.352596000000005,-122.00778999999999
4596bae3f964a52072401fe3,Starbucks,Coffee Shop,Sunnyvale,94087,37.357327000000005,-122.017646
4ce8574df8653704ff01b0c4,Starbucks,Coffee Shop,Sunnyvale,94087,37.36418273826255,-122.02553074306002
4fb27654e4b06d535f6993b6,Starbucks,Coffee Shop,Sunnyvale,94087,37.364508,-122.030592
4a464bd3f964a520a6a81fe3,Starbucks,Coffee Shop,Sunnyvale,94087,37.3527256325998,-122.05134676583572
4bddc634587b2d7f79065509,Starbucks,Coffee Shop,Los Altos,94022,37.36143842794387,-122.09801054030441
4b1aa32cf964a52015ee23e3,Starbucks,Coffee Shop,San Jose,95122,37.33939,-121.84228999999999
52869069498e3289da67518a,Starbucks,Coffee Shop,San Jose,95122,37.339964,-121.84011
4f323b6d19836c91c7c331a9,Sugars Coffee Bar,Coffee Shop,San Jose,95116,37.346218,-121.86893700000002
4ba417e6f964a520b58038e3,Thoa Cafe,Coffee Shop,San Jose,95122,37.33565701058364,-121.85647508775381
4a33bce5f964a5203a9b1fe3,Starbucks,Coffee Shop,San Jose,95110,37.341431,-121.91164199999999
4a6be09ff964a5202bd01fe3,Starbucks,Coffee Shop,San Jose,95126,37.33418343,-121.92410520000001
5c4d342e33e118002c26dbd8,The Coffee House,Coffee Shop,San Jose,95126,37.34073,-121.91778000000001
4f44800f19836ed001948e12,Palm Cafe,Coffee Shop,San Jose,95126,37.334501,-121.91541399999998
4bd37d84462cb713859dde07,Starbucks,Coffee Shop,San Jose,95110,37.339363,-121.90456
4b2a63ddf964a5202ea824e3,Starbucks,Coffee Shop,Santa Clara,95050,37.33958073472024,-121.93867343992248
4acb7eedf964a520f5c320e3,Starbucks,Coffee Shop,Santa Clara,95050,37.345196,-121.93643700000001
4f32586219836c91c7ce9bd2,Coffee On The Patio,Coffee Shop,San Jose,95128,37.337387,-121.93791399999999
512e6687e4b04d9030bcbb78,Sunstream Cafe,Coffee Shop,Santa Clara,95050,37.348167477451156,-121.93810886896036
4f32913319836c91c7e465dc,Mini Cafe,Coffee Shop,Santa Clara,95050,37.341857,-121.932734
5258226d11d2f20916840805,Starbucks,Coffee Shop,San Jose,95050,37.345295,-121.936371
4bcb285cfb84c9b668361e3e,Starbucks,Coffee Shop,Santa Clara,95051,37.337864,-121.975153
4f321a9819836c91c7b63ca5,Sarah's Cafe,Coffee Shop,Santa Clara,95051,37.339493,-121.973219
4c4f1ca7d667d13a565a8ba1,Caffino,Coffee Shop,Santa Clara,95051,37.338230373444986,-121.97628825626141
4caeaaf33f0676b0d79bfa0c,Kaiser Permanente: ER,Emergency Room,Santa Clara,95051,37.33545300873975,-121.99838099022405
4f621bcde4b0a9d091aa43c1,Peet's Coffee at Kaiser Permanente Santa Clara,Coffee Shop,Santa Clara,95051,37.335445583940384,-121.99964132030665
4a86e1abf964a520770120e3,Starbucks,Coffee Shop,Santa Clara,95051,37.338502000000005,-121.994998
56b0bec5498e45be367028f2,Peet's Coffee and Tea,Coffee Shop,Santa Clara,95051,37.33715,-121.99524
4f45072419836ed0019839fb,TGI Tea Cafe,Coffee Shop,Santa Clara,95051,37.345898,-121.97873
4a8f43c7f964a5209d1420e3,Starbucks,Coffee Shop,Cupertino,95014,37.33726438,-122.0146955
4f32450a19836c91c7c70433,Young's Tea,Coffee Shop,Cupertino,95014,37.337378,-122.014242
46cad6bff964a520284a1fe3,Starbucks,Coffee Shop,Cupertino,95014,37.336156,-122.034641
4e4dd3fcbd41b76bef93cc25,Starbucks,Coffee Shop,Sunnyvale,94087,37.339048,-122.042605
4f4479f719836ed0019461ae,Drinx Drive-Thru Espresso Bars,Coffee Shop,Cupertino,95014,37.337555,-122.031132
4b099a47f964a520311a23e3,Starbucks,Coffee Shop,Cupertino,95014,37.33714186052085,-122.06674559230184
4a746d97f964a5201cde1fe3,Starbucks,Coffee Shop,Los Altos,94024,37.33483747174069,-122.07748337944588
4a19b635f964a520397a1fe3,Starbucks,Coffee Shop,San Jose,95148,37.331534999999995,-121.810803
4be17f1d8e2962b5e6579b0a,Starbucks,Coffee Shop,San Jose,95122,37.32531691,-121.81369070000001
4c13b90477cea5930d46cf60,Starbucks,Coffee Shop,San Jose,95122,37.325203,-121.82033600000001
4f43ad7f19834bc91f583351,M Cafe,Coffee Shop,San Jose,95121,37.319699,-121.825071
4f3846bee4b00d9f9701a39c,The Bee and the Barb,Coffee Shop,San Jose,95122,37.33103619012253,-121.8118731443206
52239a6311d223725d200d0c,Barnes & Noble Cafe,Coffee Shop,San Jose,95122,37.32466285061078,-121.81379914283752
4c2c15078abca5935f4a0120,Dolce Espresso,Coffee Shop,San Jose,95122,37.326138,-121.818769
5132dc3de4b00e1a6a1151b1,The Wave Cafe,Coffee Shop,San Jose,95122,37.325891999999996,-121.82165
4b7acfcdf964a5201e3e2fe3,Starbucks,Coffee Shop,San Jose,95122,37.32230878049553,-121.82519713207049
4aac5fd9f964a520af5d20e3,Nguyen Espresso,Coffee Shop,San Jose,95122,37.322028344230105,-121.82762480563616
4a3b14b3f964a5208ba01fe3,Cafe Quyen,Coffee Shop,San Jose,95122,37.320559306300524,-121.82646812838982
4c96777bf7cfa1cda284c615,Got hong coffee house,Coffee Shop,San Jose,95122,37.320625156046674,-121.82669981345421
53308c05498e73e1a41d601e,Vida y salud Herbalife,Coffee Shop,San Jose,95112,37.322853088378906,-121.87199401855469
4c00335b37850f4768e9973f,Sao Cafe,Coffee Shop,San Jose,95122,37.33114319187702,-121.85463194706075
5411e58a498eb1ca0eade27b,168 Cafe,Coffee Shop,San Jose,95122,37.33025347500504,-121.8559858480892
593217cba795bd7b174a90ee,Academic Coffee,Coffee Shop,San Jose,95110,37.329148138177686,-121.8840513620763
4a55473ef964a520fcb31fe3,Philz Coffee,Coffee Shop,San Jose,95112,37.33372540768604,-121.88503757822235
542f60c4498ecb8ef948ae31,Starbucks,Coffee Shop,San Jose,95113,37.332681011528244,-121.89102033869601
5a77d94c2b9844301a16078f,Starbucks,Coffee Shop,San Jose,95113,37.333637,-121.88797
4ff24168e4b055dd1bf4b143,El Mundo de Sofia,Coffee Shop,Guadalupe,95110,37.3223424,-121.8861451
540a1de3498e8d96ee08b301,Vero’s Coffee,Coffee Shop,San Jose,95113,37.33030767454524,-121.88632287764892
5b85a7321fa763002c3e1c5c,Peet's Coffee & Tea,Coffee Shop,San Jose,95113,37.332394,-121.89141000000001
4f32131219833175d60dfafb,Riverpark Mart,Coffee Shop,San Jose,95110,37.328809,-121.894104
4ba3ab90f964a5205e5238e3,Broken Door Coffee,Coffee Shop,San Jose,95112,37.33193821084462,-121.89053308601923
4e1defb76284d5831b3f82e0,Crema Coffee Roasting Company,Coffee Shop,San Jose,95113,37.33346348909957,-121.889721100444
4b9bda44f964a520502d36e3,Affinity Starbucks,Coffee Shop,San Jose,95110,37.32920108454092,-121.89060657266218
58d1be7f966e556a1b5fedf4,Devout Coffee,Coffee Shop,San Jose,95113,37.329794,-121.885397
5dc6f6d736cad800076c822a,Chromatic Roastery,Coffee Shop,San Jose,95126,37.320787,-121.90793300000001
5a05ee802632ec4139d42b3e,Crema Coffee Roasting Company,Coffee Shop,San Jose,95126,37.33173894207052,-121.91179520199488
49f729eff964a5206c6c1fe3,Starbucks,Coffee Shop,San Jose,95126,37.32327156,-121.9140166
5e3f0cff8ee48b00082264e0,Crema Coffee Roasting Company,Coffee Shop,San Jose,95126,37.325338,-121.911419
4a919794f964a520d11a20e3,Starbucks,Coffee Shop,San Jose,95126,37.332232188683136,-121.9126762023534
50843d1fe4b082d3b2104658,Barefoot Coffee Rollup,Coffee Shop,San Jose,95126,37.329775,-121.906087
5db6265a076bd800084b6144,Blue Bottle Coffee,Coffee Shop,San Jose,95128,37.320256,-121.94785
4b19ea15f964a5201ae623e3,Starbucks,Coffee Shop,Santa Clara,95050,37.32581286,-121.9438369
4ba694eef964a520286039e3,Nordstrom eBar,Coffee Shop,San Jose,95128,37.3261345553451,-121.9484943151474
54b42d47498e4e80fcecc384,Nespresso Boutique,Coffee Shop,Santa Clara,95050,37.324801308011494,-121.94733603491792
4a3c3a51f964a52048a11fe3,Starbucks,Coffee Shop,San Jose,95128,37.320946,-121.94913000000001
55020efb498e139cb46918f8,Ebar,Diner,San Jose,95128,37.32570162189429,-121.94657407288034
4f325bfd19836c91c7d006c7,Palm Desert National Bank,Coffee Shop,Santa Clara,95050,37.323359,-121.94452
5273fd2b498e0990af8f20ed,Caffe Central,Coffee Shop,San Jose,95050,37.32609599681368,-121.94421850217468
540239cd498e6193c27758fe,Starbucks,Coffee Shop,San Jose,95129,37.31996896748965,-121.9732294362162
40c10d00f964a520d9001fe3,Starbucks,Coffee Shop,Santa Clara,95050,37.328345312764036,-121.9660473558678
5ce5b0183731ee002cd96795,Cafe Big Mug,Coffee Shop,Santa Clara,95051,37.323962,-121.968507
49ecd665f964a5209b671fe3,Coffee Factory,Coffee Shop,Santa Clara,95051,37.32397,-121.96847
4d756d2acc616dcb65894146,Starbucks,Coffee Shop,San Jose,95117,37.32272303888329,-121.96339695195587
4f323d4819836c91c7c3ebe2,Central Perk Cafe,Coffee Shop,San Jose,95117,37.3232,-121.952003
4ad88764f964a5200e1221e3,Starbucks,Coffee Shop,San Jose,95129,37.32245626910432,-121.99408656377656
5109644de4b003eb51a59944,Nickel Dime Coffee Roasters,Coffee Shop,San Jose,95129,37.322356653883,-121.9970082952133
4f43acf019834bc91f582f7e,Moulin Rouge Coffee Roasting Co,Coffee Shop,Santa Clara,95051,37.323002,-121.98200200000001
4e89fff5be7bea588377580d,Peet's Coffee & Tea (at Agilent Technologies),Coffee Shop,Santa Clara,95051,37.33003013334446,-121.98379824980829
4f32376b19836c91c7c19e86,Top Cafe,Coffee Shop,Cupertino,95014,37.319573,-122.000256
5665e48f498e662de1aeabcd,Philz Coffee,Coffee Shop,Cupertino,95014,37.32425,-122.010544
58adc86d0319b875ced9fd04,Apple Park Café,Coffee Shop,Cupertino,95014,37.33260050975814,-122.00536365588398
591e921c6fa81f3c8cec1eef,Starbucks,Coffee Shop,Cupertino,95014,37.323404,-122.01130900000001
4f375009e4b099ca9452ef31,Starbucks,Coffee Shop,Cupertino,95014,37.33136817409088,-122.01344227312872
4f8c8e6be4b060b7fa5b81d8,VP1 Espresso Bar,Coffee Shop,Cupertino,95014,37.324984421759055,-122.00790718574169
4de422518130cfd9097be24f,Bitter+Sweet,Coffee Shop,Cupertino,95014,37.3184557646914,-122.03154367084808
51630409498eedc7dd88e60b,Philz Coffee,Coffee Shop,Cupertino,95014,37.32255,-122.03466100000001
4cace1c72776b60cb266550d,Starbucks,Coffee Shop,Cupertino,95014,37.323966999999996,-122.03641999999999
4e1ce5371f6e47e5e792f8df,Le Cafe,Coffee Shop,Cupertino,95014,37.320701253894036,-122.04525624164131
4f57f62ae4b0bd4842a160eb,Torre 2 Espresso Bar,Coffee Shop,Cupertino,95014,37.32174600000001,-122.027254
4f56a07ee4b071452e5f3b4b,De Anza 2 Espresso Bar,Coffee Shop,Cupertino,95014,37.325951,-122.033198
4cf9671edccef04df6e4ae9c,Starbucks,Coffee Shop,Cupertino,95014,37.32093847774015,-122.04271194178554
4bcf2c9c9854d13a6984f54d,Cafe Rocco at De Anza College,Coffee Shop,San Jose,95014,37.32070302451638,-122.04532221548031
506b0e1ae4b007c428583ede,City Center 1 Espresso Bar,Coffee Shop,Cupertino,95014,37.32196359825606,-122.0284194670407
4f4d896fe4b0ed369383eb69,De Anza 6 Coffee Bar,Coffee Shop,Cupertino,95014,37.331541138201295,-122.03338180475987
5628a653498e2c6aabfbeaf0,BrewCrew Coffee Delivery,Coffee Shop,Cupertino,95014,37.32312712798307,-122.03664779663085
4f44b14f19836ed00195df22,Lang's Cafe and Sandwhiches,Coffee Shop,Cupertino,95014,37.322807,-122.035568
5986211e4940bc7d4e3ff7a2,Starbucks,Coffee Shop,Cupertino,95014,37.323064660191115,-122.05477336806689
4b310f18f964a52054ff24e3,Starbucks,Coffee Shop,San Jose,95121,37.31392174,-121.79409209999999
4ac42a79f964a520629e20e3,Coffee Lovers,Coffee Shop,San Jose,95121,37.311869502027314,-121.80863058997394
4b33b1b6f964a520171d25e3,Starbucks,Coffee Shop,San Jose,95121,37.31089,-121.80967
4ab84d26f964a520d37c20e3,Gia Gia Coffee,Coffee Shop,San Jose,95121,37.306134,-121.810624
4c8c259bf0ce236afeb415ef,Starbucks,Coffee Shop,San Jose,95121,37.307727686759726,-121.81313025656456
4f3265b919836c91c7d3d060,Nguyen Expresso,Coffee Shop,San Jose,95121,37.306286,-121.81206399999999
509e9082e4b0d1661c1443f3,Coffee!,Coffee Shop,San Jose,95121,37.306739,-121.812425
4f32668419836c91c7d41d57,Dolce Espresso,Coffee Shop,San Jose,95112,37.309269,-121.848218
4f89b1f1e4b0c71a71ffcfd2,May Hong Cafe,Coffee Shop,San Jose,95133,37.30893273805181,-121.84729592484682
53704c74498efcd06996aa31,Venus Cafe,Coffee Shop,San Jose,95112,37.309102,-121.847261
4f43d4a519836ed00190d8b7,Keystone Coffee Company,Coffee Shop,San Jose,95112,37.313357,-121.84777
4f325c6719836c91c7d03073,Goi Hoe May Cafe,Coffee Shop,San Jose,95112,37.308462,-121.847564
5561e522498e4cb517314480,Starbucks,Coffee Shop,San Jose,95110,37.31539039672521,-121.87241329488808
4b4a0799f964a5206a7826e3,Starbucks,Coffee Shop,San Jose,95125,37.305054,-121.86293
4f3289cf19836c91c7e1986e,Coffee Company,Coffee Shop,San Jose,95125,37.307425,-121.873931
4fc9457ed4f24895b4467adf,Starbucks,Coffee Shop,San Jose,95112,37.304211170770365,-121.86586618423462
49f773b5f964a520a46c1fe3,Starbucks,Coffee Shop,San Jose,95125,37.303826725822724,-121.8972769651707
4f44a63619836ed001958c02,Maykadeh Cafe,Coffee Shop,San Jose,95125,37.307274,-121.899793
4f329d4519836c91c7e8f28a,Casablanca Cafe,Coffee Shop,San Jose,95125,37.306957000000004,-121.900029
4b02b340f964a5206e4922e3,Starbucks,Coffee Shop,San Jose,95125,37.30411734441236,-121.91416139467022
5d97b04b7f294100080e9eea,Guzzle Nutrition,Restaurant,San Jose,95125,37.304390999999995,-121.914166
4f3250bc19836c91c7cba53f,Espresso Garden and Cafe,Coffee Shop,San Jose,95128,37.312783,-121.931182
4ae6f973f964a520c9a721e3,Starbucks,Coffee Shop,San Jose,95128,37.31300127199288,-121.94986172521428
5c06dbb2dd8442002cd8726a,Friends Coffee & Tea,Coffee Shop,San Jose,95128,37.306872,-121.93223
4ae38e33f964a5209a9621e3,Starbucks,Coffee Shop,San Jose,95129,37.308702806457035,-121.97793151036224
4b919289f964a5209ec633e3,Starbucks,Coffee Shop,San Jose,95129,37.309653000000004,-122.01184099999999
4ae3544af964a520829321e3,Top Cafe,Chinese Restaurant,San Jose,95129,37.307370099593676,-122.03280423379304
4f7f652de4b04ced5db4a9e9,Safeway Starbucks,Coffee Shop,Cupertino,95014,37.317481994628906,-122.04344177246094
4b6a2949f964a520eeca2be3,Starbucks,Coffee Shop,San Jose,95121,37.30016323575745,-121.82191500436542
4b684cc0f964a52069702be3,Starbucks,Coffee Shop,San Jose,95111,37.289772,-121.84794
4f3246be19836c91c7c7b627,Cafe Tiffany,Coffee Shop,San Jose,95111,37.298766,-121.85640500000001
4af39d56f964a520f1ee21e3,Starbucks,Coffee Shop,San Jose,95125,37.29192925706614,-121.87894702870457
5403696f498e979708a9b1be,Viva Coffee,Coffee Shop,San Jose,95125,37.289132,-121.886883
4a7a5065f964a52020e91fe3,Elva's Coffee Stop,Coffee Shop,San Jose,95125,37.29063923377753,-121.88795040692312
4b0ed0d1f964a520785b23e3,Starbucks,Coffee Shop,San Jose,95125,37.293221,-121.911025
4edbbe04b8f7fcd041e59926,Starbucks,Coffee Shop,San Jose,95125,37.2924414103848,-121.90962737505517
5a5466890d173f4b9722c372,Peet's Coffee & Tea,Coffee Shop,Campbell,95008,37.288774555420105,-121.93307155127285
5cea1dc33731ee002c798f71,Living Room Coffee Craft,Coffee Shop,Campbell,95008,37.291337,-121.951319
4aabc73df964a520105a20e3,Starbucks,Coffee Shop,Campbell,95008,37.29285584,-121.930559
4ae614e7f964a52096a421e3,Starbucks,Coffee Shop,San Jose,95128,37.30019700067135,-121.95056191814967
4b61b0b1f964a520481d2ae3,Starbucks,Coffee Shop,San Jose,95125,37.29468657842133,-121.93096229329453
4f32405c19836c91c7c526f3,Zizzo's Coffee,Coffee Shop,Campbell,95008,37.290733,-121.932541
57856868498e516995aea557,Chromatic Coffee,Coffee Shop,San Jose,95125,37.294676630544345,-121.92613295102024
4f43925c19834bc91f579c03,Roof Top Cafe,Coffee Shop,San Jose,95128,37.300278999999996,-121.949937
5785682f498e08c725bdc0d9,Chromatic Coffee,Coffee Shop,San Jose,95125,37.29530594963711,-121.9274126215928
5b7593e8237dee002c16e857,Starbucks,Coffee Shop,Campbell,95130,37.294640449324866,-121.96275591926407
5c97e70098fbfc002c8ad1c9,Pink Pantherz Espresso,Coffee Shop,Campbell,95008,37.293874,-121.963373
4b3bd9dff964a520937c25e3,Caffino,Coffee Shop,Campbell,95008,37.293880263388736,-121.96346256551055
51fdb6c1d32cf4ea420ea39a,Chromatic Cafe,Coffee Shop,San Jose,95113,37.289196244496466,-121.96872607906656
4d9f5ce6865d5481af1c3413,Starbucks,Coffee Shop,Campbell,95008,37.292856,-121.966517
5c0d474c535d6f002c0f6112,Starbucks,Coffee Shop,San Jose,95129,37.292686,-121.995966
4ae324f1f964a520e89021e3,Starbucks,Coffee Shop,San Jose,95129,37.292614,-121.988743
4f44044719836ed00191c84a,Frescaroma Specialty Delightes,Coffee Shop,San Jose,95129,37.293009000000005,-121.990997
4f32430219836c91c7c62fc6,It's A Grind Coffee House,Coffee Shop,San Jose,95129,37.2927,-121.991
4f4a95bbe4b030691b9da046,Orchard Valley Coffee,Coffee Shop,Campbell,95008,37.30025490929904,-122.0184608058592
4f32114619833175d60d482a,Living Room,Coffee Shop,Saratoga,95070,37.290676,-122.03278799999998
4cb5046d8db0a1435bae5f16,Trine's Cafe,Mexican Restaurant,San Jose,95111,37.27887071158269,-121.83509663746338
4b2a7a39f964a520eba924e3,Starbucks,Coffee Shop,San Jose,95136,37.2748471,-121.85753319999999
4f443a1919836ed00192fa82,Java N Juice,Coffee Shop,San Jose,95136,37.274458,-121.853734
4f3231a919836c91c7bf6474,Hdx,Coffee Shop,San Jose,95136,37.274541,-121.857211
4b4a1703f964a5203e7a26e3,Starbucks,Coffee Shop,San Jose,95118,37.274790024182366,-121.89324666542076
4b5cb9d1f964a520c44029e3,Starbucks,Coffee Shop,San Jose,95124,37.275623852004145,-121.92263584747744
5be3a2e62f97ec002cde3288,Philz Coffee,Coffee Shop,Campbell,95008,37.28751960449265,-121.93145279504988
4baf87d2f964a520b0073ce3,Drinx,Coffee Shop,Campbell,95008,37.27890138974187,-121.95020305827393
4acbb930f964a52026c520e3,Starbucks,Coffee Shop,Campbell,95008,37.279986,-121.95111899999999
588b8061ea1c0d4369c40afd,Ben's Espresso,Coffee Shop,Campbell,95008,37.2868066767325,-121.94952428340912
4ac3d67bf964a520059d20e3,Starbucks,Coffee Shop,Campbell,95008,37.28718820999856,-121.94501171420265
4bc4ca8d4cdfc9b6312b9921,Jovie Coffee & Teas,Coffee Shop,Campbell,95008,37.27863160534618,-121.96447173095899
4b605ecff964a52032e229e3,Jovie Coffee and Tea,Coffee Shop,Campbell,95008,37.287486,-121.975445
4aaac7a0f964a520635720e3,Starbucks,Coffee Shop,Campbell,95008,37.28571545900547,-121.98223778823872
5286906a498e3289da676489,Starbucks,Coffee Shop,Saratoga,95070,37.280097999999995,-121.9999
4b6737d1f964a520ff412be3,Starbucks,Coffee Shop,Saratoga,95070,37.279672999999995,-122.03100800000001
4c1e335fb306c9280ca266b7,Starbucks,Coffee Shop,San Jose,95136,37.2669404935832,-121.83304036215529
4f32240419836c91c7ba210c,Cool Beans Coffee,Coffee Shop,San Jose,95136,37.266073,-121.83270300000001
57af6ec9498edd2520ca2001,Starbucks,Coffee Shop,San Jose,95118,37.25832163556327,-121.87322235107423
4c3cdb374bc9a593ab3ed371,Starbucks - Safeway,Coffee Shop,San Jose,95136,37.266758540485505,-121.85143247994068
4cc47808bde8f04d93a2ab4b,Starbucks,Coffee Shop,San Jose,95118,37.25999016240832,-121.87490304744671
4f324c8019836c91c7c9fc73,Coffee net,Coffee Shop,San Jose,95136,37.264275,-121.86535900000001
4f32900219836c91c7e3f3bd,Perfect Cup Cafe,Coffee Shop,San Jose,95136,37.257538000000004,-121.86271299999999
4b362150f964a5205c3025e3,Starbucks,Coffee Shop,San Jose,95124,37.263222051917374,-121.91878481366055
5b2c52450d8a0f002cd1b2f8,Starbucks,Coffee Shop,San Jose,95124,37.264484,-121.919205
50475311e4b0d15eda568e74,Jim's Cozi Coffee House,Coffee Shop,San Jose,95124,37.27136596329513,-121.90774430915549
4aedd979f964a52082cf21e3,Starbucks,Coffee Shop,Campbell,95008,37.27066129,-121.94621289999999
4b649dc5f964a52082c22ae3,Heartbeat Cafe,Coffee Shop,San Jose,95124,37.26069795863845,-121.93041096945377
4f4417a219836ed001923d5d,Rizo Brothers Coffee,Coffee Shop,Campbell,95008,37.270045,-121.951127
4f96c7fb7b0c59c3dcdbd527,Tico Coffee Roasters,Coffee Shop,Campbell,95008,37.266872473818346,-121.95300579071044
4c09506b009a0f47328de7bf,Crazy Coffee Lady,Coffee Shop,Los Gatos,95032,37.26249738741164,-121.96963838366192
502fe58be4b07730f4bd8192,Local Roast,Coffee Shop,Saratoga,95070,37.265535,-122.013205
4abf95e1f964a520339120e3,Big Basin Cafe,Coffee Shop,Saratoga,95070,37.25789515944099,-122.03355813650957
4b3d4747f964a5208b9125e3,Starbucks,Coffee Shop,Saratoga,95070,37.25879589531117,-122.03231255761885
5329b995498e05ac74afa67e,Starbucks,Coffee Shop,San Jose,95123,37.250417994931844,-121.80336132134045
537783eb11d2f391aa4392bb,Starbucks,Coffee Shop,San Jose,95123,37.246463,-121.80290500000001
4f44887219836ed00194b99e,Sonny's Cafe,Coffee Shop,San Jose,95123,37.249885,-121.80403600000001
5768706d498ef051bfd519ac,Hub's Coffee,Coffee Shop,San Jose,95123,37.249509,-121.845349
4d23aec7dcf4224b879c9d76,Starbucks,Coffee Shop,San Jose,95123,37.250262,-121.829196
5a95d8b0c9f9074ea0c32478,Starbucks,Coffee Shop,San Jose,95123,37.252457,-121.860794
49f4bcf1f964a520426b1fe3,Starbucks,Coffee Shop,San Jose,95123,37.2507063632131,-121.86610968076113
4a5e590cf964a52066be1fe3,Starbucks,Coffee Shop,San Jose,95123,37.24913,-121.85786399999999
4b5b8aa6f964a520ce0529e3,Starbucks,Coffee Shop,San Jose,95123,37.25150344,-121.8627355
4f326d3519836c91c7d6b60b,Javaland,Coffee Shop,San Jose,95123,37.252701,-121.858002
5d9ce466164e2f00087af578,Spectra Coffee,Coffee Shop,San Jose,95118,37.252034,-121.879342
49e75873f964a5208e641fe3,Starbucks,Coffee Shop,San Jose,95118,37.24586307116985,-121.88856501071524
4c6c027965eda0931caa4ad0,Coffee Nut,Coffee Shop,San Jose,95124,37.25132348397356,-121.89177247264028
4bad5872f964a5208a483be3,Starbucks,Coffee Shop,San Jose,95118,37.25289134035514,-121.90824704871044
4b3b845cf964a520077525e3,Big E Cafe Artisan Empanadas,Peruvian Restaurant,San Jose,95118,37.25276587127116,-121.90876744406256
4f325d5419836c91c7d08d15,St James Coffee Co,Coffee Shop,San Jose,95118,37.2519,-121.906998
4e4dd1acbd41b76bef93a2cb,Starbucks - Lucky,Coffee Shop,San Jose,95124,37.25379505905464,-121.92521953872378
57b329c3498efbfc0ff5086b,Starbucks,Coffee Shop,Los Gatos,95032,37.241936351296225,-121.93169529938295
4fce2cf2e4b08a3d2e19d1be,Moonbeans,Coffee Shop,San Jose,95124,37.252002000000005,-121.94690600000001
4ab185f2f964a520d46920e3,Starbucks,Coffee Shop,Los Gatos,95032,37.25373429891485,-121.95243819170084
4b21d78cf964a520e54124e3,Starbucks,Coffee Shop,San Jose,95123,37.23803024360646,-121.83099012333064
4f321c9219836c91c7b70d06,Euphnet Cyber Cafe,Coffee Shop,San Jose,95123,37.236774,-121.83253400000001
53b9c7f2498e28001d7c5bbf,Starbucks,Coffee Shop,Los Gatos,95032,37.236064019837364,-121.91462523939036
4f328aa119836c91c7e1e769,Caffe Florian,Coffee Shop,Los Gatos,95032,37.238997999999995,-121.931
54d58d5e498e262108fb6c7b,Philz Coffee,Coffee Shop,Los Gatos,95032,37.2360429017484,-121.96347605125212
4ae0e307f964a520648321e3,Starbucks Reserve,Coffee Shop,Los Gatos,95032,37.2356292122049,-121.96446899167385
4b1c00b6f964a520830024e3,Lou's Coffee House,Coffee Shop,Los Gatos,95032,37.24069738742233,-121.9610753798861
4f7c9067e4b02faff382efe3,Blue Bottle Coffee Co.,Coffee Shop,Los Gatos,95032,37.223026000000004,-121.98378899999999
5079f11ee4b00760cb3e4680,Kona Ice of San Mateo,Food Truck,San Mateo,95112,37.48535753694149,-122.14946019516792
539e903f498eb12d43d45a2b,Sno-Crave Tea House,Dessert Shop,Milpitas,95035,37.45594425059739,-121.91175309456159
4fb9bec3e4b08e9fbc2c092e,Baskin-Robbins,Ice Cream Shop,Milpitas,95035,37.446751286080605,-121.9030549385478
50145403e4b0260c4212d6ab,Halo Halo,Dessert Shop,Milpitas,95035,37.456027,-121.91001000000001
4fc19aace4b08acecb86ae0b,Honey Berry,Dessert Shop,Milpitas,95035,37.45534919992244,-121.91164094616975
4b4b9497f964a520eda026e3,Frozo's Frozen Yogurt,Ice Cream Shop,Milpitas,95035,37.455324,-121.911103
5b8c99866fd626002ca12a3e,Salt & Straw,Ice Cream Shop,Palo Alto,94301,37.445431142571785,-122.16194026104691
4a688daaf964a5208bca1fe3,Palo Alto Creamery,Diner,Palo Alto,94301,37.44380317864272,-122.16163677782387
5286cbc111d2619782667d44,Pressed Juicery,Juice Bar,Palo Alto,94304,37.442389886035,-122.17096495521271
511ff176e4b045d03424e771,CREAM of Palo Alto,Ice Cream Shop,Palo Alto,94301,37.447620475229705,-122.15985731138935
52463b2c8bbd7afe61b3d3ed,Scoop,Ice Cream Shop,Palo Alto,94301,37.44483054080581,-122.1626845562943
53e93085498ee3c3b1ca06d1,Gelataio,Ice Cream Shop,Palo Alto,94301,37.444479396486685,-122.16519155983406
5d50d6e33c10d10008abeefd,Morsey's Farmhouse Creamery,Dairy Store,Palo Alto,94301,37.444016,-122.16361
4a7b5e03f964a520d0ea1fe3,Gelato Classico,Ice Cream Shop,Palo Alto,94301,37.44512178311904,-122.16342762412815
4eb49b6a6c2590eb87b5b9da,The Chocolate Garage,Dessert Shop,Palo Alto,94301,37.44503487956602,-122.15906051473559
540be736498e6961475732f7,Gelatio,Dessert Shop,Palo Alto,94301,37.445178459438296,-122.16339852573596
5b0223c0e65d0c002ccbcba5,Lottie’s Creamery,Ice Cream Shop,Palo Alto,94304,37.442535,-122.17061399999999
575cc7b9498efb713d20997b,Creamistry,Ice Cream Shop,Palo Alto,94301,37.444320183598144,-122.16317902181795
519fd4e3498e4b1063b42247,Red Mango,Frozen Yogurt Shop,Palo Alto,94304,37.44281388506672,-122.17056968662901
4c00827a34ccc9284bc5e1cd,Yogurtland,Frozen Yogurt Shop,Milpitas,95035,37.433353000000004,-121.893014
56d0ef7ecd107b5ff41c5027,Girl Scout Cookie Pop Up Booth,Dessert Shop,Milpitas,95035,37.431671,-121.899732
4a944e06f964a520252120e3,Fosters Freeze,Burger Joint,Milpitas,95035,37.427821,-121.90754799999999
4ebd7fdecc21ae646adead03,Sweet Cup,Dessert Shop,Milpitas,95035,37.428811080092615,-121.91116566791109
4e4e43c6bd4101d0d7a6500c,Baskin-Robbins,Ice Cream Shop,Milpitas,95035,37.428418,-121.911401
4bec676b9a7bd13a05338868,Snowflake Ice Cream,Ice Cream Shop,Milpitas,95035,37.42880523204804,-121.91101
509ffeb5e4b0eac4e66e7708,Barlovento's Chocolates @ Farmers' Market,Dessert Shop,Palo Alto,94306,37.427253,-122.143289
4acfd7fbf964a52064d620e3,Baskin-Robbins,Ice Cream Shop,Palo Alto,94306,37.4341354,-122.12996799999999
51ce284a498e9ec2a5c357dd,Tin Pot Creamery,Ice Cream Shop,Palo Alto,94301,37.43862514562778,-122.15911889315615
4a67816cf964a52098c91fe3,Peninsula Creamery,Diner,Palo Alto,94301,37.440879394633214,-122.15841754493549
51117d25e4b0777799cbaf5f,Peninsula Creamery Dairy Store,Sandwich Place,Palo Alto,94301,37.440642,-122.158393
5c382b9f42d8c2002c06b056,Celsius,Dessert Shop,Milpitas,95035,37.41787,-121.87333999999998
5c396643f1fdaf002cc3fdff,Celsius Rolled Ice Cream and Iced Teas,Ice Cream Shop,Milpitas,95035,37.417744,-121.874024
4b47a1c1f964a520363826e3,Cold Stone Creamery - Temporarily Closed,Ice Cream Shop,Milpitas,95035,37.417328999999995,-121.898453
4b5b9599f964a520e70829e3,Orange Tree Frozen Yogurt,Frozen Yogurt Shop,Milpitas,95035,37.41603928381547,-121.89682341284716
4b9aa3a8f964a520bec835e3,Mrs. Fields Cookies,Dessert Shop,Milpitas,95035,37.4165956220896,-121.89861504965202
4d2d097afd2e236a3f18edde,Rocky Mountain Chocolate Factory,Dessert Shop,Milpitas,95035,37.416123459183204,-121.89687318421677
4b5ba24af964a520880c29e3,Dreyer's Grand Ice Cream,Ice Cream Shop,Milpitas,95035,37.416118183041675,-121.89858913421631
4bafffeaf964a52003313ce3,Nestlé Toll House - Great Mall,Dessert Shop,Milpitas,95035,37.4140386,-121.89584973333334
5d26c74511549d0023071ac8,CREAM,Ice Cream Shop,Milpitas,95035,37.418641,-121.897976
5164380d8ca394d304f87092,TCBY,Frozen Yogurt Shop,Milpitas,95035,37.41604961612798,-121.8967243225556
59148be4b9ac385d53ab9c2f,Dippin' Dots,Ice Cream Shop,Milpitas,95035,37.417075,-121.897456
5b84b06ac66666002c864561,Honey Creme,Dessert Shop,Milpitas,95035,37.419408000000004,-121.91628500000002
5a6c074135f98359ee391dd1,Sweethoney Dessert 杏记甜品,Dessert Shop,Milpitas,95035,37.4235968365193,-121.9175889535058
5cba7d68f1fdaf002c3a4c05,Sugar Mama Ice Cream,Ice Cream Shop,Milpitas,95035,37.421112,-121.91614299999999
4a87b15bf964a520d60420e3,Bolansa Dessert,Dessert Shop,Milpitas,95035,37.419377,-121.915779
5a5135610336937b66a790db,Raw Sugar,Juice Bar,Milpitas,95035,37.426129,-121.913038
4a040a78f964a520e5711fe3,Orange Tree - Milpitas,Dessert Shop,Milpitas,95035,37.420905499999996,-121.91621599999999
4e4e2bc3bd4101d0d7a3dc3c,Ben & Jerry's,Ice Cream Shop,Santa Clara,95054,37.41735926424597,-121.94554177012057
57bded4e498efbd5dc56bd63,Postrique,Food Truck,Mountain View,94043,37.420290361719616,-122.0837250776203
4b7b4da0f964a520615d2fe3,Googleplex - B43 Ice Cream,Ice Cream Shop,Mountain View,94043,37.42169091290838,-122.08426237106323
4eea27130aafda6d14cc5216,Cold Treats,Ice Cream Shop,Palo Alto,94306,37.413104,-122.125095
50f72b5ce4b01347e99da05e,Decadence,Dessert Shop,Stanford,94305,37.424618,-122.17055800000001
595ac3871fa763146ab8e510,Frozen Ninja,Ice Cream Shop,San Jose,95132,37.397138,-121.874026
4fc55665e4b0958a79732fd7,Helados Dolce Capriccio,Dessert Shop,San Jose,95132,37.4043828,-121.8781989
52e1775011d2dfc2a943cc57,Yogen Früz,Frozen Yogurt Shop,Santa Clara,95054,37.402324297343576,-121.94990239369776
5541855f498e88d7fe1b6b7a,CREAM,Ice Cream Shop,Cupertino,95014,37.405854245227864,-121.99592001213374
4f32911619836c91c7e45a31,Double Rainbow Gourmet Ice Cream & Dessert Cafe,Dessert Shop,Mountain View,94041,37.40047074152221,-122.01761144652198
4fc92650e4b0b7b066869365,1277 Borregas Ave,Cupcake Shop,Sunnyvale,94089,37.4061633956361,-122.02083120511108
57c0a244498e98061f885021,Three Twins Ice Cream,Ice Cream Shop,Sunnyvale,94089,37.403929999999995,-122.032839
4d101189c3dc370458db3674,rick's factory,Ice Cream Shop,Mountain View,94043,37.408714,-122.091373
5731640c498ea660ef49a40d,California Mochi,Dessert Shop,Mountain View,94043,37.402515,-122.0799
4a2de833f964a52007981fe3,Cold Stone Creamery,Ice Cream Shop,Mountain View,94040,37.402688,-122.114078
519f34b77dd29c356625e8c2,Rocko's Chocolate Tacos,Ice Cream Shop,Mountain View,94040,37.40324989861162,-122.10604190826416
4bb2b34c42959c74083d212c,Ruby Frozen Yogurt,Frozen Yogurt Shop,San Jose,95132,37.38761284092749,-121.8600793994008
5acd8a5a6bdee65e18b4af65,Sweethoney Dessert,Dessert Shop,San Jose,95131,37.387235916289136,-121.88352723194973
5caa5b2ff193c0002c03c3ca,Cauldron Ice Cream,Ice Cream Shop,San Jose,95131,37.381809999999994,-121.895775
53210f43498edf8d63604540,Yogurtland,Frozen Yogurt Shop,San Jose,95131,37.384432000000004,-121.897581
5786d007498e5eaffeaff63c,Popbar,Ice Cream Shop,San Jose,95131,37.387155646689024,-121.88528365349964
4f322c1819836c91c7bd47ba,Poco Cafe,Ice Cream Shop,San Jose,95131,37.387807,-121.885006
4aea7076f964a52099bb21e3,Bambu,Dessert Shop,San Jose,95131,37.38648918179,-121.88468032459532
4e226690e4cdf68591902999,Dessert Corner,Dessert Shop,San Jose,95131,37.387266,-121.88526399999999
4a5152dff964a520f0b01fe3,Cold Stone Creamery,Ice Cream Shop,Santa Clara,95054,37.394546999999996,-121.946041
5c298eb0bfc6d0002cf6c0fa,Festive Funnel Cakes Great America,Dessert Shop,Santa Clara,95054,37.395134000000006,-121.97186
5999d2b4b399f744b9907997,Icee,Dessert Shop,Santa Clara,95054,37.393974,-121.97093999999998
5e1b7b282228800007de6b98,whaT’s More cake,Dessert Shop,Sunnyvale,94085,37.381949,-121.99508600000001
5a4e75f818d43b4d67cf5509,Oasis Baklava,Dessert Shop,Sunnyvale,94085,37.389134000000006,-122.00451799999999
4f32854219836c91c7dfda05,Intellisys Group,Dessert Shop,Mountain View,94041,37.387343,-122.065833
44fc846ff964a52089381fe3,Gelato Classico,Ice Cream Shop,Mountain View,94041,37.39327141388761,-122.07923828133356
54b83f1f498ec69064dffd82,Yogurtland,Frozen Yogurt Shop,Mountain View,94040,37.391101,-122.095184
5a4f000d872f7d61a9fbca50,Icicles,Ice Cream Shop,Mountain View,94041,37.392753278449774,-122.07971739091612
4f3222e619836c91c7b9aede,TCBY,Ice Cream Shop,Mountain View,94041,37.387997999999996,-122.082554
4a41a02ff964a5207ba51fe3,Baskin-Robbins,Ice Cream Shop,Mountain View,94040,37.387983236099025,-122.08900333462543
5b10c512237dee002c10ecfc,Treats On Castro,Dessert Shop,Mountain View,94041,37.393288,-122.079734
4f2bdc26e4b09513ae933794,Arny And Dading's Peachy Peachy,Dessert Shop,Los Altos,94024,37.382998,-122.09366100000001
592256c3da7080380ecc001b,SweetFix Creamery,Ice Cream Shop,San Jose,95127,37.37132732415692,-121.84218100943936
4b6b9ddef964a520ba122ce3,Baskin-Robbins,Ice Cream Shop,San Jose,95116,37.36583980959572,-121.85015667334824
4f37481de4b09ca12cfd2118,Treasure Cakes & Cupcakes,Cupcake Shop,San Jose,95127,37.366573422962226,-121.82676098466456
4f3222eb19836c91c7b9b09b,Fosters Freeze,Fast Food Restaurant,San Jose,95116,37.365049,-121.850733
536867ee498e7d3b277090ba,Ice Breakrr,Dessert Shop,San Jose,95131,37.373311936483496,-121.89951181411742
4fac0f77e4b0077c44e3d123,Red Mango,Frozen Yogurt Shop,Milpitas,95035,37.36675553889626,-121.92229145031271
5bb51663f05ca8002dfce113,Menchie's,Frozen Yogurt Shop,San Jose,95110,37.36699237386464,-121.92677943021366
4d59df0cee346a31214d3351,Naughty Biscotti,Dessert Shop,Santa Clara,95054,37.376477,-121.960993
59064ef1bb8d366fea85dc56,Pressed Juicery,Juice Bar,Santa Clara,95051,37.3675957,-121.9937274
4f32477e19836c91c7c806e0,Mygrub.net,Dessert Shop,Sunnyvale,94086,37.366693,-122.01781100000001
5132f8ace4b0cd2abd62bf7d,Cold Stone Ice Cream,Ice Cream Shop,Santa Clara,95051,37.377895715762136,-122.01306476354736
4f32ad5919836c91c7eef86c,Penguino's Gourmet Yogurt,Frozen Yogurt Shop,Sunnyvale,94086,37.364785,-122.01406599999999
4c9abf9980958cfa96fc45d4,Pinkberry,Frozen Yogurt Shop,Sunnyvale,94087,37.366788,-122.031655
52af6a8f11d2321257e604a7,Bambu,Dessert Shop,Sunnyvale,94086,37.376290300004015,-122.03133622079424
4c670b9c9cb82d7f748892d2,Edible Arrangement,Dessert Shop,Sunnyvale,94087,37.369282347168756,-122.04242197524276
5be724476f0aa2002c2bc606,Sugar Mama Desserts,Ice Cream Shop,Sunnyvale,94086,37.375939,-122.03002
49cb20a1f964a520ff581fe3,Baskin-Robbins,Ice Cream Shop,Mountain View,94040,37.375508374963175,-122.06380433041923
4a88c4a2f964a5208f0720e3,Fro-Yo Shoppe,Dessert Shop,Mountain View,94040,37.372286,-122.08819
54700055498ea38ffee1993c,Tin Pot Creamery,Ice Cream Shop,Los Altos,94022,37.37864335106296,-122.11832155641098
4aa31b39f964a520594320e3,Baskin-Robbins,Ice Cream Shop,Los Altos,94022,37.37949257169115,-122.11715842784949
4b932e22f964a520b43934e3,Baskin-Robbins,Ice Cream Shop,San Jose,95127,37.35543105518735,-121.81898898378877
57708952498e8b7af0c59377,Orange Sunrise,Dessert Shop,San Jose,95116,37.361599,-121.836152
5b888f65db1d81002c9cb809,Playa Lounge,Dessert Shop,San Jose,95116,37.356681,-121.863335
49e75664f964a5208b641fe3,Fosters Freeze,Burger Joint,San Jose,95112,37.35054,-121.89678500000001
574ab307498ed6a74e255ac4,Nox Cookie Bar,Dessert Shop,San Jose,95112,37.361563000000004,-121.89969199999999
57af7193498ef62ed760781e,Cake Expressions,Pastry Shop,Santa Clara,95050,37.363805,-121.940946
49d8ea92f964a520db5d1fe3,Frozos,Ice Cream Shop,Santa Clara,95050,37.350413681220545,-121.94393021663107
5003b665e4b0ae2f1812fd69,Mervyns Plaza Shopping Center,Shopping Mall,Santa Clara,95050,37.350791580270354,-121.9612003249478
57b54932498e0b675c4de315,fred denis aurele ewen,Cupcake Shop,Sunnyvale,94086,37.361623,-121.998799
4cd5cca389eb6dcb46622b1e,See's Candies,Candy Store,Santa Clara,95051,37.352104849184705,-121.98706024912724
4f32a14019836c91c7ea6f73,Dairy Belle Freeze No 49,Dessert Shop,Santa Clara,95051,37.351924,-121.990548
5e23bda05a31530008582809,Dessert Salon,Dessert Shop,Santa Clara,95051,37.351969,-121.981807
4ca94f1376d3a09360e51e6b,Nirvanaah,Ice Cream Shop,Sunnyvale,94087,37.35146458624865,-122.00519737463728
4655ce86f964a52002471fe3,Cold Stone Creamery,Ice Cream Shop,Sunnyvale,94087,37.35803984336996,-122.01939607981569
4f9b59efe4b05baf77a41ba3,Wild Berry,Frozen Yogurt Shop,Los Altos,94024,37.36133824811635,-122.09781282779392
4f321f6b19836c91c7b83d16,Lapperts Ice Cream and Candy,Dessert Shop,Los Altos,94024,37.361238,-122.097465
4a4290a7f964a520f8a51fe3,Tom's Depot,American Restaurant,Los Altos,94024,37.3529723,-122.08736110000001
50c78cc1e4b057f66f8e2c07,United Paleteria y Neveria,Ice Cream Shop,San Jose,95116,37.345468384812825,-121.8480323804755
4cab81eb2776b60c65a84c0d,Cold Stone Creamery,Ice Cream Shop,San Jose,95122,37.339887,-121.842265
4ee3d9969911944900831af5,Yogurtland,Frozen Yogurt Shop,San Jose,95122,37.339887,-121.842265
51fc1d37498ee1d275305f78,Los Manguitos Paleteria,Ice Cream Shop,San Jose,95122,37.339002,-121.84330800000001
5d63458b01817000082f9c97,La Michoacana Premium,Ice Cream Shop,San Jose,95122,37.338941999999996,-121.843608
4cd309279828b60c0667d384,Treat Ice Cream Company,Ice Cream Shop,San Jose,95116,37.344708,-121.872085
4f32b43c19836c91c7f1848f,Me Ice Cream,Dessert Shop,San Jose,95116,37.343405,-121.863567
4f32488819836c91c7c86dae,Loto Ja Ice Cream,Ice Cream Shop,San Jose,95116,37.345653000000006,-121.86663600000001
5a60301b9deb7d4f531551cb,nox cookie bar,Dessert Shop,San Jose,95113,37.3340704315591,-121.88733173601288
4fdd01e9e4b01549c06470de,Treatbot,Ice Cream Shop,San Jose,95110,37.33640177592193,-121.8950511757584
548d1d13498e8e0d8ac97f28,My Milkshake,Ice Cream Shop,San Jose,95113,37.3342223360979,-121.88747496779064
4aac0cfbf964a520e95b20e3,Shuei-Do Manju Shop,Japanese Restaurant,San Jose,95112,37.34925612213789,-121.8939228473588
49efde6ef964a52014691fe3,Penguin Froyo,Ice Cream Shop,San Jose,95113,37.3364,-121.88993799999999
5077361ae4b0dcb9155f228a,Polkadotz Mini Gourmet Cupcakes,Cupcake Shop,San Jose,95110,37.33629467756853,-121.89497925151218
4f0f791ce4b0ade070ac27c2,Candyland,Cupcake Shop,San Jose,95112,37.335379478296105,-121.87599287598046
58a5019b8cfe5451ebb3c3f9,JT Express,Ice Cream Shop,San Jose,95112,37.348631307708075,-121.89492267874807
4c53a28806901b8dbf14734a,Whipp's,Ice Cream Shop,San Jose,95112,37.33518,-121.886281
52d82ee5498e4ddbf78ce782,C.R.E.A.M.S,Ice Cream Shop,San Jose,95113,37.33483508352764,-121.89060533763892
4edadd9993ad464d2924a735,Ice Bee,Ice Cream Shop,San Jose,95113,37.3342006809532,-121.88752070721443
5972ca33829b0c177703228e,Kings Gelato & Fruits,Ice Cream Shop,San Jose,95112,37.336458,-121.876967
528f85f511d2dbbefd0a166b,CREAM (Cookies Rule Everything Around Me),Ice Cream Shop,San Jose,95113,37.3352139615247,-121.88995309873238
4b2f0b08f964a5204be924e3,Icebee,Frozen Yogurt Shop,San Jose,95112,37.33413942598498,-121.88751039672584
4de813b87d8b02ee9f0d2d1d,Froyo Delight,Ice Cream Shop,San Jose,95113,37.334456,-121.893296
4daf4b255da3f2f3d2a2dc67,Hawaiian Shave Ice,Ice Cream Shop,San Jose,95112,37.349176,-121.893329
54eca658498e173028d9f645,Yogurtland,Frozen Yogurt Shop,Cupertino,95014,37.335224399021946,-121.92519175836469
4f01b1d802d580f8f18bda0f,ร้านของหวานเยาวราช,Dessert Shop,San Jose,95110,37.342154,-121.905115
4f328e0f19836c91c7e33982,Circus Ice Cream,Ice Cream Shop,San Jose,95110,37.336058,-121.904227
5adbff42ff03064314779709,Rocko’s Ice Cream Tacos,Ice Cream Shop,Santa Clara,95050,37.34560098342629,-121.93741789194924
5b1dd6b7e727c40024a94a8d,Spyrolls,Ice Cream Shop,Santa Clara,95050,37.344425,-121.93243999999999
4e08c33252b165b7d7b61eea,Frost Cupcake Factory,Cupcake Shop,San Jose,95128,37.337654,-121.93838999999998
4f439bfd19834bc91f57db2d,Tiki Surf,Ice Cream Shop,Santa Clara,95051,37.33875,-121.99430600000001
52351f1a498edf4ad8a5d8b2,Cakes4Kids,Cupcake Shop,Sunnyvale,94087,37.347152,-121.99596899999999
4cc0b2daf4448cfadca95198,Ganesha Indian Cuisine Sweets & Catering,North Indian Restaurant,Santa Clara,95051,37.34592085200757,-121.9789159297943
5c772e3ff00a70002c46545b,Gelato Bar,Ice Cream Shop,Cupertino,95014,37.335975,-122.00695900000001
5b675e4146e1b6002cf4356d,Creamistry,Ice Cream Shop,Cupertino,95014,37.335428105031326,-122.01477794906742
4f3294d319836c91c7e5cbc0,Baskin-Robbins,Ice Cream Shop,Cupertino,95014,37.337154999999996,-122.04024799999999
5067cd4be4b02d0d17d927c5,Thrifty Ice Cream,Ice Cream Shop,Cupertino,95014,37.33718696701868,-122.03373510051512
567a14e5498e644fab6d9162,HoDo Macarons & Tea,Dessert Shop,San Jose,95122,37.319595759200524,-121.79181006344635
4fa04a1ee4b0417722ccf4a3,All Natural,Snack Place,San Jose,95122,37.32515824733958,-121.81514341219709
59c87a5b237dee656b122010,Soyful Desserts,Dessert Shop,San Jose,95122,37.31935,-121.82372600000001
4e4e372bbd4101d0d7a5043c,Marble Slab Creamery,Ice Cream Shop,San Jose,95122,37.323440999999995,-121.81526299999999
50cfa028e4b048adc093c4b9,Noonie Cakes,Cupcake Shop,San Jose,95122,37.32500817229336,-121.81464286721831
4d3623f94202f04d66bf1532,Mrs. Fields Cookies,Dessert Shop,San Jose,95122,37.325161,-121.813694
598bd6a38134882ad1565da4,Churros El Guero,Food Truck,San Jose,95122,37.32466568689762,-121.80998769112612
574a445e498ec191ee08cb58,Estilo Mexico Churros,Dessert Shop,San Jose,95122,37.329027,-121.830154
500e0554e4b07f8ff5f698c5,Paletero Man,Ice Cream Shop,San Jose,95122,37.329664965332434,-121.84538327196316
4f32231819836c91c7b9c264,Tropic-Cal Ice Cream,Dessert Shop,San Jose,95122,37.325485,-121.846576
5206a43611d252a8824a2c5e,Bobo Drinks,Dessert Shop,San Jose,95122,37.329651407651475,-121.85904042874054
53e84689498e4ce9ba7656a2,Soyful Desserts,Dessert Shop,San Jose,95122,37.33221876028514,-121.85683347823509
5681a450498e53d1f5df0f23,Marco Polo,Ice Cream Shop,San Jose,95122,37.331836883982184,-121.856546105964
4c795aa193ef236a4642af0f,Mak's Juice and Desserts,Dessert Shop,San Jose,95122,37.33306542815693,-121.856981872419
57d616e0498eda3cf5ee77dc,Baskin-Robbins,Ice Cream Shop,San Jose,95122,37.32955321861383,-121.85927111335873
4edaa5ed2c5b50ab9eeaa7c6,O'Brien's San Jose Candy Factory,Dessert Shop,San Jose,95112,37.320218,-121.85804499999999
4e582401aeb7eff130d6643f,Yogurtland,Frozen Yogurt Shop,San Jose,95112,37.33302,-121.884331
4f44862819836ed00194ada7,Chill Factor Frozen Yogurt Lounge,Frozen Yogurt Shop,San Jose,95112,37.332315,-121.884344
4c35657009a99c74c26c0c2a,Polar Ice,Dessert Shop,San Jose,95112,37.33083704,-121.884146
50b02984e4b0a74d34dea73d,Yougurtland,Ice Cream Shop,San Jose,95112,37.330410909263456,-121.8885322531666
5094877ce4b0baf4e0f01c9f,Cafe Bon Terre,Ice Cream Shop,San Jose,95112,37.331896539622605,-121.88934370641304
4f32980319836c91c7e6fb60,Frosty's Yogurt and Ice Cream,Frozen Yogurt Shop,San Jose,95113,37.333637,-121.88797
4d099d70e6f83704bcbd5b87,Brit's Best Funnel Cakes & Cones,Dessert Shop,San Jose,95113,37.331253516666656,-121.89134213333334
5b718e6604d1ae002c080314,Italian Brothers,Dessert Shop,San Jose,95126,37.323709,-121.913956
589155a146563a4f59876e73,Rita's Ice,Dessert Shop,San Jose,95113,37.332674344882896,-121.90143036738607
575c936a498e586b8cb579f0,Goodies Homemade Ice Cream & Fudge,Dessert Shop,San Jose,95126,37.32363928792928,-121.91392000930631
4f328a3519836c91c7e1beb5,Golden State Ice Cream,Ice Cream Shop,San Jose,95126,37.322624,-121.91134
4a81c9c1f964a52093f71fe3,The Cheesecake Factory,American Restaurant,Santa Clara,95050,37.32417741926956,-121.94728554097715
5d73329d371b690008d078ba,Somi Somi - Soft Serve & Taiyaki,Ice Cream Shop,Santa Clara,95050,37.324764,-121.94716000000001
5e6563e0f9a5100008a1c221,Salt & Straw,Ice Cream Shop,San Jose,95128,37.3242,-121.946524
57d9d97f498e6e87cca3b1d9,Smitten Ice Cream,Ice Cream Shop,San Jose,95128,37.318980520124406,-121.94854259490965
4baf8cfef964a520b4093ce3,Godiva Chocolatier,Chocolate Shop,Santa Clara,95050,37.325645200000004,-121.9454638
5b848130acc5f5002cbe0b3a,Pressed Juicery,Juice Bar,San Jose,95128,37.3206956,-121.94854440000002
5e083010a4c7e10007a97640,Pinkberry,Frozen Yogurt Shop,San Jose,95050,37.325592,-121.945752
5c77ed5ecad1b6002ca87819,Rita's Italian Ice & Frozen Custard,Ice Cream Shop,Santa Clara,95050,37.33044500000001,-121.950865
4baf909ef964a520420b3ce3,Mrs. Field's Cookies,Dessert Shop,Santa Clara,95050,37.32539707415549,-121.94424523812609
5806ce2938faec4ce0a09354,frujuice,Dessert Shop,San Jose,95050,37.325471,-121.944122
4b5a7f67f964a5204ec828e3,Tuttimelon,Ice Cream Shop,Santa Clara,95050,37.3252765456949,-121.94685275285559
4b219136f964a5201d3e24e3,Baskin-Robbins,Ice Cream Shop,San Jose,95128,37.32724640101825,-121.94923088394114
4b7a0a35f964a5203f202fe3,Cupcakes By Sweet Passions Bakery,Cupcake Shop,Santa Clara,95050,37.323450518828004,-121.94582507703642
4f2f26bee4b067066ef63796,Cako,Dessert Shop,Santa Clara,95050,37.32607245180503,-121.94358091287565
4d83f10199b78cfa4995ac1f,Nestles Toll House Kiosk,Dessert Shop,Santa Clara,95050,37.32579774279686,-121.94400301195829
5c201b3765211f002ce97980,Icerolls,Ice Cream Shop,San Jose,95128,37.326108000000005,-121.94356
5a2626df396de039dde1531a,Dragon Breath,Dessert Shop,San Jose,95050,37.32584,-121.943836
52350a32498eb8203c08563b,Häagen-Dazs,Ice Cream Shop,Santa Clara,95050,37.32599999057681,-121.94433054243069
4ddf0a331f6ed1828c4c2538,Mrs. Fields - Food Court,Dessert Shop,Santa Clara,95050,37.32553752175397,-121.94397523634224
4b490dcdf964a520d36326e3,Red Mango,Ice Cream Shop,Santa Clara,95050,37.324384503896155,-121.94584174212638
5aa31cf4018cbb0820d29e4b,Chocolate Chair,Ice Cream Shop,San Jose,95050,37.325794,-121.94368700000001
5259eeb1498ea056398702b0,CocoaBella Chocolates,Dessert Shop,Santa Clara,95050,37.32548206676331,-121.94557943438271
4a5fff2af964a520a6c01fe3,Yumi Yogurt,Frozen Yogurt Shop,Santa Clara,95051,37.32400065765044,-121.96884061855059
4d303849f9daa1cd2ac56350,Dulce Bella Cho,Dessert Shop,San Jose,95129,37.319712,-121.96884399999999
50f36fb5e4b0c82700c6b4fa,True Bliss Yougurt N Treats,Dessert Shop,San Jose,95129,37.32025334973882,-121.97408543406469
4fe00209e4b03409c6e3d2e1,häagen dazs heaven,Ice Cream Shop,Santa Clara,95050,37.32907104492188,-121.9659423828125
4e065542b61c60b0453e4f65,Ruby Frozen Yogurt,Frozen Yogurt Shop,San Jose,95129,37.319757,-121.97402
54dffbc2498e1183c51d531e,The Cake Man,Dessert Shop,San Jose,95117,37.318494,-121.955081
4e4e4409bd4101d0d7a656d7,Baskin-Robbins,Ice Cream Shop,San Jose,95129,37.31848917515517,-121.97393548676304
5ad504dfe1f0aa62ad5a9126,Mini Taiyaki,Dessert Shop,Santa Clara,95051,37.323316999999996,-121.992236
4f321b7219836c91c7b69576,Golden Spoon,Ice Cream Shop,San Jose,95129,37.322946,-121.992729
579d5b1e498e132678af008b,Meet Fresh 鮮芋仙 (Meet Fresh),Dessert Shop,Cupertino,95014,37.32442411081539,-122.01106612079629
5c68913ba2a6ce002cf974f3,Somisomi,Dessert Shop,Cupertino,95014,37.324667716144134,-122.01038826496651
4a9724f2f964a520a72820e3,Beard Papa's,Dessert Shop,Cupertino,95014,37.321841590833344,-122.01817850799088
596404865a2c915a368548a3,Pressed Juicery,Juice Bar,Cupertino,95014,37.323831,-122.009704
5541850f498e46cd3eb42c34,CREAM,Ice Cream Shop,Cupertino,95014,37.32308389992172,-122.0121323884424
578dc7df498e3cdcb0ad7004,Alexander's Patisserie,Dessert Shop,Cupertino,95014,37.32324666412697,-122.00994471075643
5b0b7f00ee7120002cecb1ab,Sweet Moment,Dessert Shop,Cupertino,95014,37.32538992382776,-122.01153474089044
4f324ffe19836c91c7cb59ae,Tutti Frutti Frozen Yogurt,Frozen Yogurt Shop,Cupertino,95014,37.325032,-122.012778
4a00d4f3f964a520b6701fe3,Yogurtland,Frozen Yogurt Shop,Cupertino,95014,37.321657,-122.017812
4bc9392eb6c49c74f5358e91,Froyo?,Dessert Shop,Cupertino,95014,37.32566893100738,-122.01454102993013
4ebdbdc44901f56b0d12a215,Tutti Frutti,Frozen Yogurt Shop,Cupertino,95014,37.32690107997065,-122.01358106308778
5cccad390e3239002b852fe4,Sul & Beans,Dessert Shop,Cupertino,95014,37.32462,-122.01066000000002
578aeaa4498ea6038cd134cb,icool,Ice Cream Shop,Cupertino,95014,37.325607,-122.013535
578d418ccd108caadd130c08,iCool,Ice Cream Shop,Cupertino,95014,37.325435999999996,-122.01165400000001
4f32972419836c91c7e6a682,Tartini Frozen Yogurt Bar,Frozen Yogurt Shop,Cupertino,95014,37.322798999999996,-122.03131100000002
4acd4131f964a52091cb20e3,Orange Tree Frozen Yogurt,Frozen Yogurt Shop,Cupertino,95014,37.323339207162924,-122.04791452765612
4e4e08aabd4101d0d7a0b071,Cold Stone Creamery,Ice Cream Shop,Cupertino,95014,37.32398986816406,-122.04321384429932
4c24270eb7b8a5935b223ce8,Yogurtland,Frozen Yogurt Shop,San Jose,95121,37.31326,-121.79341000000001
4bbff575461576b02a977932,Baskin-Robbins,Ice Cream Shop,San Jose,95121,37.31161267401056,-121.80973647772709
5aac67795a2c912c12d837f9,Icey Poki,Ice Cream Shop,San Jose,95121,37.306075,-121.810579
4f6f9e3be4b0a4e2119c7ebe,Sweet Spot,Dessert Shop,San Jose,95121,37.310506019718396,-121.81002174689141
5d3505011284d60007aec8c2,Izumi Matcha,Ice Cream Shop,San Jose,95121,37.308445,-121.814
505552a0e4b04ed4f11602c8,Sweet Spot,Dessert Shop,San Jose,95121,37.310540997197094,-121.80989313953538
59642c9c9ad60e574e4a5b07,BlackBall 黑丸,Dessert Shop,San Jose,95121,37.30837341092892,-121.81367022057005
539a070a498e71ce2a478cb0,Snow Lounge,Ice Cream Shop,San Jose,95121,37.30965630301245,-121.81002106225664
5b5fccb0a2a6ce002c8a3213,Krazy Churros,Dessert Shop,San Jose,95121,37.310486,-121.80991000000002
4bc793bd14d7952129a967e9,Toppings Frozen Yogurt,Frozen Yogurt Shop,San Jose,95121,37.30615357537549,-121.81294463782308
5782ebfe498e91fa978eaa7e,Icicles,Ice Cream Shop,San Jose,95125,37.305329383688886,-121.89900101005509
53a0ee8b498e527f3c70bfeb,La Original Paleteria y Neveria,Ice Cream Shop,San Jose,95110,37.318293,-121.883668
4aab313cf964a520385920e3,Willow Glen Creamery,Ice Cream Shop,San Jose,95125,37.30826367535006,-121.90081030339536
4b99bb4bf964a520de8e35e3,Baskin-Robbins,Ice Cream Shop,San Jose,95125,37.30865842484868,-121.90013464012263
509f05f1e4b0df8f7f458cf2,Mariette Premium Chocolates,Dessert Shop,San Jose,95125,37.305510806380646,-121.89886374706396
4f9f146be4b08d850e4d3630,Popsicle Man,Dessert Shop,San Jose,95125,37.30502689600077,-121.89214484168899
4b11fc05f964a520d78723e3,Powell's Sweet Shoppe,Candy Store,San Jose,95125,37.30753335924743,-121.90038766478676
4c9149aa7f3b8cfadc749b1e,Tutti Frutti Frozen Yogurt,Frozen Yogurt Shop,San Jose,95125,37.307511414686076,-121.90042687094444
4fb93aa7e4b0fdfd00ddc0ea,Mariette Chocolates,Dessert Shop,San Jose,95125,37.30567143873414,-121.8992974183957
4d924d59fa1ef04d0a7854c7,Yogurt Cove,Frozen Yogurt Shop,San Jose,95125,37.30535545492831,-121.89895290811566
51d736fa498e20fce95b392c,The Willow Glen Chocolate Shop,Dessert Shop,San Jose,95125,37.305574,-121.898598
4d33ce25c75a6ea8dd6b1aae,Tutti Frutti,Frozen Yogurt Shop,San Jose,95125,37.3073786,-121.9004857
56aa84bd498ef6c632ed92d7,SusieCakes,Cupcake Shop,San Jose,95125,37.30824810473696,-121.90103586799091
5c3b7997be7078002c6cb297,Dolce Sicilia,Dessert Shop,San Jose,95125,37.307292,-121.90094099999999
4adb9971f964a520492921e3,Green Cup Frozen Yogurt,Frozen Yogurt Shop,San Jose,95128,37.31432076195257,-121.95043714582043
4f32331619836c91c7bff270,Dairy Queen,Ice Cream Shop,San Jose,95128,37.310687,-121.93096100000001
4f234b1ee4b0020c2d9c6a72,Mochi Cream,Dessert Shop,San Jose,95129,37.31502813878797,-121.97769440893927
54c4323f498e205c48873001,Snowflake,Dessert Shop,San Jose,95129,37.31560130665496,-121.97731575389221
4e225f76483b041af1f75cd1,Fred's Ice Cream Stand,Ice Cream Shop,San Jose,95129,37.306813,-122.00096299999998
4dab5480cda1652a2ba12ee5,Tutti Frutti,Frozen Yogurt Shop,San Jose,95129,37.315590577303716,-121.97730319309616
513255e2e4b0d576c3085513,Marion Crepes,Creperie,San Jose,95129,37.315112399412016,-121.97785071014505
5a5a6e9e0457b76a1a3752b8,T.K. north factory,Dessert Shop,San Jose,95129,37.315262,-121.977659
4c1adcbcb9f876b076737946,Baskin-Robbins,Ice Cream Shop,San Jose,95129,37.304817354654425,-122.03278730644877
5e3dfd3f69e2000008794ca5,Vampire Penguin,Dessert Shop,Cupertino,95014,37.316666,-122.03350900000001
550e0c18498e21161fa690bc,Island Style Shave Ice,Ice Cream Shop,Cupertino,95014,37.313424487150996,-122.069277080514
50186eeee4b047ae79b165f0,halo halo,Dessert Shop,San Jose,95111,37.29934310913086,-121.83995819091795
548ce797498ed29d2b99f6fe,Dippin' Dots,Ice Cream Shop,San Jose,95122,37.295621999999995,-121.844187
4d293bd3b818a35d712c9d8a,Loard's Ice Cream,Ice Cream Shop,San Jose,95111,37.29565308422089,-121.8527291846217
5c3e13ddb77c77003961cca4,milk+ice,Ice Cream Shop,San Jose,95125,37.29067765380736,-121.88063979148865
4f90a8dae4b0b77fb7edce63,Cookie Dough Pick Up,Dessert Shop,San Jose,95125,37.29785129718477,-121.8941178209266
4bb6a969941ad13ad9d51fe3,Naturaland Frozen Yogurt,Frozen Yogurt Shop,San Jose,95125,37.29065953628599,-121.88062305096187
4f326af319836c91c7d5d568,Dippin' Dots,Ice Cream Shop,San Jose,95125,37.290306,-121.88059399999999
5deb1063059a360009769778,Orange Sunrise,Dessert Shop,San Jose,95125,37.294882,-121.914005
58c5d945cc05d12d5ee5f72b,Tin Pot Creamery,Ice Cream Shop,San Jose,95125,37.28848051700992,-121.93313874837756
4c5dcee56147be9aca2f9309,Yogurtland,Frozen Yogurt Shop,Campbell,95008,37.290781,-121.931206
4f445fdc19836ed00193bacd,Dahls Ice Cream,Ice Cream Shop,Campbell,95008,37.295425,-121.9318
50086811e4b00abeaddfe69f,Ice Cream Vending Machine (eBay Sports),Ice Cream Shop,San Jose,95125,37.295238188582026,-121.92627518717647
56e59de6cd10a88c58506c09,PennyLane Frozen Yogurt and Candy,Frozen Yogurt Shop,Campbell,95008,37.29451313081994,-121.96243508669792
4a823618f964a520e9f81fe3,Yogurtland,Frozen Yogurt Shop,San Jose,95129,37.292845,-121.997032
5b38374c10b3030024fc8282,Scoopzilla,Ice Cream Shop,San Jose,95129,37.292593,-121.988403
598ce7e146e1b670965a70be,Scoop N Stick,Ice Cream Shop,Saratoga,95070,37.291909999999994,-121.996094
4b75ed49f964a520742f2ee3,Orange Julius,Food Court,San Jose,95129,37.29163285093264,-121.98925606683966
4e4e372cbd4101d0d7a5045d,Marble Slab Creamery,Ice Cream Shop,San Jose,95129,37.291661,-121.993683
4bbd2d83a8cf76b0378db1fd,Heavenly Scoops,Ice Cream Shop,San Jose,95129,37.292894733444975,-121.99169263243677
58cdd8681e1de55b725d514b,Cutesy Cupcakes,Cupcake Shop,San Jose,95129,37.292836,-121.992525
4f2b73a3e4b0e0a346c03e33,PINK CHOCO,Cupcake Shop,Manado,95111,37.28566319999999,-121.8277925
4fbb20d1e4b039e2d7139037,Baskin Robbins Ice Cream,Ice Cream Shop,Manado,95111,37.28566319999999,-121.8277925
4ba02b10f964a520165f37e3,Baskin-Robbins,Ice Cream Shop,San Jose,95136,37.27425313282186,-121.85065620655287
4df5769188772e1f815aa2b9,Yogurt Net,Frozen Yogurt Shop,San Jose,95118,37.27493208821701,-121.89309230359551
4abaca6df964a520f18220e3,Dairy Queen,Ice Cream Shop,Campbell,95008,37.28238916633286,-121.95008754730223
58dd67bcca10703b6229b31c,Rita's Italian Ice & Frozen Custard,Ice Cream Shop,Campbell,95008,37.28741493179759,-121.94159745310509
514e81c9e4b073c93ed654d6,Snake & Butterfly Chocolate & Ice Cream,Ice Cream Shop,Campbell,95008,37.28714822142052,-121.94691468826498
5c2fd9ea4186860039cc80f3,Kwench Creamery,Ice Cream Shop,Campbell,95008,37.287203000000005,-121.941574
4fc7d6cee4b0e89de86a4378,willlow glen creamery,Ice Cream Shop,Campbell,95008,37.28720286748978,-121.9450584801666
4c4207e1e26920a12b695fe7,Campbell Creamery,Frozen Yogurt Shop,Campbell,95008,37.287185,-121.945194
518ace75498ec42e3d85912f,YoDo Yogurt,Frozen Yogurt Shop,Campbell,95008,37.27854031671777,-121.9506659941734
4aa5dff3f964a520984920e3,Baskin-Robbins,Ice Cream Shop,Campbell,95008,37.285309486130096,-121.98041173251477
4f3de87ce4b0869411785279,the kitchen,Ice Cream Shop,Saratoga,95070,37.27806708685939,-122.00693560183984
5000b7e8e4b05e79b044afba,Manila's Kakanin,Dessert Shop,San Jose,95111,37.26011313761577,-121.80770730685465
5ca2797a75dcb7002c8bf5c7,La Nube Neveria y Cafeteria,Dessert Shop,San Jose,95111,37.26060939803704,-121.80835694074631
4bbfb9302a89ef3b3575ef88,Baskin-Robbins,Ice Cream Shop,San Jose,95136,37.267082,-121.83248700000001
5a6d0f01a35dce4fc842547e,Ice3 Creamery,Ice Cream Shop,San Jose,95118,37.261355,-121.875775
4bc267f14cdfc9b614239621,Yogurtland,Frozen Yogurt Shop,San Jose,95118,37.258102,-121.876492
54dff01d498ea1093d976415,vanitea snow lounge,Dessert Shop,San Jose,95118,37.26306556273305,-121.8795400743404
4b6233b5f964a520db3b2ae3,Yogurt Delite,Frozen Yogurt Shop,San Jose,95118,37.256874032228986,-121.87646535169407
4d6addcdd2596ea863446b20,Tutti Frutti,Frozen Yogurt Shop,San Jose,95124,37.27010017737359,-121.90593938915144
4bac34bff964a52007eb3ae3,Fosters Freeze,Burger Joint,Campbell,95008,37.269362,-121.94468
52644145498e51b5a077f52d,Yogurtland,Frozen Yogurt Shop,San Jose,95124,37.262228,-121.933272
4d1bd8a4ddc85481d385c360,Sips,Ice Cream Shop,Campbell,95008,37.2702,-121.94318999999999
4c75d40c66be6dcbf4bcc10f,Baskin-Robbins,Ice Cream Shop,Los Gatos,95032,37.26422997135296,-121.98309393733835
4bde43b50ee3a593ac9330b0,Baskin-Robbins,Ice Cream Shop,San Jose,95123,37.25067539547014,-121.80433589066193
4f3289ec19836c91c7e1a316,Haagen-Dazs,Dessert Shop,San Jose,95123,37.248727,-121.805803
54965386498e9c88a8192384,Yogurtland,Frozen Yogurt Shop,San Jose,95123,37.249805,-121.80354299999999
515cba27e4b0b53530c58d55,Sweet Rendezvous,Ice Cream Shop,San Jose,95123,37.24925922780607,-121.84577030619184
4b2afc36f964a52056b324e3,Yogurt Paradise,Frozen Yogurt Shop,San Jose,95123,37.249888,-121.832632
4a8854fbf964a520e60520e3,The Cheesecake Factory,American Restaurant,San Jose,95123,37.251315094560425,-121.86161528290913
4bb0ef72f964a520c76b3ce3,Häagen-Dazs,Ice Cream Shop,San Jose,95123,37.251817946206934,-121.86124598783522
4bb69feff562ef3bfc803097,Yoberry,Ice Cream Shop,San Jose,95123,37.251582,-121.861391
4dc8aabd45dd9aa940adb777,Roti Bun,Dessert Shop,San Jose,95123,37.2515316937079,-121.8623735914614
4d311624f8c9224b27a3a3d2,Cupcakes 4 You,Cupcake Shop,San Jose,95123,37.25321332528213,-121.87251085612706
4d6df36b24b56ea80d72f9fb,Cupcakes 4 You,Cupcake Shop,San Jose,95123,37.241820781274576,-121.85760366647213
53efacb4498eec00f04b1118,Menchie's,Frozen Yogurt Shop,San Jose,95123,37.25167037515798,-121.86289615817606
4b81c825f964a520babd30e3,Yogen Früz,Frozen Yogurt Shop,San Jose,95123,37.252131,-121.862988
4fa83c91e4b04d56423462ac,Cako,Dessert Shop,San Jose,95123,37.25242,-121.864778
58e5958aa4367c4a4510731f,Sweet Retreat,Ice Cream Shop,San Jose,95123,37.249967413341274,-121.85759080972127
4bca4331b6c49c747c309091,Dairy Queen / Orange Julius,Ice Cream Shop,San Jose,95123,37.252238,-121.86112800000001
4b9c1aadf964a520754a36e3,Baskin-Robbins,Ice Cream Shop,San Jose,95118,37.251176914106495,-121.87907201223378
4c325e5eed37a593e7c26b03,Yopop,Dessert Shop,San Jose,95118,37.251986776123054,-121.8768332452403
54eca657498e173028d9e3f3,Yogurtland,Frozen Yogurt Shop,San Jose,95118,37.25538753009871,-121.87643755906092
4bf5f201004ed13aa8bb41a0,Sweet Retreat,Dessert Shop,Los Gatos,95032,37.24276049877042,-121.932288973552
4f44edd819836ed0019788d8,Samtec,Ice Cream Shop,Los Gatos,95032,37.250234000000006,-121.96767
5a7f43205d891b6e3fe6bead,Plumed Horse Chocolaterie by Angelica,Chocolate Shop,Saratoga,95070,37.256021000000004,-122.035156
4b3cb3b9f964a5204e8625e3,Saratoga Chocolates,Dessert Shop,Saratoga,95070,37.256016,-122.035175
4f92286ce4b07cb6e2f6892f,Crazy Crepes,Ice Cream Shop,San Jose,95123,37.238178000000005,-121.83155500000001
57df7402498ee91bf02c127f,Rita's Italian Ice,Ice Cream Shop,San Jose,95123,37.236717,-121.84061399999999
4b89ec80f964a520905632e3,Baskin-Robbins,Ice Cream Shop,Los Gatos,95032,37.23996415955014,-121.96042935965342
4f32679919836c91c7d48901,Cold Stone Creamery,Ice Cream Shop,Los Gatos,95032,37.235868,-121.962475
4bb7db907421a593092dc140,Chocolate Dream Box,Dessert Shop,Los Gatos,95032,37.23480807354524,-121.96278882969436
57967570498e1e34a68f68ea,Sancha Bar,Bubble Tea Shop,Milpitas,95035,37.447359999999996,-121.90409
57c2660d498e926bc182f70d,Tea Villa,Bubble Tea Shop,Milpitas,95035,37.454712,-121.91156000000001
57c255f8498efe8f71388c38,Tea Villa,Bubble Tea Shop,Milpitas,95035,37.45474105155974,-121.91154062594906
5df2bda6bed40a000766fe75,Cha Cha,Bubble Tea Shop,Milpitas,95035,37.456103999999996,-121.911534
575f0d23498e27a0eb464323,Sharetea,Bubble Tea Shop,Palo Alto,94301,37.44533855001104,-122.16093211301565
54dfe614498eee7bd05c15f6,Gong Cha (貢茶) (Gong Cha),Bubble Tea Shop,Palo Alto,94301,37.44746406869311,-122.16086130262009
5b2ed50ad69ed0003961c74c,Teaquation & Tonic,Bubble Tea Shop,Palo Alto,94301,37.443011423069855,-122.16254659889059
54e6b15b498e1c456387db60,i-Tea,Bubble Tea Shop,Milpitas,95035,37.43326706167024,-121.89300871178537
56354191498e569169fdc41b,Teaspoon,Bubble Tea Shop,Milpitas,95035,37.428813770883906,-121.91115439128546
5bbd0b3b60255e002c25da67,Mandro Teahouse,Bubble Tea Shop,Milpitas,95035,37.426383,-121.90988600000001
5a29b1b0a879216c635287e3,Happy Lemon Premier,Bubble Tea Shop,Milpitas,95035,37.42732101208872,-121.911502603176
58081e4f38fa4c4353c2176c,B Cute,Bubble Tea Shop,Milpitas,95035,37.42685,-121.909454
557f82a0498e1e6c798145a0,Pop Tea,Bubble Tea Shop,Palo Alto,94306,37.42645876235178,-122.14608640149414
5c3518fd2b274a002c12c626,Boba Guys,Bubble Tea Shop,Palo Alto,94301,37.43847553201563,-122.1591222887795
5ad268e132b61d4c312589ac,Gong Cha,Bubble Tea Shop,Milpitas,95035,37.422378359536474,-121.91684096239841
5de420c59aabc70008d63cd8,Yi Fang Taiwan Fruit Tea,Bubble Tea Shop,Milpitas,95035,37.42393,-121.918434
57098320cd10b7535b3eca73,T4 Tea For U,Bubble Tea Shop,Milpitas,95035,37.42071582863007,-121.91678524416565
574676b4cd10bbc787e06335,Sweetheart Cafe,Bubble Tea Shop,Milpitas,95035,37.42062,-121.91961
5675c4e2498e5bd074294bb3,Aiyah T House,Bubble Tea Shop,Milpitas,95035,37.412718140037335,-121.90308158796506
5b1b1d4f1fa763002c4f9040,Tra Temptation,Bubble Tea Shop,San Jose,95132,37.399719,-121.848399
55cfaca8498e80ec9400a49e,T4 Tea for U 清茶达人,Bubble Tea Shop,San Jose,95132,37.39736987069124,-121.87364122523907
541f98ea498ead834adaa545,Jastea,Bubble Tea Shop,San Jose,95132,37.40416734764817,-121.8819891596284
576d8c58498e6907ade292f7,TEArrific Cups,Bubble Tea Shop,San Jose,95132,37.406882,-121.88655
5d0e3dd683d1db0023c4c9b8,Kokonut,Bubble Tea Shop,San Jose,95132,37.40705,-121.88727
58fbbc116dcf041091218a3c,The Pennywort,Bubble Tea Shop,San Jose,95132,37.406644,-121.88653899999998
5c561c556adbf5002c7597d2,Boba Drive,Bubble Tea Shop,Sunnyvale,94089,37.40320168394115,-122.00893145487031
550b5fcb498ed3ea203a675e,Teaspoon,Bubble Tea Shop,Los Altos,94022,37.40127748228144,-122.11439568583395
5c99597a41b6c90026b07ee1,Oh My Boba,Bubble Tea Shop,San Jose,95132,37.392014,-121.84231000000001
58f195381213844933bd7020,Tastea,Bubble Tea Shop,San Jose,95132,37.38761424530362,-121.86014569483385
576f5597498e50ff87ea1411,T-Spot,Bubble Tea Shop,San Jose,95132,37.38733882639122,-121.85831712983082
5477a325498ee690adbb95a6,Sharetea,Bubble Tea Shop,San Jose,95131,37.387544084016476,-121.88285172009459
5d827fcdf516bc0008f8b32a,Gong Cha,Bubble Tea Shop,Santa Clara,95054,37.381686,-121.97488200000001
5a4fde35b0405618ea163604,Happy Lemon Premier,Bubble Tea Shop,Sunnyvale,94085,37.38269153832758,-121.99524714688296
565a4eb9498e977751d51183,Bobo Drinks,Bubble Tea Shop,Sunnyvale,94085,37.38262189041126,-121.99522477748484
5abbfe7ef0b4906871604d14,TeaTop,Bubble Tea Shop,Santa Clara,95054,37.393313172406366,-121.97751439566505
5db1048f0b9d8800075dbd5b,Tea Link,Bubble Tea Shop,Sunnyvale,94085,37.39009,-122.04233
4a6005bbf964a520acc01fe3,Phở Tô Châu,Vietnamese Restaurant,Mountain View,94041,37.39402657499732,-122.0796492371917
442d178bf964a520d4311fe3,Tapioca Express,Bubble Tea Shop,Mountain View,94041,37.393707404136464,-122.078399656856
4a23425ef964a520c97d1fe3,Phở Hòa & Jazen Tea,Vietnamese Restaurant,Mountain View,94041,37.393600946361296,-122.07923779957859
5713e65b498edfcdc466086c,Teaspoon,Bubble Tea Shop,Mountain View,94041,37.39337571384663,-122.0793894693963
5ac00edc4f0e58608357a0d4,Happy Lemon,Bubble Tea Shop,San Jose,95133,37.369566247696646,-121.84495155836704
594d7119c0cacb24c0806122,TeaZer,Bubble Tea Shop,San Jose,95127,37.366476,-121.82838500000001
591e65c26fa81f3c8cb6bdc7,The Tea Zone Lounge,Bubble Tea Shop,San Jose,95133,37.372009999999996,-121.84603500000001
5d5238754418490008c332e5,Pekoe,Bubble Tea Shop,San Jose,95133,37.37379,-121.87218
5ada51991c675b430aec8ef9,MILQ,Bubble Tea Shop,San Jose,95133,37.365547,-121.85181200000001
5aee84b1acb00b002c084dda,Tocotoco Tea,Bubble Tea Shop,San Jose,95133,37.37273173383725,-121.87388164396431
5d95477f53157b0008436779,Tastea,Bubble Tea Shop,Sunnyvale,94087,37.366647,-122.03196499999999
4d51c0e64015b1f73e6a73cf,Ocha Tea Café & Restaurant,Bubble Tea Shop,Mountain View,94040,37.37716342750075,-122.07657456727185
55f49af0498e910f22891303,Tea Annie,Bubble Tea Shop,Mountain View,94040,37.372838584367386,-122.08768605783828
5c2e9291da5ede002c58c989,T4,Bubble Tea Shop,Los Altos,94022,37.379677,-122.11463
59963f33bfc6d00305d7abac,Sinceretea,Bubble Tea Shop,San Jose,95112,37.35284218300308,-121.89221369999636
58d1c3db7b88a741f59e1f13,Butterfly,Bubble Tea Shop,Santa Clara,95050,37.350302,-121.943853
5e85804f84643d0008b7f4f5,Toco Tea,Bubble Tea Shop,Santa Clara,95051,37.351766,-121.98245
5a063df81108ba39f458a7bc,Beastea,Bubble Tea Shop,Santa Clara,95051,37.352869491832344,-121.97716442351887
590a3531dee7707110c514ce,"Amy Lai dba ""Teaspoon""",Bubble Tea Shop,CA,95051,37.351532915757815,-121.99273467063902
5903a4246a8d8658d3ee93ca,Happy Lemon Premier,Bubble Tea Shop,Sunnyvale,94087,37.361981145806624,-122.02449127100296
5ce883e22db4a9002c6c1852,Bee & Tea,Bubble Tea Shop,Sunnyvale,94087,37.356766,-122.01735
56a3e74f498e2d6b3300a1e8,ShareTea,Bubble Tea Shop,Sunnyvale,94087,37.36239080447093,-122.02712090970724
5a235dea646e381200087fdd,Mr. Green Bubble Sunnyvale,Bubble Tea Shop,Sunnyvale,94087,37.35379297491298,-122.05124437808992
5963f134364d9774dfe2603c,BOBATEANI,Bubble Tea Shop,San Jose,95113,37.3370814,-121.88938629999998
5c09dfc4364d97002c71ef8b,Buddy Teahouse,Bubble Tea Shop,San Jose,95112,37.336224,-121.877044
5db38b3129eaee0008627051,MLKY Downtown San Jose,Bubble Tea Shop,San Jose,95113,37.336383000000005,-121.889854
5a9f59548d0a537c2fc45e0d,Tea Alley,Bubble Tea Shop,San Jose,95113,37.335145,-121.88939
5b2bfb8a22d490002cdbe10e,Happy Lemon,Bubble Tea Shop,San Jose,95110,37.34052127720551,-121.90638157435775
5ce8883f9e0d54002ca69af8,Tea Plus,Bubble Tea Shop,Santa Clara,95050,37.345043,-121.93445600000001
5dc89c2ca2ed66000a1f57b5,Woof’s Bar,Bar,Santa Clara,95050,37.344635,-121.93319299999999
5bc3b3d6249623002cd75431,OMG Tea,Bubble Tea Shop,Santa Clara,95050,37.348290999999996,-121.946004
5aff6a3667a9fe002c351126,Skinny Monkey Milk Tea,Bubble Tea Shop,Santa Clara,95050,37.344518,-121.93314
56eb4bc7498ed3acadf0cb0f,Sharetea,Bubble Tea Shop,Santa Clara,95050,37.34828961897345,-121.94601437519668
5abd899897cf5a370860190a,Los Jamaytecos,Food Truck,Sunnyvale,94087,37.33783053824028,-121.99668625338957
599f34a12aff317e342c4934,Happy Lemon Premier,Bubble Tea Shop,Cupertino,95014,37.33628213121151,-122.0151884020135
5d44fcdf68b7bc0008008cf9,Ume Tea Shop,Bubble Tea Shop,Cupertino,95014,37.336029,-122.015678
55de8c41498ed6445139f234,Verde Tea Express,Bubble Tea Shop,Cupertino,95014,37.33625924266292,-122.01521099703913
53927832498eb409d681e5fa,Tea Era,Bubble Tea Shop,Cupertino,95014,37.3372191755005,-122.04034685325901
5d9a5fe669e2f900084bdb67,RareTea,Bubble Tea Shop,Cupertino,95014,37.33675,-122.04023000000001
5c9af24c4a7aae0039e3b38f,Tisane,Bubble Tea Shop,San Jose,95148,37.330807,-121.810681
5c84267ee97dfb002cbc1207,Tea Villa,Bubble Tea Shop,San Jose,95122,37.325002000000005,-121.814727
5068cc59e4b0913fe31389e7,Jazen Tea,Bubble Tea Shop,San Jose,95122,37.32318697197422,-121.82437360699876
59a10b74135b395e9dc4a1f9,Pho 21 & Boba 21,Vietnamese Restaurant,San Jose,95122,37.31947,-121.82376000000001
5b7516f11ffe97002c086d2e,B-909,Bubble Tea Shop,San Jose,95122,37.319365999999995,-121.8237
56f8435b498e1e3f5c394ef0,Shincha Tea 新茶,Bubble Tea Shop,San Jose,95121,37.31916254505372,-121.8270102869174
54d9c21c498ef16e547ae391,PurpleKow,Bubble Tea Shop,San Jose,95122,37.32116788806551,-121.82523911551723
5a8b4a8d4c9be643d75c7113,Teazu,Bubble Tea Shop,San Jose,95122,37.332264,-121.858303
587ae20b76f2ca5827d77184,T4,Bubble Tea Shop,San Jose,95122,37.331672999999995,-121.8576
59b5f7a3fd16bb50bddd243e,Teahee,Bubble Tea Shop,San Jose,95122,37.33115220751032,-121.85721516225306
5d881e4970a68c0008abd5a0,Lucky Tea 小確茶,Bubble Tea Shop,Santa Clara,95050,37.325005,-121.94717
4a2b4518f964a520c1961fe3,Fantasia Coffee & Tea,Bubble Tea Shop,San Jose,95128,37.319544849296975,-121.94789322841969
5b52b6ccb5cb76002ca27d9c,Rabbit Rabbit Tea,Bubble Tea Shop,Santa Clara,95050,37.325510395969076,-121.946419835306
527311af11d246a166261b4a,Youji,Bubble Tea Shop,Santa Clara,95050,37.32605853155981,-121.94422737231865
5cee1d9b2db4a9002cb221a9,7 Leaves Cafe,Bubble Tea Shop,San Jose,95129,37.32165828451218,-121.97159308187886
5bc80321eaf49a002c1cdda6,Kung Fu Tea,Bubble Tea Shop,San Jose,95129,37.319760289162005,-121.97474716465766
5dd198e66a739e0007f2014f,Tan-Cha,Bubble Tea Shop,Cupertino,95014,37.325367,-122.011641
5b480aaada2e00003972dca8,Boiling Point Concept,Taiwanese Restaurant,Cupertino,95014,37.3253962265819,-122.01172520812622
5a28467d838e5955d08330b9,T4,Bubble Tea Shop,Cupertino,95014,37.32323356315812,-122.01273492829624
4f614bb5bb3db5fd2110e7b8,Quickly,Bubble Tea Shop,Cupertino,95014,37.32603086830126,-122.01497058992514
5b47ff0e67e5f2002cc73cd8,Jin Tea Shop,Bubble Tea Shop,Cupertino,95014,37.325112,-122.012587
579e94b2498e0c79687e88c3,Tea Chansii,Bubble Tea Shop,Cupertino,95014,37.324512,-122.01118500000001
56a149a4498e73762329c63b,Happy Lemon Premier,Bubble Tea Shop,Cupertino,95014,37.32231604568475,-122.03169438949207
5b1dc2f0610f04003923c8b5,Yum Tea,Bubble Tea Shop,Cupertino,95014,37.322577,-122.040598
4ac31134f964a520119b20e3,Quickly 快可立,Bubble Tea Shop,Cupertino,95014,37.3234296783945,-122.04723007766243
57a80ebf498efd4cb7444d8f,Soyful Desserts,Bubble Tea Shop,San Jose,95121,37.30898340679385,-121.81434118844956
588816c2326c5a5228940267,Happy Lemon Premier,Bubble Tea Shop,San Jose,95121,37.30904974813063,-121.8131571591753
5377d78e498e9e46d804f426,Tea Society,Bubble Tea Shop,San Jose,95121,37.30618768518975,-121.8106573252194
53e90fcd498ea32eb6b1734a,CuTea,Bubble Tea Shop,San Jose,95121,37.308926,-121.813973
534b5859498efa8f33650a14,-18 degree,Bubble Tea Shop,San Jose,95121,37.308474,-121.813791
54271e27498e58df08b2f4c6,BOBO Drinks,Bubble Tea Shop,San Jose,95121,37.308242,-121.813654
56a81c6b498eb765df041de7,TeaBella Tea House,Bubble Tea Shop,San Jose,95121,37.308386999999996,-121.813823
54cbe525498e1886f9b7c459,Simply Boba,Bubble Tea Shop,San Jose,95121,37.30951236079944,-121.81364733218176
54e806ec498e5760d3387ada,BFresh Drinks & Snacks,Bubble Tea Shop,San Jose,95121,37.30902018451696,-121.81439460222332
59659710531593755b40b257,Oooh,Bubble Tea Shop,San Jose,95121,37.309670000000004,-121.81001200000001
55e25d54498ed112b980a5aa,TFM (tea for me),Bubble Tea Shop,San Jose,95131,37.30961239342229,-121.80999325298193
596595de1fa76316a9b9a42e,Joy Boba Tea,Bubble Tea Shop,San Jose,95121,37.309663,-121.8101
58476de1266c11684667a82e,Trà,Bubble Tea Shop,San Jose,95121,37.306507,-121.81223
59ae3480acb00b097bd8f663,Urban Tea & Bakery,Bubble Tea Shop,San Jose,95121,37.316047999999995,-121.83363500000002
58562c9651d19e30532e0106,Passion T Snacks & Desserts,Bubble Tea Shop,San Jose,95112,37.310697297022756,-121.84971811548657
5b6753aa396de0002cb131b0,Urban,Bubble Tea Shop,San Jose,95122,37.31639730667725,-121.83369308710094
5d1566c667226600304a19b4,Forever Yogurt / Bee & Tee,Bubble Tea Shop,San Jose,95110,37.314708,-121.87126699999999
5bc93ced838e59002c724dcd,Sip N Bowl,Vietnamese Restaurant,San Jose,95125,37.307722999999996,-121.900783
53379dc2498e51cb09591869,The Tea Zone & Fruit Bar,Bubble Tea Shop,San Jose,95128,37.309511439917976,-121.94973757093705
55fc928b498e2e96af1307e4,Teaspoon,Bubble Tea Shop,San Jose,95129,37.31531458107806,-121.97810788008283
5b4bdee2ee71200039d527ba,TP Tea 茶湯會,Bubble Tea Shop,Cupertino,95014,37.311207678943354,-122.02367644764202
54cd4ea2498e66d2dabb07ac,TeaTop - 台灣第一味,Bubble Tea Shop,San Jose,95129,37.308719779807774,-122.01254749827116
587b36fbfad9dc1f60c13c83,Hechaa,Bubble Tea Shop,Cupertino,95014,37.31358727994021,-122.03260563749542
5bc2800c1543c7002c6e3f33,Tpumps,Bubble Tea Shop,San Jose,95129,37.312104,-122.031827
580bc6f338fab6b0e2cebc6d,Verde Tea House,Bubble Tea Shop,Cupertino,95014,37.316607,-122.03363799999998
5abc614d2c7eb9726c9ee34e,Boba Fitt,Bubble Tea Shop,San Jose,95121,37.30131,-121.82282
544c935f498e333e2f9075a3,So-Q,Bubble Tea Shop,San Jose,95111,37.299539,-121.840264
4c60b4d4832fa593817ff0d3,Qcup,Bubble Tea Shop,San Jose,95111,37.294209,-121.83397
5b3ad648c97f28002c5db415,Teaspoon campbell,Bubble Tea Shop,Campbell,95008,37.28847743969002,-121.9341432912682
5c155565829b0c002c552324,Happy Lemon,Bubble Tea Shop,San Jose,95129,37.292951816484816,-121.99697059377485
590fcbd01bc704026f154fc7,Bubble Tea Time,Bubble Tea Shop,Saratoga,95070,37.291854,-121.996104
5d3a1333ea185900071ae45e,Rainbow Tea House,Bubble Tea Shop,San Jose,95111,37.279262,-121.83463
5d51e5d0ef287d0008c4fc30,Tastea,Bubble Tea Shop,San Jose,95136,37.275271999999994,-121.85168999999999
5e17ed6ea88e0f00087a4634,Breaktime Tea,Bubble Tea Shop,Campbell,95008,37.287171,-121.946472
55a671e8498e6a6c39711818,Par Avion Tea,Bubble Tea Shop,Campbell,95008,37.287370050718,-121.93137645721434
572e3a46498e2ece23ac6a34,The Tea Zone & Fruit Bar,Bubble Tea Shop,San Jose,95118,37.261433536209324,-121.8755107503048
5cb151ba3092be002ca3a586,Jasmine Kocha,Bubble Tea Shop,San Jose,95124,37.268936,-121.906494
5abedd1d95a72228a974a4d1,T4,Bubble Tea Shop,Los Gatos,95032,37.264028,-121.98344399999999
598f4752febf317ebe85c492,Sharetea,Bubble Tea Shop,San Jose,95123,37.2510801892531,-121.80514803441321
59910728d7627e66163a1016,Katea,Bubble Tea Shop,San Jose,95123,37.248115999999996,-121.802333
5bd4a4e2e55d8b002cdf30d6,Happy Lemon,Bubble Tea Shop,San Jose,95123,37.250225,-121.84434499999999
5a469854628c837dc0641ec9,Black Pearl,Bubble Tea Shop,San Jose,95123,37.249259,-121.83192
5d5cae042dd2b4000858737f,Milk Tealab,Bubble Tea Shop,San Jose,95118,37.253426,-121.903244
5ad27da8249623753fa11ad1,T4 A Cup Of Tea,Bubble Tea Shop,Los Gatos,95032,37.242445,-121.932572
5793cb40498ea4119910db62,Pure Tea Bar,Bubble Tea Shop,San Jose,95123,37.23635705531945,-121.80414062453
4e4dd43dbd4101d0d79c2c52,Noah's Bagels,Bagel Shop,Palo Alto,94301,37.446860433532336,-122.16058771890556
4f322a9f19836c91c7bcb672,Chassy Bagels,Bagel Shop,Palo Alto,94301,37.448661,-122.15886599999999
58e25eb53f5a5c6907fa139b,Hamoon Hamishegi,Bagel Shop,Palo Alto,94301,37.445053,-122.16311
4f32759a19836c91c7d9e4aa,Daylight Solutions,Bagel Shop,Mountain View,94043,37.413768,-122.088648
501c3264e4b0944fad6d261c,Sorbeto,Bagel Shop,San Jose,95132,37.404351299999995,-121.8783156
4bb0e1d8f964a5205e663ce3,New York Bagels,Bagel Shop,Sunnyvale,94089,37.401909877454145,-121.99671336661652
4b27dfd6f964a5208c8b24e3,iBagels Bakery & Cafe,Bagel Shop,Sunnyvale,94089,37.41045956279097,-122.01483662982821
4aedd044f964a52026cf21e3,Regal Bagel Cafe,Bagel Shop,Mountain View,94043,37.40262481179271,-122.07943721392677
4a82e0ecf964a5207af91fe3,Main Street Bagel,Bagel Shop,San Jose,95131,37.38347416031253,-121.8942334248618
4ade16f3f964a5200d7321e3,Posh Bagel,Bagel Shop,Santa Clara,95054,37.395204206171144,-121.94607818409288
4a1c411df964a5202d7b1fe3,House of Bagels,Bagel Shop,Santa Clara,95054,37.39291867598381,-121.97751273696272
4a65e246f964a520afc71fe3,Bagel Street Cafe,Bagel Shop,Sunnyvale,94085,37.38899646239372,-122.02976525708428
4b33bb96f964a520051e25e3,Bagel Street Cafe,Bagel Shop,Mountain View,94040,37.390005539225925,-122.09523655776957
4b82e482f964a5206feb30e3,Bagel Street Cafe,Bagel Shop,San Jose,95110,37.36906157733414,-121.92030526451981
54de7e55498ee1b4cf9395bf,The Posh Bagel,Bagel Shop,Mountain View,94040,37.379799918407066,-122.07488763273916
4f32a60419836c91c7ec3ddd,Bagel Street Cafe,Bagel Shop,Mountain View,94040,37.372286,-122.08819
4a412cc5f964a520e2a41fe3,The Posh Bagel,Bagel Shop,Los Altos,94022,37.37838960587849,-122.1169419547242
4f3271b919836c91c7d86c24,Pamela's Eastside Cafe,Bagel Shop,San Jose,95116,37.363048,-121.852825
54171c48498ea7bb8c42a67f,Einstein Bros Bagels,Bagel Shop,San Jose,95110,37.35781,-121.91731000000001
4b1845e6f964a52006d023e3,Cramers Bagels,Bagel Shop,Santa Clara,95050,37.35231248799688,-121.93654310108215
49ff1788f964a520c86f1fe3,Main Street Bagels,Bagel Shop,Los Altos,94024,37.361199639099176,-122.09769818141531
4a294d33f964a5207c951fe3,City Bagels,Bagel Shop,San Jose,95113,37.335790533210115,-121.89122050616173
541f1987498e556bb459aa0a,Main Street Bagel,Bagel Shop,Santa Clara,95051,37.3388841669709,-121.97313322167707
49ffcf3cf964a5206e701fe3,House of Bagels,Bagel Shop,Santa Clara,95051,37.32390838319522,-121.99446541658376
4f326c0f19836c91c7d641ff,Manhattan Bagel,Bagel Shop,San Jose,95125,37.305001000000004,-121.898421
53dafb76498e08382a520e7a,Bagel Guys Bakery,Bagel Shop,San Jose,95125,37.29271463818481,-121.91305038829269
4fe0960ae4b059d64f8f58a9,Lupton Ave,Bagel Shop,San Jose,95125,37.30077362060547,-121.90213012695312
4b40ced5f964a52064bb25e3,House of Bagels,Bagel Shop,Campbell,95008,37.29393870233166,-121.93119557848229
5d6d37cd51bb4000085d476c,House Of Bagels,Bagel Shop,San Jose,95129,37.292684,-121.99606399999999
4f32937d19836c91c7e5445a,Main Street Bagels,Bagel Shop,San Jose,95129,37.292353999999996,-121.99641000000001
5b33bf3d25ecca002c5d7629,The Bagel Bar,Bagel Shop,Campbell,95008,37.287490000000005,-121.94056699999999
4b1035c4f964a520676b23e3,Saratoga Bagels,Bagel Shop,Saratoga,95070,37.28210712407088,-122.03198921304431
4b53613bf964a520ae9927e3,House of Bagels,Bagel Shop,San Jose,95118,37.250468056235455,-121.87910441417282
5016b103e4b0befd144361a7,RSG Coffee Clutch,Café,Milpitas,95035,37.443748474121094,-121.91950988769531
536cd95e498e613f0b534713,JM Coffee,Café,Palo Alto,94301,37.44188,-122.14301999999999
5d01b7e8d552c7002ce1fde0,Verve Coffee,Café,Palo Alto,94301,37.4442062,-122.1630555
4b649e2df964a520a1c22ae3,Sliderbar,Burger Joint,Palo Alto,94301,37.4463039226453,-122.16115993701773
5a723ef4491be7059ea572ab,Red Brick Cafe,Café,Palo Alto,94301,37.445221999999994,-122.162428
50b901127e27b43ab4976d01,Nestlé Toll House Café by Chip,Café,Palo Alto,94304,37.443255,-122.17270500000001
500eeafb6de406feaec69a75,7-Eleven,Convenience Store,Milpitas,95035,37.434120483228796,-121.884223893284
4c1442f577cea593976bd060,7-Eleven,Convenience Store,Milpitas,95035,37.436253463079,-121.910101175308
4d64205a4e1ea1cd4d1441b9,Cisco - Milpa Café,Cafeteria,Milpitas,95035,37.42947046083892,-121.92579260626007
52965882498ea4822a01136c,Le Reve Patisserie et Cafe,Café,Milpitas,95035,37.426628,-121.908984
4c9e1eeb8afca0937f65fd15,Red Hut Cafe,Café,South Lake Tahoe,95035,37.434469,-121.920677
57f94ea2498e97194cb1818b,Sea Link Cafe,Café,Milpitas,95035,37.427921000000005,-121.90635900000001
4e4ce342bd413c4cc66cf93c,Cafe Taiwan,Café,Milpitas,95035,37.428418,-121.911401
4aca42d3f964a5201ac120e3,Shoreline Lake American Bistro,American Restaurant,Mountain View,94043,37.4327226214024,-122.08821192906322
4aaaa5b0f964a520c85620e3,Plaza Deli Cafe,Deli / Bodega,Mountain View,94043,37.42972385445906,-122.09993520676736
4c5080b6d797e21edba68e7a,Intuit Cafe 1,Café,Mountain View,94043,37.426855733939064,-122.09645702751959
4a2023f8f964a5204e7c1fe3,Joanie's Cafe,Café,Palo Alto,94306,37.426448553810985,-122.14455954333219
4aa83464f964a520095020e3,Palo Alto Cafe,Café,Palo Alto,94306,37.4339059736714,-122.12958309601231
4a3ffce9f964a5202aa41fe3,Caffe Riace,Italian Restaurant,Palo Alto,94306,37.42649725847448,-122.14069283369885
4a92d4eaf964a520d61d20e3,Arbuckle Café,College Cafeteria,Stanford,94305,37.4282862859053,-122.16270672725115
4a3fdad2f964a52001a41fe3,Bytes Café,Café,Stanford,94305,37.429347556813305,-122.17329231883171
4b44d819f964a520eefd25e3,Market Square Cafe,Cafeteria,Stanford,94305,37.434207802227405,-122.17519120942684
4ab7cbfcf964a520d27a20e3,Olives@Bldg. 160,Café,Stanford,94305,37.42826568341626,-122.16893924674062
4bbb509e7421a59357a8c440,Garden Cafe,Café,Stanford,94305,37.43889230635567,-122.17085484680136
4c10f5c2f1b6a59318ab7c27,Patio Cafe at Sheraton Palo Alto,Café,Palo Alto,94301,37.441555,-122.163404
4e21d18e81dc35f05c53b489,Beckman Bistro,Burrito Place,Stanford,94305,37.43172828181015,-122.17627553375549
4f982beee4b0cfeb474342b5,Cooper Café,Café,Stanford,94305,37.429390999999995,-122.17764299999999
4bc5fa82db8fa5930e889b37,Salute Cafe,Café,Palo Alto,94304,37.435739207990615,-122.17611553843484
4e387f68636562df57c4b58f,The Cafe at LKSC,Café,Stanford,94305,37.4318219425563,-122.17569738542929
4ed81e0229c2b91225aa9623,Cappuccino Room,Café,Palo Alto,94304,37.433204145944536,-122.17561664300919
4ec82234f79041351d8a18d7,NM Cafe,Café,Palo Alto,94304,37.441357079309135,-122.17278466051786
50b901127e27b43ab4976d07,Nestlé Toll House Café by Chip,Café,Palo Alto,94301,37.43949832248314,-122.15799860702779
4e9b591c2c5b4d6405b9f637,Forbes Family Cafe,Café,Stanford,94305,37.428224155142885,-122.17415798927534
4ab3e7abf964a5200d6f20e3,Cool Café,College Cafeteria,Stanford,94305,37.43255782618683,-122.17116304717464
57335932498e879cb602ef2f,Café Vie,Café,Palo Alto,94304,37.435887,-122.17623700000001
4fd0f741e4b0d62a04b2f9e2,PAMF Cafeteria,Café,Palo Alto,94301,37.440034000000004,-122.16151
4cc214fb42d1b60c031c0e13,The Terrace,Café,Stanford,94305,37.4281226677905,-122.1739370113853
4c2d5222e760c9b6c2ca4449,Quickly 快可立,Café,Milpitas,95035,37.417671066207255,-121.8744930012757
51b5864d8bbd4dae95e73fa6,MSTA - Cafe Aqua,Café,Milpitas,95035,37.417738145883064,-121.87290227920008
52fe625a498edde715bf5bbb,HS Coffee & Juice,Café,San Jose,95132,37.413261,-121.875689
54481ec5498eedab89ef57ba,Social Roast,Café,Milpitas,95035,37.41356635568924,-121.91918484715599
4b045896f964a5207b5322e3,Cisco - Paradise Café,Cafeteria,Milpitas,95035,37.41716090130159,-121.91770160276516
4ad782edf964a520a10b21e3,Cisco - Serenity Café,Cafeteria,Milpitas,95035,37.41597229835855,-121.91897433770994
4e4ce34dbd413c4cc66cf99b,Family Delight Cafe,Café,Milpitas,95035,37.42129350130296,-121.91767413567429
529cd5cb11d21744af602e0f,Artisan Cafe,Café,San Jose,95134,37.411691,-121.932317
5251b88a11d257ce231e185d,Cloud Dine,Café,Santa Clara,95054,37.411864,-121.976539
50c0f717e4b013cc74a3d5f3,Outtakes Bistro,Café,San Jose,95134,37.422117467556156,-121.9626110960403
4d923585270e6ea8d78d64ff,Cisco - Bridges Café,Cafeteria,San Jose,95134,37.41150824096353,-121.95383811738238
4c72c8ba7121a1cdf77263d1,Cafe Bladerunner,Café,San Jose,95134,37.41841846118781,-121.95237426267175
4c6ad7339669e21e689ba951,Cafe Broccato,Café,San Jose,95134,37.418022638014094,-121.9531410284443
4fb93689e4b003f233ba8d8b,Polycom HQ creATE Cafe,Café,Sunnyvale,94089,37.41758944418576,-121.97895054534807
4cc879c2b3f5224ba03aef20,TLC Cafe,Café,Sunnyvale,94089,37.41492,-122.01835
4b61fe3af964a5206d2f2ae3,NetApp Java 7 Cafe,Cafeteria,Sunnyvale,94089,37.413318763662346,-122.0105405972805
4fa197c1e4b0da4fd9e805c6,Yahoo! Building D 5th Floor Break Room,Café,Sunnyvale,94089,37.413685563591464,-122.02659322548138
4bd1f3fa77b29c7428a68d82,Surfs Cafe - Building E,Café,Sunnyvale,94089,37.417720172323044,-122.0254898071289
4ad63bb1f964a520e80521e3,Surf's Café at Yahoo!,Corporate Cafeteria,Sunnyvale,94089,37.415458540740964,-122.02542434388936
4b60b28cf964a52098f429e3,Smiley's Cafe at Yahoo! Building F,Café,Sunnyvale,94089,37.4153137629749,-122.02438777972357
4a9ab929f964a520553220e3,Bajis Cafe,Diner,Mountain View,94043,37.414590291189704,-122.09810554941588
4e5fdd1dfa7631dc40990d48,Cloud Café,Café,Mountain View,94043,37.41448591726391,-122.07760544274319
4f4d91ade4b0774b56940330,Noname Cafe,Café,Mountain View,94043,37.41914714134799,-122.08050163212842
5936a5d80457b7533f93003d,Caffè Machiavello,Café,Palo Alto,94306,37.42634,-122.13888500000002
4e860fdfb803eed4242419cd,HP Pavilion Café,Cafeteria,Palo Alto,94304,37.41216382674949,-122.14862659658726
4f4e71e9e4b03af961ecf27e,The Water Cooler,Café,Palo Alto,94306,37.41580772436431,-122.14951564158426
4c6aea7d6d390f47ad8e099a,HP Courtyard Cafe,Cafeteria,Palo Alto,94304,37.41459595271742,-122.14674253647124
52050549498e63533bcea0bd,CPI cafeteria,Café,Palo Alto,94304,37.418354,-122.138272
4beb49ce61aca5939eea8400,Fuel,Café,Palo Alto,94306,37.42201008909668,-122.13844450566671
4f9210f7e4b0ead198663cf2,Feeding Bowie,Café,Palo Alto,94306,37.42145574516089,-122.12862141264195
5e62e796fc50480008204909,"Specialty’s Cafe & Bakery, El Camino Real, Palo Alto, Ca",Café,Palo Alto,94306,37.420763,-122.141423
4a81cb50f964a5209af71fe3,CoHo,Café,Stanford,94305,37.42418307739803,-122.17089501004749
4bb4e979310276b02185cf90,Ciao!,Café,Stanford,94305,37.425297486416696,-122.17382060030012
4ff7cd63e4b0956dd559d9d9,Hotspot Cafe,Café,San Jose,95132,37.40469480354557,-121.84977565246693
525f395a498e527d53e92bb1,Eilasor Business Center & Coffee Cart,Café,Milpitas,95035,37.400361,-121.914625
57a4aeed498ef025758bbd54,Honeyberry,Café,San Jose,95134,37.40912512091575,-121.94539720966364
4ec67ab98b81dcfdc236d96f,Samsung 2nd Floor Break Room,Café,San Jose,95134,37.40899330614571,-121.94663055349292
5260324a11d25306695a7885,Mikayla's Cafe,Breakfast Spot,Santa Clara,95054,37.40817959753522,-121.9633917632255
4bbb824ee4529521d2c754a4,Eat @ Tasman,Cafeteria,San Jose,95134,37.408373178410045,-121.95376213515543
4f0ca225e4b0b63c75578d9f,Cafe at Great America Towers,Café,Santa Clara,95054,37.398584955046296,-121.97675112962251
50771e18e4b0c314983ba8bb,Citrix Cafeteria,Café,Santa Clara,95054,37.402217375486345,-121.97805927711646
4eb8488ae30006eb1353af60,Café FileMaker,Café,Santa Clara,95054,37.406665757885364,-121.98310410916895
523094e911d2c5292da0217c,Peter's Cafe @ Coherent,Cafeteria,Santa Clara,95054,37.404747,-121.985237
5075ba5fe4b003c1c7903a5f,Coffee,Café,Sunnyvale,94089,37.40376,-122.009256
5ae8bc8989ad4600245d797d,Coffee Bar,Café,Sunnyvale,94089,37.40637958354092,-122.02217696985828
5b046c5b95d986002cc44d8c,Coffee Lab @ Svl,Café,Sunnyvale,94089,37.40980670686702,-122.02595929145134
5050ba47e4b032bac700c951,Juniper Networks Building 2 Cafeteria,Café,Sunnyvale,94089,37.408679075985745,-122.02589935668678
5bea1015cbcdee002c68042b,TC4 - Barista Bar,Café,Sunnyvale,94089,37.403518,-122.03325500000001
4fb70413e4b0c776a681ba51,Asteria Grill,Greek Restaurant,Sunnyvale,94089,37.40177746850826,-122.02741519700014
51ca3922498e5830f819f5ca,Moffet Towers Gigabite Café,Café,Sunnyvale,94089,37.41025113440687,-122.0363495622305
56e08ba4498eefb5e4b60174,Orchard Cafe,Café,Sunnyvale,94089,37.403636999999996,-122.03602
574f071acd10403601aaf920,VCafe,Café,Mountain View,94043,37.39588327203651,-122.0530856979152
5b2fd61c5f68b9002c180c27,Bayshore Cafe,Café,Mountain View,94043,37.410282,-122.07623999999998
4f7214c2e4b03bf2b06d6c93,Wellness SYMplified,Café,Mountain View,94043,37.39689177582709,-122.0537616525674
4bc56c516c26b7138652ebf3,7-Eleven,Convenience Store,Mountain View,94040,37.3964733,-122.10084499999999
4bd8ac6411dcc9282648f733,The Hub,Café,Mountain View,94040,37.39701309712859,-122.09272358682159
4f0f322ee4b09cff0193a97e,Cafe Roma,Café,Mountain View,94043,37.409138,-122.078692
4b5b24b8f964a5203ae628e3,Sweet Shop,Candy Store,Los Altos,94022,37.40005020448609,-122.12186816894449
4e4cdbabbd413c4cc66cba46,Second Cup Cafe,Café,Los Altos,94022,37.399956,-122.114174
4f46a545e4b0e4755ad28c8c,Tibco Coffee Counter,Café,Palo Alto,94306,37.40772175419304,-122.14602246162987
4c377d9d0a71c9b69af23ec9,PARC Cafeteria,Cafeteria,Palo Alto,94304,37.40267089389568,-122.14769698424729
4fa2e0c6e4b0ff8e8079635a,bistro@3160,Café,Palo Alto,94304,37.406424825263635,-122.1522578761743
4bbf6889006dc9b6648afc3f,Eve's Espresso,Café,Palo Alto,94304,37.4038805,-122.14750701666668
576842f2498ee525ee4c5970,VMware Creekside D Allee Cafe,Café,Palo Alto,94304,37.39796152940541,-122.13905883163991
4e4d65d6d22dd0087daf123e,Good Earth Cafe,Deli / Bodega,Palo Alto,94304,37.406888,-122.153906
4e34417362e17d290826d912,Rise And Grind,Café,San Jose,95132,37.391995,-121.842255
5a4d34480336937b66fe4ce2,VillaCafe,Café,San Jose,95132,37.386612,-121.863024
5aea1a229ba3e5002cad8e28,Joyheart Cafe,Café,San Jose,95131,37.387584999999994,-121.89986299999998
5c8435e886bc490039f57d7d,Cocobar,Café,San Jose,95131,37.387145000000004,-121.88525
51f1466f498ebbf24c78b953,Parallel Plates Cafe,Café,San Jose,95131,37.390900758623225,-121.89187992166715
58d58e1eda54ae0db6bd4e2b,HOTNCOLD,Business Service,San Jose,95131,37.393396,-121.894589
503663aae4b00797611c0a3a,WiFi Cafe,Café,San Jose,95134,37.39497758417407,-121.92068013505845
4bcdfd93f181952139395404,Beryl's Place,Café,San Jose,95134,37.395026,-121.927947
4c0facd175f99c74e6b2ecc4,Lily Coffee & Sandwiches,Café,Santa Clara,95054,37.38047689175535,-121.94085946999284
4b71a550f964a52056532de3,Intel Corp SC12 Building,Office,Santa Clara,95054,37.385774670199105,-121.96664335746878
4f82fd88e4b0a458bc6b18c4,County Inn Cafe,Café,Santa Clara,95054,37.386201299999996,-121.9754274
578d24ee498e9c00101e1d46,Oracle Cloud Café,Café,Santa Clara,95054,37.393914,-121.95503000000001
52d44fe8498e0793f228b356,The Pantry,Café,Santa Clara,95054,37.39349099264217,-121.9762346561738
52c59d2b498eccce229b398e,Birk's Express,Café,Santa Clara,95054,37.38557740757478,-121.97236935823892
4f78b368e4b08e5a68dc0c3e,Lakeside Cafe,Café,Mountain View,95054,37.38486282029942,-121.97268036426573
4c6050b8832fa593cc5cefd3,Silly's,Café,Santa Clara,95054,37.394968,-121.97216499999999
50411a5ae4b00a580404f4b0,Freedom Cafe,Café,Santa Clara,95054,37.38837933097233,-121.97172723003875
508b18a2e4b0772b581f92bc,Intel Santa Clara - SC12 Cafe,Café,Santa Clara,95054,37.384352,-121.967191
5919de0a8a6f17705dc4c3a1,Commons West Cafe,Café,Santa Clara,95054,37.383612,-121.973677
4fe35068e4b0c9b7f56fd280,Tower Cafe @ Cisco,Café,Santa Clara,95054,37.387856635350595,-121.9739854692197
4bafd699f964a520e4243ce3,The Four Cornerstone Cafe - Great America,Café,Santa Clara,95054,37.395247429704426,-121.97309363314785
5da7ebba43598d00071b1747,Mission Towers Cafe,Café,Santa Clara,95054,37.387882,-121.96343
4b573ad8f964a520302c28e3,De La Cruz Deli,Café,Santa Clara,95054,37.388251302984685,-121.97165848400653
4b97bc83f964a520971235e3,Residence Inn Dining Room,Café,Sunnyvale,94085,37.38777222730039,-121.98786304903416
504e916de4b0e80141dbf5b9,Residence Inn Dining Room,Café,Sunnyvale,94085,37.385521863979456,-121.99759540068187
5063d9bce4b0db7f4110539c,Ardie's Kitchen,Café,Sunnyvale,94089,37.393141708349845,-121.99614766408199
57901e9b498e81f1dd964c25,Fry's Electronics Café,Café,Sunnyvale,94085,37.382458,-122.00165
4dc430f0d22dafda2f84ea1a,WM Cafe,Café,Santa Clara,95054,37.39199995994568,-121.98223114013672
4d8b76331508a1430dfc3b1e,KJ's Café,Café,Santa Clara,95054,37.39126955659064,-121.98201193557722
4f9af62be4b0176464ea593e,5th floor pantry,Café,Santa Clara,95054,37.38587551212003,-121.97683998502414
5481d40d498e0381ba017c99,Cafe Genius,Café,Sunnyvale,94085,37.38215823766204,-122.00348224511643
503ebd4de4b0ef66b40e196a,PnP 3F Kitchen,Café,Sunnyvale,94085,37.383742592772386,-122.01294817943209
4f0dc748e4b0129c7357f559,Synopsys Café - Bldg 8,Café,Sunnyvale,94085,37.39172784627285,-122.04771191424427
50f5f4a4e4b023f5b34df844,Good Technology Coffee Machine,Café,Sunnyvale,94085,37.389977,-122.038744
4f96fe37e4b0efeae8e775a1,Synopsys Cafe - Bldg B,Café,Sunnyvale,94085,37.39168755454479,-122.0477917817681
4edfdc7e0e612072eaf6c5f0,Kaiser - Net Cafe,Café,Mountain View,94040,37.38939373811429,-122.08151979568991
4f53c962e4b063296e7d9514,Big Basin Café,Café,Los Altos,94022,37.3916205480802,-122.16476786656617
5c511fe4f709c1002c2d1795,7Leaves Cafe,Café,San Jose,95131,37.37488902265979,-121.87266640028939
4f9c6630e4b0873b677ce59b,Corner Cafe,Café,San Jose,95131,37.374463,-121.872497
4e868b78e5fa57991e668fa9,"CoCo Coffee, Milk Teas & Snacks",Snack Place,San Jose,95133,37.37508400582815,-121.87356984951178
4bccb281cc8cd13af768c1cf,Camille's Sidewalk Cafe,Café,San Jose,95110,37.36533621491122,-121.91585767544932
4d77d72b2b4b6ea882e447fe,Gateway Cafe,Café,San Jose,95110,37.370575,-121.924171
4c55261e1b46c9b6878bb8cf,Shuffles Deli,Café,San Jose,95112,37.371753851295225,-121.91342892478106
5488aa10498e7972157627d2,san jose gateway cafe,Café,San Jose,95110,37.37116605865099,-121.92426944646284
4b4f3d24f964a52062fe26e3,Amalfi's Grill,Café,San Jose,95112,37.369976406345614,-121.91463897466959
4ecaa01361af9e1433698a90,Frys Cafe 96,Café,San Jose,95112,37.379562856195356,-121.90653844392686
4cfbebbb084f5481679b8309,Camille's Sidewalk Cafe,Café,San Jose,95112,37.36702686666667,-121.913771
502192f5e4b02e5be088df0f,Cafe Lotus,Café,San Jose,95110,37.37117129415753,-121.91917436743047
4b159288f964a52011af23e3,Cafe Sun,Café,San Jose,95112,37.36819827946288,-121.91331163630049
4dadbc278154b108fec51482,Hi Cafe,Café,Santa Clara,95050,37.37279297868446,-121.946847197877
59c95d4647f8762d3d225bec,Endeavor Café,Café,Santa Clara,95051,37.37065907238966,-121.96761918684277
4f6a267fe4b07540b81b98ba,Dwight's Speed Of Light Cafe,Restaurant,Santa Clara,95051,37.372353078741995,-121.96689111211548
4d76918788235481cc546c8c,Café Touché,Café,Santa Clara,95054,37.377139,-121.963416
50eb34f5e4b062020cdf82d6,Hi-cafe,Café,Santa Clara,95050,37.373271,-121.95810700000001
4f6ca176e4b0e3b3bc28c4b4,HD Cafe - SIMG Cafeteria,Café,Sunnyvale,94085,37.378904822480415,-121.99928477070688
4bc4d2d1f8219c7404f2b710,Texas Instruments Park Place Cafe,Café,Santa Clara,95051,37.37540499490965,-122.0013557669853
50082f25e4b0b976340bd5a6,Cafeteria,Café,Santa Clara,95054,37.37868862508254,-121.97953893350471
5bbf8a74deb4950025c51fa6,Wolfe 1 Espresso Bar,Café,Sunnyvale,94085,37.380092,-122.010957
50ac06ece4b0ecba4108c973,Boudin SF,American Restaurant,Sunnyvale,94087,37.367391,-122.032715
4e6f8d9d814d185a4c84c256,Imagine Cafe @ Nokia,Café,Sunnyvale,94086,37.37608362537856,-122.03424596205194
5b460ec87564f7002c38f79b,Bistro,Café,Sunnyvale,94087,37.36934,-122.039409
4e86229be5e8a8835dc35141,Nokia Sunnyvale Cafe,Café,Sunnyvale,94086,37.37612628386976,-122.03424268195818
560eb0ac498ef0204a94c94a,Palo Alto Medical Foundation Pete's Coffee kiosk,Café,My View,94040,37.37649917602539,-122.06501007080078
50c24775e4b00ce4a393f4d7,Palo Alto Medical Foundation Guckenheimer Cafe,Café,Mountain View,94040,37.376448510239186,-122.06513155264365
5050b5a9e4b0b8484d182698,Peet's Coffee & Tea (Palo Alto Medical Foundation),Café,Mountain View,94040,37.37642699115078,-122.06416100757
4d7a997292baa1432c1257eb,Java Junction- ECH 1st Floor,Café,Mountain View,94040,37.367901351942045,-122.0800630726968
4eea1b0193ad7b2e9e652ad9,Code Brew,Café,Mountain View,94040,37.36974790915593,-122.0823097229004
529e9f5611d260debb7afc10,XO Cafe & Tea,Café,San Jose,95116,37.36123275756836,-121.83626556396484
4d3cc473d2c8f04da0a26472,Xiu Cafe,Café,San Jose,95127,37.363713,-121.831599
4daa5a138154abafc2abea3f,Café do Canto,Café,San Jose,95116,37.351423,-121.85927
4d8a3221f607a0932c3dfa86,El Patio Restaurante/Cafe,Café,San Jose,95116,37.35183559223304,-121.85798579028335
4e46c92db61c03d0cd10cd87,@ Your Convenience,Café,San Jose,95112,37.351004075,-121.89377725124359
50040199e4b05e79b1b7db21,Cafeteria Pav8,Café,San Jose,95133,37.35869756993678,-121.8757983265708
4f552450e4b0ac8e53550c42,Jane's Cafe,Café,San Jose,95110,37.349522,-121.906148
4dade8450437710b8127ab17,Garden Court Cafe,Café,San Jose,95110,37.352179,-121.904104
4a0989b7f964a52039741fe3,De La Cruz Cafe,Café,Santa Clara,95050,37.363805,-121.940946
4c6ed969d7fab1f7c99659c9,Yum Yum Tree Cafe,Café,Santa Clara,95050,37.351159,-121.941399
4e4dcc6abd41b76bef934950,Karma Cafe,Café,Santa Clara,95050,37.353768,-121.949956
50819389e4b0ca3a2a27cb7f,City Cafeteria,Café,Santa Clara,95050,37.35380885040888,-121.9533574400337
4fefb254e4b0a5b7b415f62b,Cafe a la Todd,Café,Santa Clara,95050,37.360717529728326,-121.95659575293152
4fefb151e4b0621c85866daa,Cafe a la Tidwell,Café,Santa Clara,95050,37.360443115234375,-121.95714569091795
4bba6b03935e95215d212890,Jin's Bakery & Coffee,Café,Santa Clara,95051,37.352035646054226,-121.98182892480163
52a37099498e0f7c8de29e50,Cocohodo,Café,Sunnyvale,94087,37.35164534305943,-122.00236446178472
4d8c290f5ca68cfa3c331b9d,Bytes Cafe & Bar,American Restaurant,Sunnyvale,94087,37.35273675351848,-122.0019688533004
4c69a856897b1b8dc5ccaf17,Cafe Vitale,Pizza Place,Los Altos,94024,37.35302831581724,-122.0874597006826
50ec5ba5e4b00e1df3a9f851,KJ's @ New PSEC,Café,Los Altos Hills,94022,37.36167717211185,-122.13161169971413
4cf569a82f0159411e8b58a2,KJ's Cafe,Café,Los Altos Hills,94022,37.36141976841301,-122.12814448013559
50fa5e9de4b0b8501a9a389f,lucky chances,Café,San Jose,95122,37.34396362304688,-121.82707214355469
4c6454edd6a320a1efcfcf2a,Cafe Da Thao,Café,San Jose,95122,37.33565701058364,-121.85647508775381
520bb74f498ecbff764ed539,Whispers Café & Crêperie,Café,San Jose,95113,37.333842884031256,-121.8868403656582
5c26fa5a7a0eff00254f56f0,7-Eleven,Convenience Store,San Jose,95113,37.33566936679548,-121.88691417483028
4b7f55e3f964a5204b2830e3,7-Eleven,Convenience Store,San Jose,95112,37.340575799999996,-121.8804251
4dfb746718a8fc7fb43ffaf8,Grounded,Café,San Jose,95112,37.336777380444005,-121.87895521395396
4b57e047f964a520c14428e3,7-Eleven,Convenience Store,San Jose,95112,37.3368598,-121.87652859999999
5dbdeb65363a350007c28b24,Gente Cafe,Café,San Jose,95113,37.337128,-121.889967
4f2997dbe4b0be34a35ff213,Moscoffee,Café,San Jose,95110,37.34110103900717,-121.89529047639395
4b6dacaff964a52043852ce3,University Cafe,Café,San Jose,95112,37.33621305279401,-121.87735471226955
4d23890dcc84721e2d3a61f6,Cafe Rosalena,Café,San Jose,95110,37.334771683531564,-121.89502926985588
518c004a498e2f46fad0aad5,Chef Mo's Cafe,Café,San Jose,95112,37.340478000000004,-121.89270800000001
4cd9b0a8145fa1cd5af10cbd,Village Market,Café,San Jose,95112,37.33488968063556,-121.87754162438692
574bcd67498edddeb9f579be,Town Cafe,Café,San Jose,95113,37.339486,-121.884173
59704e12b1538e495844ad82,7-Eleven,Convenience Store,San Jose,95110,37.346301600000004,-121.91449850000001
4c8837ddbbec6dcb9565d258,La Crema,Café,San Jose,95126,37.337841,-121.920225
49e65838f964a5203b641fe3,Bill's Cafe,Breakfast Spot,San Jose,95126,37.34325779523717,-121.92845590255705
4debdb6918386283a40a19ac,Annie's Vietnamese Sandwiches,Sandwich Place,Santa Clara,95050,37.34565418524407,-121.937457713256
4b491002f964a5203c6426e3,7-Eleven,Convenience Store,Santa Clara,95051,37.3458905,-121.9944043
4e4eb8e67d8bd425e48571b7,Kaiser Cafeteria,Café,Santa Clara,95051,37.33544949039963,-121.99964377096279
4ec28aba6c25dfd982deab23,Kaiser Permanente Courtyard Cafe,Café,Santa Clara,95051,37.335510800011114,-121.99980238910757
4b75cdecf964a520fc252ee3,Kaiser Orchard Cafe,Café,Santa Clara,95051,37.336104650384634,-121.99852965238267
5b9febc4123a19002c331c0f,E2 Espresso Bar,Café,Cupertino,95014,37.334803,-122.00681399999999
4ac86eb9f964a52030bc20e3,Quickly 快可立,Café,Cupertino,95014,37.3357753374485,-122.01560328027443
4ba7cfc2f964a5206db539e3,Caffè Macs - HS1,Café,Cupertino,95014,37.33729063381853,-122.00359883930113
5065fe6de4b0a396baffdfa1,Courtyard Cafe,Café,Sunnyvale,94087,37.34043187008165,-122.01425280399569
4da246f87aee54813a37d3fe,Cafeshka,Café,Cupertino,95014,37.33517626924468,-122.03144559908306
4d5728b3e7f1a1cd8a3510a5,Quickly 快可立,Café,Cupertino,95014,37.33719486327007,-122.04036442488392
5c9545b1054e29002ce128eb,Luv 2 Play,Indoor Play Area,San Jose,95122,37.325109999999995,-121.8132
4c9fc3d154c8a1cd74099a4b,Lollicup Eastridge,Café,San Jose,95136,37.324975,-121.813799
4c329e7ca0ced13a337f156e,Lang Thang Cafe,Café,San Jose,95122,37.320625156046674,-121.82669981345421
4c2a9e28ae6820a1fea71643,Em Quyen Cafe,Café,San Jose,95122,37.32062317378072,-121.82669291496741
5872c2e93ef0f664118f4a71,T4 Tea For U,Café,San Jose,95122,37.332073526803335,-121.85787269249269
521141aa93cde6983d2637a2,TapiocaExpress,Café,San Jose,95122,37.331564683119886,-121.85772836208344
503abdf0e4b0014516c49020,Moi & Toi Cafe,Café,San Jose,95122,37.329688,-121.85906000000001
50e5cb2de4b0e1d2af368cca,thuy em cafe,Café,San Jose,95122,37.331418,-121.854019
5007349ce4b080f3fd79ea6c,Nước Mia Viên Dong 2,Café,San Jose,95122,37.331105322189046,-121.85693180951834
4ac11680f964a520c29520e3,Fantasy Cafe,Café,San Jose,95122,37.33373754325615,-121.85371238767858
4e4d5f1122711b81ba73182e,Picnic Basket,American Restaurant,San Jose,95112,37.325679678580435,-121.86280947562507
4bd919352e6f0f476ec90908,7-Eleven,Convenience Store,San Jose,95112,37.3326449032907,-121.88010871410299
5040dd38e4b03be3a5f9011e,I Java Cafe,Café,San Jose,95126,37.32603203070812,-121.89479904562216
4afa33d4f964a5204d1722e3,Corner Market Kitchen,Café,San Jose,95110,37.33044602814018,-121.88822724494484
57bb5ad2498eae07d0bf3e40,Templates,Corporate Cafeteria,San Jose,95110,37.33043149521245,-121.89456527942852
512ab7f619a9da9433ee0fd3,Cafe Stritch,Bar,San Jose,95113,37.33049804853683,-121.8862595176372
4f05c595f9ab6dd03437d94d,Grace Deli & Cafe,Café,San Jose,95110,37.32903666897288,-121.89114399717184
4d2880998292236a02e219bb,Checkers Cafe at Fairmont San Jose,Café,San Jose,95113,37.33316,-121.889599
4df94df3ae60f95f82234ec9,Bijorn Cafe,Café,San Jose,95112,37.33261224,-121.88881731
56a7e438498e91fadf2c03c8,Palettes,Corporate Cafeteria,San Jose,95110,37.33140654295268,-121.89362558528282
55e0b928498e88af3d5d70a3,Layers,Café,San Jose,95110,37.331166072090134,-121.89292427798736
4db9b7726a2334682daeaee1,PJ's Cafe,Café,San Jose,95110,37.328747,-121.891661
4af33045f964a5208feb21e3,Cafe Too!,Café,San Jose,95113,37.33346974913338,-121.89035523565474
5050ac8fe4b007a16608b8c3,Cafe One,Café,San Jose,95113,37.33345,-121.895268
4b7c437bf964a5203c882fe3,Cj's Cafe & Catering,Café,San Jose,95113,37.328811,-121.891226
56fa4390498e3c0e8fb4e299,Alice Catering,Café,San Jose,95112,37.330182661122436,-121.88124060630798
4d9b6d8ee086a35d642ed1ad,FoodShed,Café,San Jose,95110,37.32678141731738,-121.89174405634
512a6a32e4b03158c15f1298,cafe stritch,Café,San Jose,95113,37.33073696240968,-121.8861812282723
4e6265768877954de82db9c2,La Lune Sucrée,Café,San Jose,95112,37.33375012110785,-121.88514775280454
4c01a2941b2eb7135a659992,Fanimaid Cafe,Café,San Jose,95113,37.32939550093667,-121.88848778980282
4b4cec81f964a52062c426e3,New Laurel's Delights,Café,San Jose,95113,37.333562,-121.895996
4f1f2e1ae4b00491a5a8728c,The Well Lit Lunch Table,Café,San Jose,95110,37.32516364355687,-121.88822656717927
5cf81eeb2a7ab6002c852dbc,The Butcher Shop,Café,San Jose,95126,37.326327,-121.90781299999999
4a7483f6f964a52062de1fe3,Bill's Cafe,Café,San Jose,95128,37.32836503482674,-121.9318961174012
50b901117e27b43ab4976ce0,Nestlé Toll House Café by Chip,Café,Santa Clara,95050,37.32557379424393,-121.94826370832213
4b24158df964a520b46024e3,Belgian Chocolate Cafe,Café,Santa Clara,95050,37.32543188141439,-121.9453806737054
4c38a7c42c8020a1942d8b00,Cocola,Café,Santa Clara,95050,37.325431,-121.945238
4baf8c9bf964a5208e093ce3,Crepe Delight,Café,Santa Clara,95050,37.325894919503114,-121.94360405240052
4d62e04349758cfa31f15ef0,Fresh Healthy Café,Café,Santa Clara,95050,37.32610762130675,-121.9456905217412
4c7aa0b6566db60c8c8e480e,Fireside Coffee,Café,San Jose,95128,37.32338456978085,-121.95422951654108
502424f5e4b0783685b64fed,Agilent / Keysight Cafeteria,Café,Santa Clara,95051,37.32509537447887,-121.99887712670366
5b6469a2f4b525002c6eaddc,E5 Espresso Bar,Café,Cupertino,95014,37.333679269021296,-122.01051155111429
5bb7b72b1987ec0039ddbc22,E4 Espresso Bar,Café,Cupertino,95014,37.33320525279965,-122.0090231387112
5bad1c002619ee002c8efa69,E3 Espresso Bar,Café,Cupertino,95014,37.333672,-122.00752800000001
4cb4bda6589f236af63d2b3d,My Mom's Cafe,Café,Cupertino,95014,37.324026,-122.01321999999999
5950703bdb1d81557e7b40b8,Visitor Center Caffé,Café,Cupertino,95014,37.333592,-122.005232
4bcdd498cc8cd13a352dc3cf,Apple- Vallco Parkway Cafe,Café,Cupertino,95014,37.326068067056724,-122.01027226242614
4ca3659f1ee76dcbfed7f8dd,Caffe Macs - Espresso Bar,Café,Cupertino,95014,37.32643629811379,-122.0106445564678
44c5f27df964a520d3351fe3,Caffè Macs,Corporate Cafeteria,Cupertino,95014,37.3323301757759,-122.02947215504
4df7ad04483bc3b559357d2f,Caffè Macs - CC2,Corporate Cafeteria,Cupertino,95014,37.32197772179046,-122.02829789849994
4ed80dfa02d5244e2da7280a,Coffee Luvvelo,Café,Cupertino,95014,37.32074283655327,-122.0457504071384
4c28ecef97d00f472fa140ea,Cafe Torre,Café,Cupertino,95014,37.323527,-122.029923
4efb46c4469012b8c461f94a,Andes Cafe,Café,Cupertino,95014,37.32289595857543,-122.05204682879244
4aa6bce1f964a520e14a20e3,Bonjour Crepe Company,Creperie,Cupertino,95014,37.32356607835445,-122.0299224840252
4de68b6e7d8b53987c63bae8,Platters Cafe,Café,Cupertino,95014,37.32066609748739,-122.0314310786675
5807e3ba38faec4dac2bfc5b,Surf City Squeeze,Café,Cupertino,95014,37.319287684108,-122.04537034034729
4dd1493ec65bdac713a57a65,Mediterranean Cafe,Café,Cupertino,95014,37.32038919811652,-122.04538706261516
4f4eb369e4b0e52480690902,Caffè Macs - VG6,Corporate Cafeteria,Cupertino,95014,37.332825,-122.035452
56b6a030498e3b7e8d33da57,Miss Cutie Bistro,Café,San Jose,95148,37.31253455179287,-121.80808552015849
4b9ede29f964a520510737e3,7-Eleven,Convenience Store,San Jose,95111,37.3076799,-121.84695390000002
535de4b9498e282ab73cd65a,Vogue Cafe,Café,San Jose,95112,37.309047,-121.847327
4fe376f4e4b0c7d06f74e401,Ozone coffee Shop,Other Nightlife,San Jose,95112,37.31070912188981,-121.8485858349204
52f818f0498ed4d1e7d6eb36,Cafe Gourmet,Café,San Jose,95125,37.31033144154512,-121.89563094734189
59e9666095a7222dab6c8596,Technoloy Center Cafe,Café,San Jose,95128,37.315717,-121.93126699999999
5cf2be0f33e118002cfa25a4,MB Café,Café,San Jose,95128,37.307534999999994,-121.931178
5020270ee4b0acfbe9b8f8da,valley cafe,Café,San Jose,95128,37.3145473789728,-121.93390333535216
51a4f760498e46100d8b39bb,Kalamata Coffee Company,Café,San Jose,95128,37.31753383588285,-121.94755267791096
4f0636cc722e18ca3b88f173,Kafe Perk,Café,Cupertino,95014,37.31247931032613,-122.00133355811808
4e1ca68ce4cdf4c87bdf6b36,Blackberry Café,Café,Cupertino,95014,37.318182796873614,-122.06061512799913
54013f0b498eeeb2cdfe1431,T'MATES,Café,San Jose,95121,37.300697,-121.823738
5283e902498ef3b6b30e6963,Nuoc Mia Vien Dong,Café,San Jose,95111,37.29836,-121.84054
50a4009ae4b0bf9eb75c52f0,Yogurt Star,Café,San Jose,95111,37.298206326312396,-121.83518560703585
569c5a3b498e002cf485b75c,Cafe Paradise,Café,San Jose,95111,37.300666,-121.857712
4b479870f964a520c53626e3,eBay Cafe,Corporate Cafeteria,San Jose,95125,37.29554038985354,-121.9276631095179
4e341a011495fa2def5a5a27,Green Bites Cafe,Café,San Jose,95128,37.30186045581741,-121.93127877620209
4cc1dc541e596dcbd4b7be67,La Boulanger,Café,Campbell,95008,37.28998182575615,-121.93543112375372
4de2885b2271bfb8449dbb88,Blendz,Café,Campbell,95008,37.294895,-121.932781
4f977506e4b01a1a374ff9b2,wc,Café,Campbell,95008,37.2878,-121.9761
593c6553f62f2b6639f11a7d,K's Crepes & Cafe,Café,San Jose,95129,37.292415999999996,-121.98873999999999
5db21db78b13530008a5d963,Cafe Banc,Café,Saratoga,95070,37.291714,-121.994179
50d7720ae4b0421e62b92bc4,Target Pizza hut,Café,San Jose,95130,37.29116399527285,-121.99035627331074
4f9b2480e4b033ffd3005120,Food Avenue,Café,San Jose,95129,37.291276725655024,-121.9900064479411
5153a474e4b04e3a8d061b99,Boba Tea Express,Café,San Jose,95111,37.279468,-121.834097
4fabef5ae4b09016f6de80a9,Curbside Cafe,Café,San Jose,95136,37.276229,-121.87159
59a76a05d3cce81ac8fcc4e7,İjava On Alamaden,Café,San Jose,95118,37.273315000000004,-121.87943999999999
5c00592d3731ee0039cd63d9,Campbell Coffee House,Café,Campbell,95008,37.284723,-121.949745
4e4de057bd4101d0d79d5212,Blendz,Café,Campbell,95008,37.286842,-121.945205
5a8b00d09746177d495c7ab7,Just Right Family Cafe,Café,Campbell,95008,37.284398,-121.950098
505659a5e4b02f611548cdea,Water Bottle,Café,Campbell,95008,37.281555,-121.934146
4e4dc417bd41b76bef92c8ce,Village Inn,Café,San Jose,95118,37.257474,-121.875998
51d6f086498e776f275dd13b,Classico Cafe,Café,San Jose,95118,37.258118197037284,-121.87702676138949
4f883b7de4b0af4d4cbafcbe,Coffee stop at Varian,Café,San Jose,95118,37.25793838500977,-121.88773345947266
511a6593e4b03dc12cb74916,D's Coffee Shop,Café,Campbell,95008,37.26916,-121.939668
53f14a23498ebccc29595830,Honey Bakery and Cafe,Café,San Jose,95124,37.272048,-121.933454
4f32033719833175d609a2d6,10th Frame Cafe,Café,San Jose,95124,37.26105769275056,-121.92846894264221
4ae3d90bf964a5204c9921e3,Cafè DeliZioso,Café,Campbell,95008,37.26866975656943,-121.94387286901474
4bedcf5e2c082d7f1e892f42,Coffee Dog,Café,Los Gatos,95032,37.260458834290546,-121.96229450725572
4f2078dde4b0a021573d7e45,Purple Onion Cafe,Café,Los Gatos,95032,37.26215360384493,-121.96255342507452
508052f3e4b0ca3a2976e4aa,Bites Cafe,Café,Campbell,95008,37.26798853709479,-121.95766776342803
4f5f8fcde4b040463dd7eceb,West Valley Cafeteria,Café,Saratoga,95070,37.263243734598,-122.01126518494628
4d38a75947303704bfd96aa5,Bell Tower Cafe,American Restaurant,Saratoga,95070,37.25832,-122.031746
4c0ef78c98102d7f549ee406,Camilles Sidewalk Cafe,Café,San Jose,95123,37.24844234077421,-121.85789831813746
51e452f5498e1772f76722fd,Camille's Sidewalk Cafe,Café,San Jose,95123,37.248355,-121.857896
4b4a18d9f964a520787a26e3,The Cup and Saucer,Café,San Jose,95118,37.244862588133714,-121.88932730023471
528101f411d2b3a7b8645be8,Bills Cafe,Breakfast Spot,San Jose,95118,37.24640855784563,-121.89032052296842
4f026630490182a1aa0a58e1,Barnes & Noble Cafe,Café,San Jose,95118,37.253156556382976,-121.87692199006443
4edbd6e329c2b9122a28a5fd,LG JCC Cafeteria,Café,Los Gatos,95032,37.25238990006454,-121.96162244733408
59caf93516fa042742d991c5,Cafe Vida,Mexican Restaurant,Los Gatos,95032,37.25643,-121.967192
56294d76498eedc988ed25ff,Sue's Gallery,Café,Saratoga,95070,37.255712135050345,-122.03751652644621
4f4f3af5e4b0b5f5b0cbc2ee,Nyu-Nyu Cafe,Café,Tomohon,95123,37.2374847,-121.8277925
4f772e0ee4b094893634dbcb,Camden Coffee Shack,Café,San Jose,95124,37.237925075004696,-121.9032264144662
4e3c61d0e4cdab9b9334de81,My Fave Table,Café,San Jose,95032,37.23588180541992,-121.96456146240234
4bdc53ecfed22d7f62a757c9,Christy's Donuts,Donut Shop,Milpitas,95035,37.436167693079035,-121.88500221808692
4ac7a5d4f964a520c6b820e3,Bascom Donuts,Donut Shop,San Jose,95134,37.42031373333333,-121.95330873333334
4aaa7482f964a520045620e3,Donut Basket,Donut Shop,Mountain View,94043,37.41425311570525,-122.09314139434866
4aaed176f964a5206d6320e3,Happy Donuts,Donut Shop,Palo Alto,94306,37.41653832912701,-122.12998253721031
4b916969f964a5204aba33e3,Jelly Donut,Donut Shop,San Jose,95132,37.404034948777536,-121.8816872950863
4bed6a81e3562d7ff9f1fef8,Susan's Donuts,Donut Shop,Sunnyvale,94089,37.403889101592824,-121.99535579196927
500dda86e4b0fec2cec56829,Krispy Kreme Kiosk,Donut Shop,Sunnyvale,94085,37.397787,-122.027346
4a5d34e5f964a5205fbd1fe3,Roger's Deli & Donuts,Breakfast Spot,Mountain View,94043,37.397111451675094,-122.0599950689922
4bc208a0461576b0fbb17c32,Christy's Donuts,Donut Shop,San Jose,95132,37.387865179247264,-121.85987022347156
4b9d4c6ff964a5206da136e3,Daily Donuts & Sandwiches,Donut Shop,Sunnyvale,94085,37.39149641004529,-122.01370276628313
4c49d74ab5eec9b6fc8f4ca5,Donuts & Sandwiches,Donut Shop,Sunnyvale,94085,37.382109,-122.018749
543d3000498e0a3393ebbc1f,Marty's Donuts,Donut Shop,Sunnyvale,94085,37.388163,-122.0298
4f32423219836c91c7c5de1b,Olivari Donuts,Donut Shop,Mountain View,94040,37.386299,-122.084999
4a70a457f964a5200bd81fe3,Donut du Jour,Donut Shop,Los Altos,94022,37.380151,-122.11595
4cd6fbc3b2a4370484e88744,Yum Yum Donuts,Donut Shop,San Jose,95116,37.36594613716893,-121.84992630675028
4dcbe625ae60f2054418b987,Donuts,Donut Shop,San Jose,95133,37.373604,-121.871977
4b64234df964a520d3a02ae3,Donut Den,Donut Shop,Santa Clara,95050,37.366127,-121.942249
5008cce1e4b074c5b64056d7,Krispy Kreme Kiosk,Donut Shop,Sunnyvale,94086,37.37255912823146,-121.99495942674284
4d7936d971a68cfa97f31286,Daily Donuts & Sandwiches,Donut Shop,Sunnyvale,94086,37.37692768079136,-122.02878917811674
4ae9d20df964a520bbb621e3,Dawn Donuts,Donut Shop,San Jose,95127,37.358012,-121.82029299999999
5526cb85498e0fd8d412e6a4,Jackson's Donuts,Donut Shop,San Jose,95116,37.35649,-121.840844
53457a15498e0a2efe1ed4b0,World Donuts 'n' Ice Cream,Donut Shop,San Jose,95127,37.355852,-121.83165100000001
57bb493a498e05b2d5ae8413,Psycho Donuts,Donut Shop,Santa Clara,95050,37.351718788140396,-121.95988058153496
4be59015bcef2d7f18ef03e5,Maple Leaf Donuts,Donut Shop,Santa Clara,95050,37.355300542365796,-121.95914604902704
4b3b97caf964a520987625e3,Best Donuts,Donut Shop,Santa Clara,95050,37.338066,-121.938582
4b0d6183f964a520354723e3,Stan's Donut Shop,Donut Shop,Santa Clara,95051,37.33905496754228,-121.97302387715864
4b4225b6f964a5209bcd25e3,Manley's Donut Shop,Donut Shop,at Cupertino,95014,37.33707816808131,-122.0328838234447
4b6226bdf964a520b9382ae3,Evergreen Donut,Donut Shop,San Jose,95148,37.323487469855856,-121.79582235837256
4aabb364f964a520ce5920e3,Willow Donuts & Coffee Shop,Donut Shop,San Jose,95110,37.319356,-121.882118
49ed5c44f964a520e5671fe3,Tasty Donuts,Donut Shop,San Jose,95129,37.318964830637825,-121.97406040372114
429cfa80f964a520b6241fe3,Donut Wheel,Donut Shop,Cupertino,95014,37.32643574592789,-122.03185422922834
5008b145e4b07ea990662552,Krispy Kreme Kiosk,Donut Shop,San Jose,95148,37.31430120070407,-121.79220501892038
4bd46e32cfa7b7133c0224da,Mr. Chau Donuts,Donut Shop,San Jose,95121,37.30666249,-121.81234599999999
5a1a3fd667a9fe1dc0659df2,Le Crème Cafe,Donut Shop,San Jose,95121,37.3086178112692,-121.8136738947807
4c2f43c17cc0c9b6775beb9a,Manley Donut Shop,Donut Shop,San Jose,95125,37.30677716666667,-121.89164734
4a11d88cf964a52052771fe3,Yum Yum Donuts,Donut Shop,San Jose,95125,37.30413606835868,-121.91337832408935
4ac78123f964a520a0b720e3,Manley's Donut Shop,Donut Shop,San Jose,95125,37.30952145073852,-121.9016761641057
5aca48d272475061c788afc7,Modo Pop Up,Pop-Up Shop,San Jose,95129,37.314985825231695,-121.97780988750715
4b6a453bf964a52019d02be3,Maple Leaf Donuts,Donut Shop,San Jose,95129,37.304899006087496,-121.97852044918501
4b60e44af964a5200f002ae3,Happy Donuts,Donut Shop,San Jose,95129,37.30785530379447,-122.03189046756944
4ca8f305f47ea143247e7a21,Hooz Donuts,Donut Shop,San Jose,95125,37.292024410912695,-121.87848961749205
4c499cc56594be9ac7234f25,Manley's Donut Shop,Donut Shop,San Jose,95125,37.29476,-121.913193
4b4010bcf964a52023b525e3,Happy Donuts,Donut Shop,San Jose,95128,37.30007771753628,-121.95039974084324
4b3ef502f964a5204da325e3,Happy Donuts,Donut Shop,San Jose,95111,37.28374176461524,-121.83371986870031
4d8b60c0bc848cfad102ef2b,Denises Donuts,Donut Shop,San Jose,95111,37.27933304291631,-121.83302519146216
4ba294f6f964a5205a0638e3,Supreme Doughnut,Donut Shop,San Jose,95118,37.27844615614071,-121.87925320480507
49c2d6eff964a5202f561fe3,Psycho Donuts,Donut Shop,Campbell,95008,37.28681323031683,-121.94952002898421
4bb7984e1261d13ab889e798,Manley's Donut Shop,Donut Shop,San Jose,95124,37.27469924802443,-121.9334015452333
4ac78b74f964a520e3b720e3,Maple Leaf Donuts,Donut Shop,Campbell,95008,37.281071498509284,-121.95032225629492
4be42bdabcef2d7f682602e5,Delicious Donut and Deli,Donut Shop,Campbell,95008,37.287486,-121.975445
4c39fa041e06d13a5d707a3e,Almaden Donuts,Donut Shop,San Jose,95118,37.261286,-121.87608999999999
4bf9544f5efe2d7f21016c34,Bascom Donuts,Donut Shop,San Jose,95124,37.258736717906366,-121.94738158550888
4ae9ba53f964a520e7b521e3,Sunny Donuts,Donut Shop,San Jose,95124,37.261389747154865,-121.93174756843901
4ea453b0b6347b996894b1c0,Henry's Donuts and Coffee,American Restaurant,San Jose,95123,37.24918937114109,-121.80446405186251
4bfaa6544a67c9282d8b28cf,Donut Basket,Donut Shop,San Jose,95123,37.251945,-121.83202743530272
4b615e63f964a52041112ae3,Yum Yum Donuts,Donut Shop,San Jose,95123,37.25109117958356,-121.82872778792331
4be706dd2468c928abfb0143,Donut Basket,Donut Shop,San Jose,95118,37.249718115896954,-121.8790278024747
4ce0319cf8a4a143c40fe3bc,Daily Donuts,Donut Shop,San Jose,95123,37.236518,-121.80270900000001
4ac7acfbf964a52007b920e3,Sam's Donuts,Donut Shop,San Jose,95123,37.237826,-121.832146
4bae1144f964a5207b803be3,Manley's Donut Shop,Donut Shop,San Jose,95124,37.2329295230796,-121.90192253357635
4b2c14aaf964a52028c124e3,Ten Ren Tea,Tea Room,Milpitas,95035,37.45552339857985,-121.91001081446548
4c322e0c213c2d7f7706355d,Tea Time,Tea Room,Palo Alto,94301,37.44479086189232,-122.16145721035109
542eec1b498e94ab4c41d881,DAVIDsTEA,Tea Room,Palo Alto,94301,37.44628819587389,-122.16122028872374
5830e4b6072d6b357740e9c2,Tea Top 台灣第一味,Tea Room,Milpitas,95035,37.42649788046639,-121.92145002756956
505e197ae4b0c1f8b6f43724,England Rose Garden,Tea Room,Milpitas,95035,37.41935420698473,-121.91588826923291
57bf7ef0498e1bdf37e11f2d,Jazen Tea,Tea Room,Santa Clara,95054,37.38940892018528,-121.98368008823995
5c1aff7b66f3cd002c058ede,Mountain View Tea,Tea Room,Mountain View,94041,37.39165,-122.08000200000001
52708f2b11d25e96f7974a0b,Bubbles Tea,Tea Room,San Jose,95133,37.36996960000477,-121.84481620788576
524df1e7498ea706a20a9eb2,Lisa's Tea Treasures,Tea Room,Los Altos,94022,37.37912470518596,-122.11501925635972
4aecb2daf964a5205dca21e3,Chasaengwon Tea House,Tea Room,Santa Clara,95051,37.352148,-121.98757173333334
5275c2e011d24671b6601018,Jazen Tea,Tea Room,Santa Clara,95051,37.35205271957618,-121.99280542185116
5afcee0488a48b0024f7c636,Tea Village,Tea Room,San Jose,95113,37.338584000000004,-121.885324
53c0ab2c498e4815fa5e8b13,Bobo Drinks,Tea Room,San Jose,95113,37.33941698595256,-121.88415884971614
570fef7c498ece022d9a4d85,One Tea,Tea Room,San Jose,95113,37.33850003463682,-121.88555395226057
4b89a072f964a5205d4732e3,Tea Oasis,Tea Room,Cupertino,95014,37.335743,-122.014844
5d4220b44478ea00088cb4a2,Ume teashop,Tea Room,Cupertino,94087,37.33578,-122.01563999999999
5221502111d2ac72e9367de6,Quickly 快可立,Tea Room,San Jose,95122,37.32510800041477,-121.81377316492996
5c78a2111b0ea5002c7bed19,Lucky Tea,Tea Room,San Jose,95122,37.330659000000004,-121.85588200000001
5e3b4fb24c4a8500088948d4,Tea Villa,Tea Room,San Jose,95113,37.333765,-121.88844499999999
5cabce600e3239002b14dc74,T2 Tea Valley Fair,Tea Room,Santa Clara,95050,37.325947,-121.94668
4b7b1299f964a520cf4f2fe3,Lisa’s Tea Treasures,Tea Room,San Jose,95128,37.319120424456116,-121.94911635456528
5c43d8ceacc5f5002c0588ef,T2Tea,Tea Room,San Jose,95050,37.325515,-121.94584099999999
4e90cdcc8231d8feae2a9d5d,Tapioca Express,Tea Room,San Jose,95111,37.302953290289366,-121.86475235509022
4b494c64f964a520ca6c26e3,QQQ Tea,Tea Room,San Jose,95129,37.29550368462992,-122.03133250048258
5db1e6e76d3263000869e9b1,Lisa’s Tea Treasures,Tea Room,Campbell,95008,37.28161,-121.949871
526acfd5498ec929b70efc97,Steepers,Tea Room,Campbell,95008,37.286808,-121.944222
5683249a498e7c65bb1f4b3b,satori tea company,Tea Room,Saratoga,95070,37.257485,-122.033472
52df257c498eb923657b23b6,Tapioca Island,Tea Room,San Jose,95123,37.24545199923697,-121.8047093647978
57f825b8498eab93f8e47453,Amor Café and Tea Oakridge,Tea Room,San Jose,95123,37.251715000000004,-121.861104
566a84fe498ef1f993156d08,DAVIDsTEA,Tea Room,San Jose,95123,37.25152576870788,-121.86216607689856
55e8d2b0498e81ccc89e7b1d,Tleaf Teapresso,Tea Room,San Jose,95123,37.24864553267912,-121.85803691656942
58d8406cda54ae0f567a99d3,Gong Cha Blossom Hill,Tea Room,San Jose,95118,37.249643,-121.879224
4f32235719836c91c7b9da5e,Tapioca Express,Coffee Shop,San Jose,95112,37.336498,-121.87696299999999
4f3262fd19836c91c7d2c424,Cafe Boba,Coffee Shop,San Jose,95112,37.334807,-121.886753
4f323bdb19836c91c7c35d93,Cafe Nonos,Coffee Shop,San Jose,95113,37.33622800000001,-121.891266
565f301b498ec83c32090523,Kartma Street Cafe,Coffee Shop,San Jose,95113,37.33543378998199,-121.89202257139351
